{"type":"FeatureCollection","features":[
{"type":"Feature","geometry":{"type":"LineString","coordinates":[[32.99479,-14.00119],[32.99449,-14.00131],[32.99365,-14.00167],[32.99355,-14.00171],[32.99286,-14.00202],[32.99003,-14.0033],[32.98714,-14.00462],[32.98458,-14.00577],[32.9843,-14.00591],[32.98407,-14.00607],[32.98393,-14.00623],[32.9838,-14.00643],[32.9837,-14.00661],[32.98338,-14.00731],[32.98289,-14.00829],[32.98231,-14.00945],[32.98158,-14.01078],[32.9808,-14.01225],[32.97986,-14.01405],[32.97953,-14.01459],[32.97935,-14.01487],[32.97922,-14.01514],[32.97915,-14.01532],[32.97883,-14.01617],[32.97869,-14.01652],[32.97866,-14.01659],[32.97861,-14.01666],[32.97854,-14.01672],[32.97844,-14.01679],[32.97817,-14.01694],[32.97743,-14.01734],[32.97715,-14.01749],[32.97704,-14.01753],[32.97691,-14.01757],[32.97682,-14.01758],[32.9767,-14.01758],[32.97659,-14.01755],[32.97652,-14.01751],[32.97645,-14.01745],[32.97637,-14.01735],[32.97581,-14.01593],[32.97571,-14.01577],[32.97565,-14.0157],[32.9756,-14.01566],[32.97554,-14.01563],[32.97545,-14.0156],[32.9753,-14.01564],[32.97511,-14.01565],[32.97493,-14.01563],[32.97461,-14.01554],[32.97439,-14.0155],[32.97421,-14.01551],[32.9741,-14.01556],[32.97397,-14.01568],[32.97351,-14.01624],[32.97308,-14.01669],[32.97296,-14.01681],[32.97285,-14.01692],[32.97267,-14.01706],[32.9725,-14.01716],[32.97163,-14.01756],[32.97106,-14.01787],[32.9707,-14.01808],[32.97053,-14.01821],[32.97027,-14.01839],[32.96966,-14.01884],[32.96896,-14.01936],[32.96881,-14.01946],[32.96861,-14.01955],[32.96841,-14.01961],[32.9683,-14.01967],[32.96822,-14.01974],[32.9677,-14.02031],[32.96724,-14.02079],[32.96702,-14.02095],[32.96692,-14.02108],[32.96686,-14.02118],[32.96683,-14.02129],[32.96678,-14.02181],[32.96664,-14.02204],[32.96658,-14.02219],[32.96657,-14.02227],[32.96657,-14.02237],[32.96657,-14.02252],[32.96673,-14.02284],[32.96675,-14.02297],[32.96676,-14.0231],[32.96674,-14.02323],[32.96663,-14.02339],[32.96659,-14.02345],[32.96653,-14.0235],[32.9664,-14.0236],[32.96621,-14.02369],[32.96588,-14.02381],[32.965,-14.02411],[32.96476,-14.02422],[32.96464,-14.02431],[32.96456,-14.02438],[32.9645,-14.02447],[32.96447,-14.02459],[32.96443,-14.02478],[32.96441,-14.02496],[32.96436,-14.0258],[32.9643,-14.02657],[32.96425,-14.02678],[32.9642,-14.02691],[32.96404,-14.02725],[32.9637,-14.02792],[32.96358,-14.02809],[32.9635,-14.02817],[32.96316,-14.02839],[32.96276,-14.02867],[32.96238,-14.02897],[32.96225,-14.02908],[32.96215,-14.0292],[32.96207,-14.02933],[32.96182,-14.02976],[32.96154,-14.03033],[32.96133,-14.0309],[32.96085,-14.03207],[32.9607,-14.03241],[32.96046,-14.0327],[32.96011,-14.03299],[32.95854,-14.03417],[32.95726,-14.03518],[32.95697,-14.03542],[32.95669,-14.03571],[32.95398,-14.03882],[32.95352,-14.03933],[32.95321,-14.03957],[32.95275,-14.03983],[32.95223,-14.04007],[32.95206,-14.04021],[32.95192,-14.04038],[32.95172,-14.04069],[32.95144,-14.04105],[32.95084,-14.04178],[32.95057,-14.04206],[32.9502,-14.04225],[32.9464,-14.04373],[32.94613,-14.04383],[32.94583,-14.04396],[32.94539,-14.04416],[32.94483,-14.04429],[32.94415,-14.04476],[32.94376,-14.0451],[32.94362,-14.04517],[32.94339,-14.04516],[32.94243,-14.04487],[32.94211,-14.0448],[32.94176,-14.04473],[32.94112,-14.04462],[32.94047,-14.04452],[32.93823,-14.04421],[32.93616,-14.0439],[32.93593,-14.04387],[32.93558,-14.04383],[32.93411,-14.04398],[32.92979,-14.04423],[32.92928,-14.04424],[32.92887,-14.04428],[32.92831,-14.04443],[32.92678,-14.04496],[32.92606,-14.0452],[32.9258,-14.0452],[32.9256,-14.04512],[32.92541,-14.0449],[32.92512,-14.0444],[32.92489,-14.04404],[32.92469,-14.04392],[32.92447,-14.04391],[32.92332,-14.04417],[32.9227,-14.04422],[32.9219,-14.04415],[32.92083,-14.04392],[32.91184,-14.04196],[32.90786,-14.04113],[32.90756,-14.04113],[32.90725,-14.04116],[32.90698,-14.04127],[32.90675,-14.04145],[32.90633,-14.04198],[32.90572,-14.04281],[32.90562,-14.04292]]},"properties":{"id":243154412,"cls":"tertiary","hw":"tertiary","tg":"na","name":"","ref":"D406","surface":"unpaved","sc":"unpaved","speed":null,"lit":"unk","km":12.51}},
{"type":"Feature","geometry":{"type":"LineString","coordinates":[[32.99365,-14.00167],[32.99369,-14.00174],[32.99373,-14.00179],[32.99377,-14.00183],[32.99379,-14.00188],[32.99381,-14.00197],[32.99385,-14.00208],[32.99396,-14.00235],[32.99404,-14.00252],[32.99415,-14.00267],[32.99425,-14.00284],[32.99437,-14.00308],[32.99446,-14.00329],[32.99447,-14.00336],[32.99447,-14.00338],[32.99447,-14.0034],[32.99445,-14.00344],[32.99444,-14.00355],[32.99435,-14.00372],[32.99426,-14.00388],[32.99423,-14.00394],[32.99422,-14.00399],[32.99419,-14.00407],[32.99412,-14.00427],[32.99406,-14.00443],[32.99399,-14.00452],[32.99391,-14.00464],[32.99381,-14.0048],[32.99372,-14.0049],[32.99363,-14.005],[32.9935,-14.00513],[32.99341,-14.00521],[32.99337,-14.00525],[32.99334,-14.00532],[32.99328,-14.00547],[32.99323,-14.0056],[32.99311,-14.00581],[32.99308,-14.0059],[32.99303,-14.00606],[32.99298,-14.00621],[32.99292,-14.00635],[32.99286,-14.00647],[32.99284,-14.00652],[32.99283,-14.00658],[32.9928,-14.0068],[32.9928,-14.00686],[32.9928,-14.00691],[32.99285,-14.00717],[32.99288,-14.00738],[32.9929,-14.00748],[32.99292,-14.00758],[32.99298,-14.0078],[32.99304,-14.00803],[32.99306,-14.00811],[32.99307,-14.00819],[32.99306,-14.00827],[32.99304,-14.00836],[32.99317,-14.00966]]},"properties":{"id":331047310,"cls":"unclassified","hw":"unclassified","tg":"na","name":"","ref":"","surface":"unpaved","sc":"unpaved","speed":null,"lit":"unk","km":0.962}},
{"type":"Feature","geometry":{"type":"LineString","coordinates":[[32.99003,-14.0033],[32.99016,-14.00363],[32.99029,-14.00395],[32.99041,-14.00417],[32.99046,-14.00424],[32.99051,-14.00427],[32.99057,-14.00427],[32.99138,-14.0042],[32.99226,-14.00411],[32.99258,-14.00409],[32.99335,-14.00405],[32.99402,-14.00407],[32.99419,-14.00407],[32.99425,-14.0041],[32.99455,-14.00417],[32.99488,-14.0043],[32.99522,-14.00443],[32.99555,-14.0045],[32.99575,-14.00457]]},"properties":{"id":331047311,"cls":"track","hw":"track","tg":"none","name":"","ref":"","surface":"","sc":"unknown","speed":null,"lit":"unk","km":0.697}},
{"type":"Feature","geometry":{"type":"LineString","coordinates":[[32.99355,-14.00171],[32.99389,-14.00078]]},"properties":{"id":331047314,"cls":"service","hw":"service","tg":"na","name":"","ref":"","surface":"unpaved","sc":"unpaved","speed":null,"lit":"unk","km":0.11}},
{"type":"Feature","geometry":{"type":"LineString","coordinates":[[32.99853,-14.01373],[32.99895,-14.01367],[32.99916,-14.01365],[32.99922,-14.01364],[32.99932,-14.01364],[32.99971,-14.01363],[32.99983,-14.01364],[32.99989,-14.01365],[32.99994,-14.01367],[33.00001,-14.01371],[33.00018,-14.0139],[33.00022,-14.01393],[33.00028,-14.01397],[33.00071,-14.01408],[33.00087,-14.01415],[33.00095,-14.01419],[33.00116,-14.01431],[33.00153,-14.01454],[33.00164,-14.01461],[33.00168,-14.01463],[33.00175,-14.01468],[33.00209,-14.01488],[33.00215,-14.01494],[33.00222,-14.015],[33.00247,-14.01525],[33.00257,-14.01534],[33.00263,-14.01541],[33.00272,-14.01551],[33.00278,-14.01557],[33.00282,-14.01562],[33.00287,-14.01565],[33.00295,-14.01569],[33.00307,-14.01573],[33.0032,-14.01576],[33.00327,-14.01576],[33.00333,-14.01576],[33.0034,-14.01573],[33.00344,-14.0157],[33.00349,-14.01567],[33.00363,-14.0156],[33.00371,-14.01557],[33.0038,-14.01554],[33.00389,-14.01552],[33.00398,-14.0155],[33.00408,-14.01549],[33.0045,-14.01547],[33.00456,-14.01546],[33.00462,-14.01545],[33.00469,-14.01542],[33.0053,-14.01512],[33.00592,-14.01483],[33.00602,-14.01478],[33.00605,-14.01476],[33.00611,-14.01472],[33.00616,-14.01468],[33.00623,-14.01465],[33.00661,-14.01449],[33.00667,-14.01447],[33.00673,-14.01443],[33.00739,-14.01404],[33.0076,-14.0139],[33.00764,-14.01388],[33.00768,-14.01385],[33.0077,-14.01382],[33.00774,-14.01379],[33.00778,-14.01377],[33.00783,-14.01374],[33.00816,-14.01347],[33.00888,-14.01287],[33.00897,-14.0128],[33.00907,-14.01273],[33.00914,-14.01268],[33.00919,-14.01265],[33.00923,-14.01262],[33.00934,-14.01249]]},"properties":{"id":685408543,"cls":"residential","hw":"residential","tg":"na","name":"","ref":"","surface":"","sc":"unknown","speed":null,"lit":"unk","km":1.354}},
{"type":"Feature","geometry":{"type":"LineString","coordinates":[[32.99713,-14.00914],[32.99646,-14.00936],[32.99583,-14.00952],[32.99576,-14.00954],[32.99571,-14.00955],[32.99564,-14.00955],[32.9955,-14.00954],[32.99511,-14.00955],[32.99508,-14.00956],[32.99504,-14.00956],[32.99499,-14.00956],[32.99475,-14.00953],[32.99469,-14.00952],[32.99429,-14.00954],[32.99344,-14.00961],[32.99329,-14.00961],[32.99325,-14.00962],[32.99322,-14.00963],[32.99317,-14.00966]]},"properties":{"id":685410212,"cls":"track","hw":"track","tg":"none","name":"","ref":"","surface":"","sc":"unknown","speed":null,"lit":"unk","km":0.436}},
{"type":"Feature","geometry":{"type":"LineString","coordinates":[[32.99862,-14.00437],[32.9988,-14.00435],[32.99893,-14.0043],[32.99936,-14.00402],[32.99972,-14.00379],[33.00011,-14.00347],[33.00024,-14.00334],[33.00034,-14.00327],[33.0006,-14.00306],[33.00083,-14.00285],[33.00113,-14.00258],[33.00133,-14.00247],[33.00148,-14.00239],[33.0016,-14.00235],[33.00171,-14.00232],[33.00182,-14.00228],[33.00189,-14.00224],[33.00197,-14.00217],[33.00207,-14.00202],[33.00215,-14.00186],[33.00227,-14.00167],[33.00245,-14.00142],[33.00254,-14.00128],[33.00261,-14.00118],[33.00281,-14.00088],[33.00291,-14.00076],[33.003,-14.00066],[33.00308,-14.00053],[33.00326,-14.00018],[33.0035,-13.99978],[33.00369,-13.99951],[33.00376,-13.99942],[33.00407,-13.99906],[33.00423,-13.99888],[33.00431,-13.99876],[33.00436,-13.99865],[33.00447,-13.99842],[33.0047,-13.99802],[33.0049,-13.99763],[33.00502,-13.99737],[33.00521,-13.99701],[33.00549,-13.99647],[33.00579,-13.99586],[33.00591,-13.99565],[33.00606,-13.99541],[33.0063,-13.99507],[33.00648,-13.9948],[33.00678,-13.99434],[33.007,-13.99402],[33.00712,-13.99386],[33.00725,-13.99373],[33.00738,-13.99362],[33.00745,-13.99356],[33.00753,-13.99347],[33.0077,-13.99327],[33.00779,-13.99317],[33.00789,-13.99308],[33.00805,-13.99295],[33.00815,-13.99287]]},"properties":{"id":688127842,"cls":"residential","hw":"residential","tg":"na","name":"","ref":"","surface":"","sc":"unknown","speed":null,"lit":"unk","km":1.681}},
{"type":"Feature","geometry":{"type":"LineString","coordinates":[[32.99479,-14.00119],[32.99477,-14.00105],[32.99478,-14.00086],[32.99474,-14.00001],[32.99466,-13.99862],[32.99461,-13.99708],[32.99457,-13.99639],[32.99456,-13.99624],[32.99456,-13.99608],[32.9946,-13.99584],[32.99473,-13.99525],[32.99489,-13.99456],[32.99512,-13.99379],[32.99544,-13.99272],[32.99578,-13.99177],[32.99604,-13.99093],[32.99648,-13.98956],[32.99654,-13.98933],[32.9966,-13.98907],[32.99666,-13.98873],[32.99671,-13.98846],[32.99676,-13.98826],[32.99681,-13.98811],[32.99697,-13.98776],[32.99717,-13.98732],[32.99728,-13.98705],[32.99916,-13.98157],[32.99973,-13.97995],[33.00004,-13.97906],[33.00029,-13.97835],[33.0005,-13.97772],[33.00069,-13.97722],[33.00074,-13.97708],[33.00078,-13.97696],[33.00079,-13.97687],[33.00082,-13.97662],[33.00082,-13.97652],[33.00084,-13.97634],[33.00085,-13.97583],[33.00085,-13.97553],[33.00087,-13.97468],[33.00087,-13.9733],[33.00087,-13.97225],[33.00086,-13.97205],[33.00085,-13.97187],[33.00082,-13.97163],[33.00078,-13.97138],[33.00072,-13.97114],[33.00066,-13.97096],[33.00056,-13.97067],[33.00048,-13.97047],[33.00039,-13.97023],[33.00024,-13.96989],[33.00005,-13.96946],[32.99988,-13.96899],[32.99947,-13.96752],[32.99905,-13.96555],[32.9986,-13.96338],[32.9986,-13.96281],[32.99911,-13.96072],[32.99964,-13.9588],[32.99985,-13.95777],[32.99987,-13.95732],[32.99975,-13.95684],[32.9976,-13.95241],[32.99612,-13.94931],[32.99582,-13.94904],[32.99495,-13.94828],[32.99325,-13.94714],[32.99252,-13.94681],[32.99152,-13.94634],[32.98949,-13.94564],[32.98819,-13.94515],[32.98689,-13.94469],[32.98384,-13.94355],[32.98326,-13.94326],[32.98282,-13.94298],[32.98205,-13.94258],[32.981,-13.94231],[32.98031,-13.94221],[32.97958,-13.94201],[32.97792,-13.94135],[32.97597,-13.94084],[32.97531,-13.94075],[32.97436,-13.9407],[32.97279,-13.94068],[32.97048,-13.94031],[32.97038,-13.9403],[32.97016,-13.94031],[32.96997,-13.94034],[32.96822,-13.94097],[32.96739,-13.94124],[32.96732,-13.94125],[32.96665,-13.94127],[32.96489,-13.94116],[32.96228,-13.94084],[32.96015,-13.94055],[32.95928,-13.94066],[32.958,-13.9411],[32.95539,-13.94258],[32.95528,-13.94265],[32.95494,-13.94286],[32.95431,-13.94332],[32.95367,-13.94393],[32.95282,-13.94481]]},"properties":{"id":1265815820,"cls":"tertiary","hw":"tertiary","tg":"na","name":"","ref":"D130","surface":"unpaved","sc":"unpaved","speed":null,"lit":"unk","km":11.083}},
{"type":"Feature","geometry":{"type":"LineString","coordinates":[[32.99317,-14.00966],[32.99317,-14.0097],[32.99318,-14.0101],[32.99317,-14.01019],[32.99293,-14.01098],[32.99279,-14.01137],[32.99274,-14.0115],[32.99272,-14.01159],[32.99256,-14.01227],[32.99254,-14.01231],[32.99234,-14.01262],[32.99217,-14.01284],[32.99196,-14.0131],[32.99188,-14.0132],[32.99183,-14.01328],[32.99159,-14.0138],[32.99152,-14.01396]]},"properties":{"id":1266537234,"cls":"unclassified","hw":"unclassified","tg":"na","name":"","ref":"","surface":"unpaved","sc":"unpaved","speed":null,"lit":"unk","km":0.52}}
]}