{"type":"FeatureCollection","features":[
{"type":"Feature","geometry":{"type":"LineString","coordinates":[[32.99455,-9.5787],[32.99474,-9.57871],[32.99507,-9.57871],[32.99512,-9.57872],[32.99526,-9.57876],[32.99534,-9.57876],[32.99543,-9.57875],[32.99567,-9.57869],[32.99609,-9.57863],[32.9964,-9.57859],[32.9967,-9.57858],[32.99691,-9.57855],[32.99721,-9.57852],[32.99726,-9.57851],[32.99731,-9.57847],[32.99739,-9.5784],[32.99742,-9.57838],[32.99749,-9.57835],[32.99754,-9.57831],[32.99767,-9.57817],[32.99784,-9.57808],[32.99794,-9.57806],[32.99798,-9.57803],[32.99805,-9.57795],[32.9983,-9.57778],[32.99842,-9.57767],[32.99848,-9.57764],[32.99865,-9.5775],[32.99871,-9.57748],[32.999,-9.57746],[32.9991,-9.57747],[32.99922,-9.57744],[32.99956,-9.5774],[32.9997,-9.57739],[32.99977,-9.57741],[32.99993,-9.5774],[33.00002,-9.57739],[33.00012,-9.57737],[33.00014,-9.57734],[33.00016,-9.57729]]},"properties":{"id":471737154,"cls":"unclassified","hw":"unclassified","tg":"na","name":"","ref":"","surface":"unpaved","sc":"unpaved","speed":null,"lit":"unk","km":0.665}},
{"type":"Feature","geometry":{"type":"LineString","coordinates":[[32.99564,-9.53848],[32.99571,-9.53863],[32.9957,-9.53878],[32.99564,-9.53891],[32.99563,-9.53904],[32.99555,-9.5394],[32.99554,-9.53957],[32.99548,-9.5397],[32.99531,-9.54022],[32.99527,-9.54029],[32.99526,-9.54034],[32.99528,-9.54039],[32.99529,-9.54043],[32.99528,-9.54055],[32.99531,-9.54062]]},"properties":{"id":584181588,"cls":"track","hw":"track","tg":"none","name":"","ref":"","surface":"","sc":"unknown","speed":null,"lit":"unk","km":0.249}},
{"type":"Feature","geometry":{"type":"LineString","coordinates":[[32.99348,-9.54346],[32.99365,-9.54339],[32.99411,-9.54321],[32.99448,-9.54311],[32.99499,-9.54299],[32.99514,-9.54303],[32.99529,-9.54308],[32.99541,-9.54314],[32.99551,-9.54315],[32.99571,-9.54319],[32.99588,-9.54323]]},"properties":{"id":584242837,"cls":"path","hw":"path","tg":"na","name":"","ref":"","surface":"","sc":"unknown","speed":null,"lit":"unk","km":0.276}},
{"type":"Feature","geometry":{"type":"LineString","coordinates":[[32.99623,-9.55537],[32.99631,-9.55536],[32.99641,-9.55535],[32.99647,-9.55533],[32.99656,-9.5553],[32.99661,-9.5553],[32.99667,-9.55531],[32.99675,-9.55535],[32.99678,-9.55535],[32.99683,-9.55532],[32.9969,-9.55528],[32.99696,-9.55527],[32.99735,-9.55516],[32.99741,-9.55516],[32.99765,-9.55526],[32.99776,-9.55534],[32.99787,-9.55541],[32.99789,-9.55544],[32.99813,-9.55572],[32.99828,-9.55582],[32.99833,-9.55587],[32.99836,-9.55594],[32.99842,-9.55608],[32.99845,-9.55611],[32.99852,-9.55629],[32.99854,-9.55631],[32.99857,-9.55633],[32.99859,-9.55636],[32.99863,-9.55645],[32.99868,-9.55651],[32.99878,-9.55663],[32.99885,-9.55669],[32.99901,-9.5568],[32.99913,-9.55687],[32.99919,-9.55689],[32.99923,-9.5569],[32.99934,-9.55695],[32.9994,-9.557],[32.99943,-9.55703],[32.99958,-9.55708],[32.9997,-9.5571],[32.99977,-9.55714],[32.99985,-9.55717],[32.9999,-9.55719],[32.99995,-9.55724],[33.00007,-9.55731],[33.00039,-9.55741],[33.00062,-9.55749],[33.00066,-9.55751],[33.00069,-9.55756],[33.0007,-9.55765],[33.00069,-9.55781],[33.00071,-9.55786],[33.00078,-9.55795],[33.00083,-9.55797],[33.00095,-9.55799],[33.00106,-9.55802],[33.00136,-9.55806],[33.00146,-9.55809],[33.00153,-9.55815],[33.00156,-9.55822],[33.00158,-9.55823],[33.00162,-9.55823],[33.00175,-9.55831],[33.00181,-9.55836],[33.00183,-9.55838],[33.00184,-9.55843],[33.00187,-9.55845],[33.00192,-9.55846],[33.00203,-9.55845],[33.00208,-9.55845],[33.0022,-9.55848],[33.00237,-9.55849],[33.00262,-9.55853],[33.00296,-9.55859],[33.00305,-9.55861],[33.00316,-9.55862],[33.00343,-9.55862],[33.00353,-9.55864],[33.00411,-9.55893],[33.0042,-9.55896],[33.00427,-9.55899],[33.00434,-9.55906],[33.0044,-9.55909],[33.00446,-9.5591],[33.00472,-9.55918],[33.0048,-9.55923],[33.00497,-9.55937],[33.00521,-9.55957],[33.00531,-9.55964],[33.00591,-9.56012],[33.00606,-9.56019],[33.00647,-9.56055],[33.00662,-9.56073],[33.00721,-9.56132],[33.00724,-9.56138],[33.00744,-9.56158],[33.00748,-9.56161],[33.00756,-9.56164],[33.00764,-9.56169],[33.00789,-9.56188],[33.00798,-9.56192],[33.00807,-9.56193],[33.00813,-9.56196],[33.00834,-9.56215],[33.00845,-9.56217],[33.00852,-9.56221],[33.00866,-9.56235],[33.00884,-9.56249],[33.00891,-9.56251],[33.00929,-9.56289],[33.00949,-9.56301],[33.00976,-9.56324],[33.00983,-9.56326],[33.01023,-9.56333]]},"properties":{"id":584254574,"cls":"path","hw":"path","tg":"na","name":"","ref":"","surface":"","sc":"unknown","speed":null,"lit":"unk","km":1.893}},
{"type":"Feature","geometry":{"type":"LineString","coordinates":[[32.99091,-9.56261],[32.99128,-9.56277],[32.99137,-9.56284],[32.99169,-9.56287],[32.99204,-9.56283],[32.99231,-9.56277],[32.99243,-9.56273],[32.99315,-9.56271],[32.99368,-9.56273],[32.99407,-9.56271],[32.99411,-9.5627],[32.99413,-9.56267],[32.99416,-9.56264],[32.9942,-9.56265],[32.99435,-9.56256],[32.99451,-9.56248],[32.99465,-9.56253],[32.99476,-9.56256],[32.99537,-9.56251]]},"properties":{"id":584271867,"cls":"path","hw":"path","tg":"na","name":"","ref":"","surface":"","sc":"unknown","speed":null,"lit":"unk","km":0.508}},
{"type":"Feature","geometry":{"type":"LineString","coordinates":[[32.98357,-9.56614],[32.98393,-9.56587],[32.98417,-9.56561],[32.98447,-9.5654],[32.98474,-9.56514],[32.98544,-9.5647],[32.98565,-9.56451],[32.98598,-9.56436],[32.98609,-9.56433],[32.98636,-9.56417],[32.98654,-9.56405],[32.98688,-9.56387],[32.9875,-9.56359],[32.98792,-9.56343],[32.98814,-9.56337],[32.98831,-9.56334],[32.98856,-9.56319],[32.98871,-9.56309],[32.98898,-9.56298],[32.98935,-9.56278],[32.98984,-9.56262],[32.98998,-9.56267],[32.99036,-9.56265],[32.99057,-9.56268],[32.99091,-9.56261],[32.99136,-9.56244],[32.99146,-9.56233],[32.99179,-9.56216],[32.99202,-9.56195],[32.99249,-9.56153],[32.99273,-9.56138],[32.99332,-9.56111],[32.99351,-9.56104]]},"properties":{"id":584271868,"cls":"path","hw":"path","tg":"na","name":"","ref":"","surface":"","sc":"unknown","speed":null,"lit":"unk","km":1.259}},
{"type":"Feature","geometry":{"type":"LineString","coordinates":[[32.99743,-9.6353],[32.99748,-9.63527],[32.99764,-9.6352],[32.99768,-9.63518],[32.99793,-9.63514],[32.99818,-9.6351],[32.99835,-9.63509],[32.99895,-9.63501],[32.999,-9.63501],[32.99904,-9.635],[32.99908,-9.63499],[32.99914,-9.63497],[32.99919,-9.63497],[32.99927,-9.63497],[32.99934,-9.63497],[32.99939,-9.63496],[32.99945,-9.63495],[32.99975,-9.63487],[32.99982,-9.63485],[32.99989,-9.63485],[33.00018,-9.63485],[33.00058,-9.63482],[33.00071,-9.63482],[33.00082,-9.63481],[33.00191,-9.63473],[33.00213,-9.63471],[33.00247,-9.63466],[33.003,-9.63456],[33.00359,-9.63444],[33.0037,-9.63442],[33.00392,-9.63433],[33.00408,-9.63426],[33.00442,-9.63412],[33.00472,-9.63396],[33.00522,-9.63365],[33.00577,-9.63327],[33.00659,-9.6326],[33.00721,-9.63207],[33.00784,-9.63152],[33.00795,-9.63142],[33.00806,-9.63131],[33.00898,-9.63034],[33.00901,-9.6303],[33.00904,-9.63025],[33.00909,-9.63018],[33.00917,-9.63008],[33.00925,-9.63],[33.00929,-9.62994],[33.00934,-9.62987],[33.00961,-9.62936],[33.00964,-9.6293],[33.00969,-9.62926],[33.00974,-9.62921],[33.00979,-9.62912],[33.00987,-9.62906],[33.00993,-9.62899],[33.0101,-9.62883],[33.01039,-9.6286],[33.01057,-9.62849],[33.01067,-9.62843],[33.01073,-9.62839],[33.01079,-9.62835],[33.01152,-9.62767]]},"properties":{"id":585428611,"cls":"residential","hw":"residential","tg":"na","name":"","ref":"","surface":"","sc":"unknown","speed":null,"lit":"unk","km":1.853}},
{"type":"Feature","geometry":{"type":"LineString","coordinates":[[32.99976,-9.58503],[32.99989,-9.58496],[32.99995,-9.58495],[33.00009,-9.58493],[33.00032,-9.58491],[33.00076,-9.58492],[33.00101,-9.58494],[33.0013,-9.58495],[33.00157,-9.58498],[33.00227,-9.58506],[33.00231,-9.58507],[33.00235,-9.58509],[33.0024,-9.58512],[33.0026,-9.58527],[33.00265,-9.58532],[33.00268,-9.58537],[33.00283,-9.58557],[33.00289,-9.58566],[33.00294,-9.58575],[33.00305,-9.586],[33.00313,-9.58614],[33.00324,-9.58643],[33.00347,-9.58674],[33.00372,-9.58715],[33.00397,-9.58745],[33.00403,-9.58752],[33.00408,-9.58756],[33.00416,-9.58761],[33.00466,-9.58793],[33.00473,-9.58799],[33.00481,-9.58806],[33.00488,-9.58815],[33.00527,-9.58872],[33.00531,-9.58879],[33.00536,-9.58883],[33.00543,-9.5889],[33.0057,-9.58908],[33.00578,-9.58913],[33.00595,-9.58915],[33.006,-9.5892]]},"properties":{"id":585656138,"cls":"path","hw":"path","tg":"na","name":"","ref":"","surface":"","sc":"unknown","speed":null,"lit":"unk","km":0.912}},
{"type":"Feature","geometry":{"type":"LineString","coordinates":[[32.99487,-9.58052],[32.99502,-9.58056],[32.99516,-9.58059],[32.99532,-9.58058],[32.99547,-9.58058],[32.99552,-9.58059],[32.99572,-9.58066],[32.99591,-9.58073],[32.99602,-9.58076],[32.99606,-9.58075],[32.99617,-9.58074],[32.99622,-9.58074],[32.99633,-9.58077]]},"properties":{"id":585656139,"cls":"path","hw":"path","tg":"na","name":"","ref":"","surface":"","sc":"unknown","speed":null,"lit":"unk","km":0.165}},
{"type":"Feature","geometry":{"type":"LineString","coordinates":[[32.99325,-9.57939],[32.99334,-9.5795],[32.9934,-9.57957],[32.99352,-9.57985],[32.99362,-9.57998],[32.99382,-9.5801],[32.99411,-9.58021],[32.99429,-9.58027],[32.99442,-9.58034],[32.99454,-9.58038],[32.99487,-9.58052]]},"properties":{"id":585656142,"cls":"path","hw":"path","tg":"na","name":"","ref":"","surface":"","sc":"unknown","speed":null,"lit":"unk","km":0.228}},
{"type":"Feature","geometry":{"type":"LineString","coordinates":[[32.99351,-9.57873],[32.99345,-9.5788],[32.99342,-9.57883],[32.99337,-9.57899],[32.99331,-9.57903],[32.9933,-9.57913],[32.99325,-9.57939],[32.99321,-9.57952],[32.99321,-9.57966],[32.99323,-9.57982],[32.99325,-9.57992],[32.99342,-9.57991],[32.99352,-9.57985]]},"properties":{"id":585656143,"cls":"path","hw":"path","tg":"na","name":"","ref":"","surface":"","sc":"unknown","speed":null,"lit":"unk","km":0.173}},
{"type":"Feature","geometry":{"type":"LineString","coordinates":[[32.99403,-9.57887],[32.99409,-9.57888],[32.99418,-9.57894],[32.99425,-9.57899],[32.99427,-9.57906],[32.99431,-9.57912],[32.99434,-9.57918],[32.99438,-9.57925],[32.9944,-9.57935],[32.99442,-9.57941],[32.99451,-9.5795],[32.99459,-9.57955],[32.9947,-9.57962],[32.99489,-9.57967],[32.99495,-9.57971],[32.99505,-9.57977],[32.99512,-9.5798],[32.99524,-9.57981],[32.9954,-9.57985],[32.99553,-9.57994],[32.99592,-9.58019],[32.99601,-9.58025],[32.99608,-9.58035],[32.99633,-9.58077],[32.99648,-9.58099],[32.99653,-9.58106],[32.9966,-9.5812],[32.99673,-9.58136],[32.99681,-9.58153],[32.99708,-9.58189],[32.99717,-9.58201],[32.99723,-9.58213],[32.99727,-9.58224],[32.99731,-9.58229],[32.99741,-9.58236],[32.99778,-9.58271],[32.99805,-9.58301],[32.99827,-9.58315],[32.99832,-9.58317],[32.99836,-9.58318],[32.9984,-9.58318],[32.99843,-9.58319],[32.99845,-9.58321],[32.99847,-9.58324],[32.99853,-9.58335],[32.99862,-9.58346],[32.99894,-9.58387],[32.99906,-9.58406],[32.9991,-9.58413],[32.99916,-9.58421],[32.99921,-9.58425],[32.9993,-9.58432],[32.99934,-9.58434],[32.99937,-9.58439],[32.99941,-9.58448],[32.9995,-9.5846],[32.99954,-9.58466],[32.99957,-9.58473],[32.99958,-9.58488],[32.99959,-9.58491],[32.99962,-9.58494],[32.99966,-9.58497],[32.99971,-9.58498],[32.99975,-9.58501],[32.99976,-9.58503],[32.9998,-9.58507],[32.99991,-9.58524],[32.99999,-9.58536],[33.00019,-9.5856],[33.00042,-9.58586],[33.00053,-9.58596],[33.0009,-9.5863],[33.00144,-9.58678],[33.00193,-9.58721],[33.00223,-9.58748],[33.00271,-9.58792],[33.00336,-9.5885],[33.00409,-9.58922],[33.00423,-9.58935],[33.00439,-9.58955],[33.00493,-9.59024],[33.00533,-9.59082],[33.00573,-9.59132],[33.00593,-9.59164],[33.00611,-9.59184]]},"properties":{"id":585656144,"cls":"track","hw":"track","tg":"none","name":"","ref":"","surface":"unpaved","sc":"unpaved","speed":null,"lit":"unk","km":2.002}},
{"type":"Feature","geometry":{"type":"LineString","coordinates":[[32.99416,-9.57861],[32.99426,-9.57844],[32.99433,-9.57843],[32.99441,-9.57844],[32.99448,-9.57845],[32.99452,-9.57851],[32.99455,-9.5787],[32.99457,-9.57874],[32.99454,-9.57881],[32.99448,-9.5789],[32.99443,-9.57903],[32.99439,-9.57911],[32.99439,-9.57917],[32.99438,-9.57925]]},"properties":{"id":585656145,"cls":"path","hw":"path","tg":"na","name":"","ref":"","surface":"","sc":"unknown","speed":null,"lit":"unk","km":0.142}},
{"type":"Feature","geometry":{"type":"LineString","coordinates":[[32.99579,-9.54196],[32.99608,-9.54229],[32.99608,-9.54243],[32.99606,-9.54252],[32.996,-9.54268],[32.99597,-9.54278],[32.99593,-9.54292],[32.99588,-9.54323],[32.99585,-9.5434],[32.99567,-9.5436],[32.99558,-9.54368],[32.99538,-9.54401],[32.99535,-9.54411],[32.99532,-9.54416],[32.99529,-9.54431],[32.99527,-9.54439],[32.9953,-9.54457]]},"properties":{"id":659866582,"cls":"track","hw":"track","tg":"none","name":"","ref":"","surface":"","sc":"unknown","speed":null,"lit":"unk","km":0.325}},
{"type":"Feature","geometry":{"type":"LineString","coordinates":[[32.99471,-9.54077],[32.99505,-9.54109],[32.99513,-9.54117],[32.9953,-9.54139],[32.9954,-9.54151],[32.99564,-9.5418],[32.99574,-9.5419],[32.99579,-9.54196]]},"properties":{"id":659866583,"cls":"unclassified","hw":"unclassified","tg":"na","name":"","ref":"","surface":"","sc":"unknown","speed":null,"lit":"unk","km":0.178}},
{"type":"Feature","geometry":{"type":"LineString","coordinates":[[32.99347,-9.57843],[32.99348,-9.57849],[32.99349,-9.57867],[32.99351,-9.57873],[32.99353,-9.57879],[32.99359,-9.57886],[32.99366,-9.57891]]},"properties":{"id":681525914,"cls":"track","hw":"track","tg":"none","name":"","ref":"","surface":"unpaved","sc":"unpaved","speed":null,"lit":"unk","km":0.061}},
{"type":"Feature","geometry":{"type":"LineString","coordinates":[[32.99487,-9.58052],[32.99498,-9.58077],[32.99501,-9.58087],[32.99508,-9.58112],[32.99513,-9.58122],[32.99515,-9.58138],[32.99518,-9.58147],[32.99519,-9.58174],[32.99522,-9.58232]]},"properties":{"id":681793762,"cls":"path","hw":"path","tg":"na","name":"","ref":"","surface":"","sc":"unknown","speed":null,"lit":"unk","km":0.206}},
{"type":"Feature","geometry":{"type":"LineString","coordinates":[[32.955,-9.51524],[32.95502,-9.51521],[32.955,-9.51517],[32.95503,-9.51507],[32.95503,-9.51504],[32.95489,-9.51485],[32.95488,-9.51482],[32.95484,-9.51478],[32.95481,-9.51471],[32.95479,-9.51462],[32.95472,-9.51455],[32.95463,-9.51452],[32.95461,-9.51449],[32.9545,-9.51433],[32.95442,-9.51426],[32.9544,-9.51422],[32.95439,-9.5141],[32.9544,-9.51401],[32.9544,-9.51397],[32.95438,-9.51389],[32.95439,-9.51385],[32.95444,-9.51376],[32.9545,-9.51352],[32.95451,-9.51336],[32.95454,-9.51329],[32.95453,-9.51319],[32.95451,-9.51288],[32.95447,-9.51258],[32.95441,-9.51233],[32.95435,-9.51216],[32.95435,-9.5121],[32.95429,-9.51191],[32.95425,-9.51183],[32.9542,-9.5117],[32.9542,-9.51159],[32.95419,-9.51155],[32.95409,-9.51134],[32.95403,-9.51119],[32.954,-9.51097],[32.95408,-9.51071],[32.95411,-9.51067],[32.95408,-9.5105],[32.95403,-9.51042],[32.95396,-9.51032],[32.95395,-9.51027],[32.95396,-9.51011],[32.95392,-9.50993],[32.95387,-9.50982],[32.95386,-9.50976],[32.95385,-9.5097],[32.95384,-9.50968],[32.95374,-9.50945],[32.95373,-9.50941],[32.95374,-9.50924],[32.95367,-9.50897],[32.95362,-9.50875],[32.95359,-9.50847],[32.95355,-9.50833],[32.95339,-9.50794],[32.95338,-9.50787],[32.95337,-9.5077],[32.95326,-9.50713],[32.95326,-9.50703],[32.95327,-9.5069],[32.95325,-9.50682],[32.95324,-9.5066],[32.95319,-9.50637],[32.95318,-9.50626],[32.95323,-9.50598],[32.95326,-9.5059],[32.95324,-9.50558],[32.95324,-9.50523],[32.95326,-9.50496],[32.95328,-9.50492],[32.95331,-9.50484],[32.9533,-9.50479],[32.95324,-9.50456],[32.95312,-9.50424],[32.9531,-9.50417],[32.95311,-9.50376],[32.95309,-9.5037],[32.95303,-9.50355],[32.95302,-9.5035],[32.95303,-9.50341],[32.95313,-9.50318],[32.95318,-9.50301],[32.9532,-9.50282],[32.95318,-9.50269],[32.9532,-9.50207],[32.95319,-9.50181],[32.95316,-9.50172],[32.95315,-9.50165],[32.95313,-9.50141],[32.9531,-9.50129],[32.95308,-9.50108],[32.95304,-9.50093],[32.95304,-9.50079],[32.95303,-9.50071],[32.95301,-9.50066],[32.95297,-9.50023],[32.95297,-9.50015],[32.95296,-9.5001],[32.95297,-9.49997],[32.95293,-9.49956],[32.95295,-9.49943],[32.95294,-9.49931],[32.95297,-9.49922],[32.95303,-9.49851],[32.95306,-9.49839],[32.95315,-9.49815],[32.95316,-9.49809],[32.95335,-9.49765],[32.95339,-9.49762],[32.95345,-9.49757],[32.95349,-9.4975],[32.9535,-9.49745],[32.95351,-9.49734],[32.95354,-9.49727],[32.95385,-9.49679],[32.95401,-9.49651],[32.95403,-9.49643],[32.95409,-9.49632],[32.95414,-9.49616],[32.95418,-9.4961],[32.95423,-9.49606],[32.95444,-9.49577],[32.95448,-9.49567],[32.95449,-9.49558],[32.9546,-9.49535],[32.9548,-9.49505],[32.95495,-9.49483],[32.95497,-9.49478],[32.95504,-9.4947],[32.95521,-9.49458],[32.95528,-9.49451],[32.95536,-9.49445],[32.95552,-9.49431],[32.95555,-9.49425],[32.95559,-9.49422],[32.95561,-9.49422],[32.95564,-9.49414],[32.95588,-9.49383],[32.9559,-9.49378],[32.95591,-9.49371],[32.95596,-9.49362],[32.95608,-9.49342],[32.95618,-9.49329],[32.95641,-9.49286]]},"properties":{"id":707021292,"cls":"path","hw":"path","tg":"na","name":"","ref":"","surface":"","sc":"unknown","speed":null,"lit":"unk","km":2.68}},
{"type":"Feature","geometry":{"type":"LineString","coordinates":[[32.99366,-9.57891],[32.99382,-9.57887],[32.99388,-9.57885],[32.99395,-9.57885],[32.99403,-9.57887],[32.99406,-9.57882],[32.9941,-9.57873],[32.99416,-9.57861]]},"properties":{"id":794912970,"cls":"track","hw":"track","tg":"none","name":"","ref":"","surface":"unpaved","sc":"unpaved","speed":null,"lit":"unk","km":0.074}},
{"type":"Feature","geometry":{"type":"LineString","coordinates":[[32.99337,-9.57899],[32.99348,-9.57898],[32.99357,-9.57895],[32.99366,-9.57891]]},"properties":{"id":794913721,"cls":"track","hw":"track","tg":"none","name":"","ref":"","surface":"unpaved","sc":"unpaved","speed":null,"lit":"unk","km":0.033}},
{"type":"Feature","geometry":{"type":"LineString","coordinates":[[32.99372,-9.5159],[32.99349,-9.51575],[32.99366,-9.51535],[32.99373,-9.51494],[32.9939,-9.51466],[32.99418,-9.51418],[32.99434,-9.51386],[32.99435,-9.5131],[32.99415,-9.51237],[32.99414,-9.51215],[32.99421,-9.51203],[32.99434,-9.5113],[32.9946,-9.51028],[32.99474,-9.50969],[32.9948,-9.50933],[32.99555,-9.50853],[32.99692,-9.50705],[32.99768,-9.506],[32.99811,-9.50512],[32.99838,-9.50442],[32.99922,-9.50305],[32.99948,-9.50277],[33.00045,-9.50165],[33.00142,-9.50093],[33.00163,-9.50086],[33.00193,-9.50032],[33.0023,-9.49989],[33.00246,-9.4996]]},"properties":{"id":799086841,"cls":"path","hw":"path","tg":"na","name":"","ref":"","surface":"","sc":"unknown","speed":null,"lit":"unk","km":2.167}},
{"type":"Feature","geometry":{"type":"LineString","coordinates":[[32.99679,-9.53583],[32.99685,-9.53571],[32.99692,-9.53557],[32.99728,-9.53514],[32.99739,-9.53497],[32.99745,-9.5348],[32.99749,-9.53456],[32.99752,-9.53433],[32.99756,-9.53423],[32.99766,-9.53409],[32.99768,-9.53405],[32.9977,-9.5339],[32.99775,-9.53384],[32.99776,-9.53378],[32.99772,-9.53371]]},"properties":{"id":801354459,"cls":"track","hw":"track","tg":"none","name":"","ref":"","surface":"","sc":"unknown","speed":null,"lit":"unk","km":0.267}},
{"type":"Feature","geometry":{"type":"LineString","coordinates":[[32.99325,-9.52694],[32.99349,-9.52734],[32.99368,-9.52796],[32.99399,-9.52859],[32.99428,-9.52917],[32.99443,-9.52948],[32.99457,-9.53],[32.99468,-9.53049],[32.99495,-9.53118],[32.99501,-9.53144],[32.99511,-9.53166],[32.99546,-9.53195],[32.99588,-9.53226],[32.99604,-9.53233],[32.99655,-9.53233],[32.99694,-9.53227],[32.99724,-9.53233],[32.99744,-9.53249],[32.99745,-9.53279],[32.99744,-9.53291],[32.9975,-9.53304],[32.99752,-9.53316],[32.99759,-9.53326],[32.99768,-9.53346],[32.99768,-9.53365],[32.99772,-9.53371],[32.99796,-9.5338],[32.99813,-9.53397],[32.9982,-9.53402],[32.99822,-9.53412],[32.99819,-9.53418],[32.9982,-9.53422],[32.99817,-9.53429],[32.99816,-9.53447],[32.99825,-9.53458],[32.99842,-9.53474],[32.99844,-9.53479],[32.99847,-9.53495],[32.99852,-9.53502],[32.99865,-9.5351],[32.99871,-9.53516],[32.99874,-9.53523],[32.9989,-9.53536],[32.9991,-9.53565],[32.99925,-9.53586]]},"properties":{"id":801354460,"cls":"track","hw":"track","tg":"none","name":"","ref":"","surface":"","sc":"unknown","speed":null,"lit":"unk","km":1.313}},
{"type":"Feature","geometry":{"type":"LineString","coordinates":[[32.99519,-9.54475],[32.99495,-9.54495],[32.99475,-9.54519],[32.99465,-9.54535],[32.99462,-9.54543]]},"properties":{"id":1034847006,"cls":"track","hw":"track","tg":"none","name":"","ref":"","surface":"","sc":"unknown","speed":null,"lit":"unk","km":0.099}},
{"type":"Feature","geometry":{"type":"LineString","coordinates":[[32.99462,-9.54543],[32.99449,-9.54547],[32.99422,-9.54568],[32.99406,-9.54578],[32.99393,-9.5459],[32.99381,-9.54596],[32.99377,-9.54606],[32.99351,-9.54616],[32.99337,-9.54617],[32.9933,-9.54621],[32.99316,-9.54628]]},"properties":{"id":1034847007,"cls":"track","hw":"track","tg":"none","name":"","ref":"","surface":"","sc":"unknown","speed":null,"lit":"unk","km":0.192}},
{"type":"Feature","geometry":{"type":"LineString","coordinates":[[32.9953,-9.54457],[32.99528,-9.54468],[32.99526,-9.54467],[32.99519,-9.54475]]},"properties":{"id":1034847881,"cls":"track","hw":"track","tg":"none","name":"","ref":"","surface":"","sc":"unknown","speed":null,"lit":"unk","km":0.027}},
{"type":"Feature","geometry":{"type":"LineString","coordinates":[[32.99528,-9.54468],[32.99528,-9.54471],[32.99532,-9.54475],[32.99526,-9.54479],[32.99527,-9.54486],[32.99528,-9.54495],[32.99528,-9.54504],[32.99532,-9.5451],[32.99533,-9.54518],[32.99532,-9.54541]]},"properties":{"id":1034847882,"cls":"path","hw":"path","tg":"na","name":"","ref":"","surface":"","sc":"unknown","speed":null,"lit":"unk","km":0.088}},
{"type":"Feature","geometry":{"type":"LineString","coordinates":[[32.9973,-9.54516],[32.99738,-9.54515],[32.99754,-9.54522],[32.99777,-9.54533],[32.99804,-9.54538],[32.99822,-9.54539],[32.9984,-9.54539],[32.99854,-9.5454],[32.99868,-9.54541],[32.99883,-9.54539],[32.99894,-9.54534],[32.99905,-9.54534]]},"properties":{"id":1034848926,"cls":"track","hw":"track","tg":"none","name":"","ref":"","surface":"","sc":"unknown","speed":null,"lit":"unk","km":0.198}},
{"type":"Feature","geometry":{"type":"LineString","coordinates":[[32.99747,-9.54361],[32.99754,-9.54391],[32.99756,-9.54416],[32.99751,-9.54471],[32.99746,-9.545],[32.99738,-9.54515]]},"properties":{"id":1034848927,"cls":"path","hw":"path","tg":"na","name":"","ref":"","surface":"","sc":"unknown","speed":null,"lit":"unk","km":0.175}},
{"type":"Feature","geometry":{"type":"LineString","coordinates":[[32.99599,-9.54479],[32.99621,-9.54467],[32.99673,-9.54426],[32.99691,-9.54407],[32.99716,-9.54388],[32.99747,-9.54361]]},"properties":{"id":1034848928,"cls":"path","hw":"path","tg":"na","name":"","ref":"","surface":"","sc":"unknown","speed":null,"lit":"unk","km":0.209}},
{"type":"Feature","geometry":{"type":"LineString","coordinates":[[32.99905,-9.54534],[32.99915,-9.54538],[32.99925,-9.54541],[32.9994,-9.54542],[32.99961,-9.54539],[32.99972,-9.54537],[32.99978,-9.54537],[32.99989,-9.54539],[33.00015,-9.54547],[33.00028,-9.54545],[33.0005,-9.54544],[33.00065,-9.54545],[33.00078,-9.54545],[33.00085,-9.54557],[33.00099,-9.54563]]},"properties":{"id":1034849105,"cls":"track","hw":"track","tg":"none","name":"","ref":"","surface":"","sc":"unknown","speed":null,"lit":"unk","km":0.225}},
{"type":"Feature","geometry":{"type":"LineString","coordinates":[[32.99348,-9.54346],[32.99361,-9.5432],[32.99364,-9.54309],[32.99371,-9.54301],[32.99377,-9.54272],[32.9938,-9.54231],[32.99386,-9.54217],[32.99402,-9.54198],[32.9942,-9.54181],[32.99447,-9.54159],[32.99472,-9.54139],[32.99488,-9.54126]]},"properties":{"id":1035018689,"cls":"path","hw":"path","tg":"na","name":"","ref":"","surface":"","sc":"unknown","speed":null,"lit":"unk","km":0.303}},
{"type":"Feature","geometry":{"type":"LineString","coordinates":[[32.99588,-9.54323],[32.99602,-9.54318],[32.99616,-9.54309],[32.99631,-9.54294],[32.99644,-9.54281],[32.99657,-9.54268],[32.9967,-9.54256],[32.99676,-9.54251],[32.9968,-9.54247],[32.99687,-9.54237],[32.99696,-9.54231]]},"properties":{"id":1035020178,"cls":"path","hw":"path","tg":"na","name":"","ref":"","surface":"","sc":"unknown","speed":null,"lit":"unk","km":0.158}},
{"type":"Feature","geometry":{"type":"LineString","coordinates":[[32.9968,-9.54247],[32.99692,-9.54247],[32.99719,-9.54246],[32.9974,-9.5424],[32.99757,-9.54237]]},"properties":{"id":1035020420,"cls":"path","hw":"path","tg":"na","name":"","ref":"","surface":"","sc":"unknown","speed":null,"lit":"unk","km":0.086}},
{"type":"Feature","geometry":{"type":"LineString","coordinates":[[32.99712,-9.54259],[32.99729,-9.5429],[32.99741,-9.54316],[32.99747,-9.54361]]},"properties":{"id":1035021926,"cls":"path","hw":"path","tg":"na","name":"","ref":"","surface":"","sc":"unknown","speed":null,"lit":"unk","km":0.121}},
{"type":"Feature","geometry":{"type":"LineString","coordinates":[[32.99747,-9.54361],[32.99791,-9.54336],[32.99831,-9.54294],[32.99845,-9.54273],[32.99854,-9.54268]]},"properties":{"id":1035021927,"cls":"track","hw":"track","tg":"none","name":"","ref":"","surface":"","sc":"unknown","speed":null,"lit":"unk","km":0.159}},
{"type":"Feature","geometry":{"type":"LineString","coordinates":[[32.99488,-9.54126],[32.99494,-9.54121],[32.995,-9.54114],[32.99505,-9.54109]]},"properties":{"id":1035117872,"cls":"track","hw":"track","tg":"none","name":"","ref":"","surface":"","sc":"unknown","speed":null,"lit":"unk","km":0.027}},
{"type":"Feature","geometry":{"type":"LineString","coordinates":[[32.99512,-9.54105],[32.99512,-9.54109],[32.99513,-9.54117]]},"properties":{"id":1035117873,"cls":"track","hw":"track","tg":"none","name":"","ref":"","surface":"","sc":"unknown","speed":null,"lit":"unk","km":0.013}},
{"type":"Feature","geometry":{"type":"LineString","coordinates":[[32.99373,-9.54057],[32.99398,-9.54068],[32.99423,-9.54074],[32.99438,-9.54076],[32.99453,-9.54075],[32.99471,-9.54077]]},"properties":{"id":1035117874,"cls":"track","hw":"track","tg":"none","name":"","ref":"","surface":"","sc":"unknown","speed":null,"lit":"unk","km":0.111}},
{"type":"Feature","geometry":{"type":"LineString","coordinates":[[32.99438,-9.54049],[32.99465,-9.54053],[32.99503,-9.54055],[32.99528,-9.54055]]},"properties":{"id":1035117875,"cls":"track","hw":"track","tg":"none","name":"","ref":"","surface":"","sc":"unknown","speed":null,"lit":"unk","km":0.099}},
{"type":"Feature","geometry":{"type":"LineString","coordinates":[[32.99686,-9.54061],[32.99689,-9.54066],[32.99692,-9.54082],[32.9969,-9.54118],[32.99691,-9.54124],[32.99698,-9.54139],[32.99699,-9.54145],[32.99696,-9.54154],[32.99696,-9.54162],[32.99698,-9.54171],[32.99694,-9.54186],[32.99694,-9.54191],[32.99694,-9.54196],[32.99692,-9.54211],[32.99702,-9.54231]]},"properties":{"id":1035120189,"cls":"path","hw":"path","tg":"na","name":"","ref":"","surface":"","sc":"unknown","speed":null,"lit":"unk","km":0.196}},
{"type":"Feature","geometry":{"type":"LineString","coordinates":[[32.99638,-9.54113],[32.99629,-9.54113],[32.9959,-9.54111],[32.99577,-9.54111],[32.99568,-9.54117],[32.99561,-9.54114],[32.99525,-9.5411],[32.99512,-9.54105]]},"properties":{"id":1035120190,"cls":"path","hw":"path","tg":"na","name":"","ref":"","surface":"","sc":"unknown","speed":null,"lit":"unk","km":0.142}},
{"type":"Feature","geometry":{"type":"LineString","coordinates":[[32.99803,-9.53889],[32.99811,-9.53874],[32.99827,-9.53868],[32.99839,-9.5386],[32.99844,-9.53851],[32.9985,-9.53821],[32.99858,-9.53793]]},"properties":{"id":1035123037,"cls":"path","hw":"path","tg":"na","name":"","ref":"","surface":"","sc":"unknown","speed":null,"lit":"unk","km":0.131}},
{"type":"Feature","geometry":{"type":"LineString","coordinates":[[32.99531,-9.54062],[32.99553,-9.54046],[32.99598,-9.54027],[32.99639,-9.54019],[32.99667,-9.54019],[32.99682,-9.54015],[32.99689,-9.54009],[32.99702,-9.53983],[32.9971,-9.53972],[32.9974,-9.53944],[32.9975,-9.53944],[32.99774,-9.53935],[32.9979,-9.53926],[32.99797,-9.53916],[32.99804,-9.53906],[32.99805,-9.53901],[32.99804,-9.53895],[32.99803,-9.53889],[32.99795,-9.53888],[32.99783,-9.53886],[32.99762,-9.53882],[32.99743,-9.53874],[32.99734,-9.53868],[32.99729,-9.53866],[32.99718,-9.53867],[32.9971,-9.53868],[32.99659,-9.53873],[32.9965,-9.53877],[32.99642,-9.53878],[32.99629,-9.53876],[32.99615,-9.53869],[32.99596,-9.53862],[32.99588,-9.53856],[32.99576,-9.5385],[32.99564,-9.53848]]},"properties":{"id":1035123039,"cls":"track","hw":"track","tg":"none","name":"","ref":"","surface":"","sc":"unknown","speed":null,"lit":"unk","km":0.661}},
{"type":"Feature","geometry":{"type":"LineString","coordinates":[[32.99711,-9.53992],[32.9973,-9.53995],[32.99747,-9.53997],[32.99758,-9.53999],[32.99763,-9.53998],[32.99778,-9.53993],[32.99781,-9.5399],[32.99782,-9.53985],[32.99774,-9.53957],[32.99775,-9.53939],[32.99774,-9.53935]]},"properties":{"id":1035123041,"cls":"path","hw":"path","tg":"na","name":"","ref":"","surface":"","sc":"unknown","speed":null,"lit":"unk","km":0.142}},
{"type":"Feature","geometry":{"type":"LineString","coordinates":[[32.9974,-9.53944],[32.99763,-9.53921],[32.99772,-9.5391],[32.99781,-9.53907],[32.9979,-9.53905],[32.99804,-9.53906]]},"properties":{"id":1035123042,"cls":"track","hw":"track","tg":"none","name":"","ref":"","surface":"","sc":"unknown","speed":null,"lit":"unk","km":0.088}},
{"type":"Feature","geometry":{"type":"LineString","coordinates":[[32.99911,-9.5383],[32.9993,-9.53849],[32.9995,-9.53854],[32.99974,-9.53879],[32.99983,-9.53889],[32.99995,-9.53902],[33.00014,-9.53937],[33.00023,-9.53958]]},"properties":{"id":1035123346,"cls":"path","hw":"path","tg":"na","name":"","ref":"","surface":"","sc":"unknown","speed":null,"lit":"unk","km":0.194}},
{"type":"Feature","geometry":{"type":"LineString","coordinates":[[32.99983,-9.53889],[32.99978,-9.53862],[32.99976,-9.53833],[32.99975,-9.53812]]},"properties":{"id":1035123347,"cls":"path","hw":"path","tg":"na","name":"","ref":"","surface":"","sc":"unknown","speed":null,"lit":"unk","km":0.086}},
{"type":"Feature","geometry":{"type":"LineString","coordinates":[[32.99865,-9.53892],[32.99866,-9.53881],[32.99868,-9.53878],[32.99874,-9.53876],[32.99887,-9.53875],[32.99903,-9.53868],[32.99909,-9.53863],[32.99915,-9.53861],[32.99925,-9.53855],[32.9993,-9.53849],[32.99948,-9.53839],[32.99962,-9.53833],[32.99976,-9.53833]]},"properties":{"id":1035123348,"cls":"path","hw":"path","tg":"na","name":"","ref":"","surface":"","sc":"unknown","speed":null,"lit":"unk","km":0.148}},
{"type":"Feature","geometry":{"type":"LineString","coordinates":[[32.99757,-9.54237],[32.99796,-9.54216],[32.99831,-9.54192],[32.99863,-9.54164],[32.9988,-9.5414],[32.99911,-9.54109],[32.99956,-9.54088],[32.99994,-9.54069],[33.00022,-9.54056],[33.00027,-9.54054],[33.0005,-9.54043],[33.0008,-9.54042],[33.00116,-9.54032],[33.00137,-9.54026]]},"properties":{"id":1035123349,"cls":"path","hw":"path","tg":"na","name":"","ref":"","surface":"","sc":"unknown","speed":null,"lit":"unk","km":0.49}},
{"type":"Feature","geometry":{"type":"LineString","coordinates":[[32.99495,-9.53699],[32.99506,-9.53701],[32.99508,-9.53702],[32.9951,-9.53716],[32.99522,-9.53737]]},"properties":{"id":1035130622,"cls":"track","hw":"track","tg":"none","name":"","ref":"","surface":"","sc":"unknown","speed":null,"lit":"unk","km":0.057}},
{"type":"Feature","geometry":{"type":"LineString","coordinates":[[32.99586,-9.53738],[32.99585,-9.53753],[32.99578,-9.53763],[32.9957,-9.53779],[32.99564,-9.53801],[32.99565,-9.5381],[32.99562,-9.53827],[32.99559,-9.53839],[32.99564,-9.53848]]},"properties":{"id":1035132325,"cls":"track","hw":"track","tg":"none","name":"","ref":"","surface":"","sc":"unknown","speed":null,"lit":"unk","km":0.13}},
{"type":"Feature","geometry":{"type":"LineString","coordinates":[[32.99638,-9.53748],[32.99644,-9.53738],[32.99659,-9.53723],[32.99668,-9.5372],[32.99675,-9.53711],[32.99683,-9.53708],[32.99707,-9.53699],[32.99713,-9.53698],[32.99721,-9.53689],[32.99735,-9.53676]]},"properties":{"id":1035132326,"cls":"path","hw":"path","tg":"na","name":"","ref":"","surface":"","sc":"unknown","speed":null,"lit":"unk","km":0.138}},
{"type":"Feature","geometry":{"type":"LineString","coordinates":[[32.99547,-9.5372],[32.99586,-9.53738],[32.996,-9.53742],[32.99632,-9.53745],[32.99638,-9.53748]]},"properties":{"id":1035132327,"cls":"track","hw":"track","tg":"none","name":"","ref":"","surface":"","sc":"unknown","speed":null,"lit":"unk","km":0.106}},
{"type":"Feature","geometry":{"type":"LineString","coordinates":[[32.9951,-9.53716],[32.99538,-9.53721],[32.99547,-9.5372],[32.99571,-9.53714],[32.99596,-9.53706],[32.99606,-9.537],[32.99623,-9.53684],[32.99628,-9.53679],[32.99644,-9.53655],[32.99646,-9.53651],[32.99647,-9.53629],[32.9965,-9.53619],[32.99657,-9.53607],[32.99666,-9.53597],[32.99679,-9.53583]]},"properties":{"id":1035132329,"cls":"track","hw":"track","tg":"none","name":"","ref":"","surface":"","sc":"unknown","speed":null,"lit":"unk","km":0.268}},
{"type":"Feature","geometry":{"type":"LineString","coordinates":[[32.99679,-9.53583],[32.99695,-9.53616],[32.99712,-9.53638],[32.99721,-9.53655],[32.99725,-9.53667],[32.99735,-9.53676]]},"properties":{"id":1035133245,"cls":"track","hw":"track","tg":"none","name":"","ref":"","surface":"","sc":"unknown","speed":null,"lit":"unk","km":0.122}},
{"type":"Feature","geometry":{"type":"LineString","coordinates":[[32.99751,-9.53748],[32.99752,-9.53742],[32.99748,-9.53731],[32.99744,-9.53726],[32.9973,-9.53723],[32.99726,-9.5372],[32.99713,-9.53698]]},"properties":{"id":1035133246,"cls":"path","hw":"path","tg":"na","name":"","ref":"","surface":"","sc":"unknown","speed":null,"lit":"unk","km":0.076}},
{"type":"Feature","geometry":{"type":"LineString","coordinates":[[32.99564,-9.53801],[32.99554,-9.53792],[32.99545,-9.53775],[32.99533,-9.53756],[32.99527,-9.53754],[32.99523,-9.5375],[32.99521,-9.53742],[32.99522,-9.53737]]},"properties":{"id":1035133247,"cls":"track","hw":"track","tg":"none","name":"","ref":"","surface":"","sc":"unknown","speed":null,"lit":"unk","km":0.089}},
{"type":"Feature","geometry":{"type":"LineString","coordinates":[[32.99596,-9.53706],[32.99595,-9.5372],[32.9959,-9.53726],[32.99587,-9.53733],[32.99586,-9.53738]]},"properties":{"id":1035133248,"cls":"track","hw":"track","tg":"none","name":"","ref":"","surface":"","sc":"unknown","speed":null,"lit":"unk","km":0.038}},
{"type":"Feature","geometry":{"type":"LineString","coordinates":[[32.9968,-9.53823],[32.99695,-9.53843],[32.99698,-9.53855],[32.9971,-9.53868]]},"properties":{"id":1035133249,"cls":"path","hw":"path","tg":"na","name":"","ref":"","surface":"","sc":"unknown","speed":null,"lit":"unk","km":0.061}},
{"type":"Feature","geometry":{"type":"LineString","coordinates":[[32.99791,-9.53753],[32.99751,-9.53748],[32.99734,-9.53748],[32.99714,-9.53751],[32.99702,-9.53755],[32.99694,-9.53758],[32.99672,-9.53761],[32.99662,-9.53759],[32.99649,-9.53755],[32.99638,-9.53748]]},"properties":{"id":1035134876,"cls":"path","hw":"path","tg":"na","name":"","ref":"","surface":"","sc":"unknown","speed":null,"lit":"unk","km":0.173}},
{"type":"Feature","geometry":{"type":"LineString","coordinates":[[32.99791,-9.53753],[32.99834,-9.53773],[32.99858,-9.53793],[32.9989,-9.53815],[32.99911,-9.5383]]},"properties":{"id":1035134877,"cls":"track","hw":"track","tg":"none","name":"","ref":"","surface":"","sc":"unknown","speed":null,"lit":"unk","km":0.158}},
{"type":"Feature","geometry":{"type":"LineString","coordinates":[[32.99735,-9.53676],[32.99777,-9.53639],[32.99837,-9.53589],[32.99846,-9.53571],[32.9989,-9.53536]]},"properties":{"id":1035134879,"cls":"path","hw":"path","tg":"na","name":"","ref":"","surface":"","sc":"unknown","speed":null,"lit":"unk","km":0.232}},
{"type":"Feature","geometry":{"type":"LineString","coordinates":[[32.99925,-9.53586],[32.99954,-9.53614],[32.9997,-9.53646],[32.99984,-9.53668],[32.99987,-9.53701],[32.99979,-9.53755],[32.99975,-9.53812]]},"properties":{"id":1035135227,"cls":"path","hw":"path","tg":"na","name":"","ref":"","surface":"","sc":"unknown","speed":null,"lit":"unk","km":0.274}},
{"type":"Feature","geometry":{"type":"LineString","coordinates":[[32.99327,-9.53959],[32.99342,-9.53975],[32.99362,-9.53988],[32.99402,-9.54019],[32.99409,-9.54026],[32.99424,-9.5404],[32.99438,-9.54049],[32.99456,-9.54061],[32.99471,-9.54077]]},"properties":{"id":1038392199,"cls":"unclassified","hw":"unclassified","tg":"na","name":"","ref":"","surface":"","sc":"unknown","speed":null,"lit":"unk","km":0.206}},
{"type":"Feature","geometry":{"type":"LineString","coordinates":[[32.98232,-9.55118],[32.98244,-9.55127],[32.98256,-9.55136],[32.98268,-9.5514],[32.98305,-9.55136],[32.98322,-9.55137],[32.98327,-9.55139],[32.9836,-9.55153],[32.98368,-9.55155],[32.98378,-9.55154],[32.984,-9.5515],[32.98405,-9.55149],[32.98457,-9.55155],[32.98477,-9.55162],[32.9849,-9.55162],[32.98511,-9.55159],[32.9852,-9.5516],[32.98535,-9.55166],[32.98551,-9.55174],[32.98556,-9.55177],[32.98569,-9.55178],[32.98603,-9.55196],[32.98612,-9.55205],[32.98617,-9.55211],[32.98647,-9.55232],[32.9869,-9.55246],[32.98734,-9.55269],[32.98846,-9.55326],[32.98881,-9.55342],[32.9889,-9.55343],[32.98894,-9.55345],[32.98904,-9.55351],[32.98913,-9.55352],[32.98919,-9.55351],[32.98923,-9.5535],[32.9894,-9.55356],[32.98947,-9.55357],[32.98964,-9.55358],[32.98979,-9.55363],[32.98997,-9.55364],[32.99007,-9.55365],[32.99015,-9.55362],[32.99021,-9.55363],[32.99028,-9.55366],[32.99041,-9.55365],[32.99055,-9.55369],[32.99087,-9.55385],[32.99154,-9.55427],[32.99168,-9.5543],[32.99177,-9.55435],[32.99186,-9.5544],[32.99191,-9.5544],[32.99202,-9.55436],[32.99207,-9.55435],[32.99211,-9.55437],[32.9922,-9.55444],[32.99226,-9.55445],[32.99241,-9.55442],[32.99248,-9.55443],[32.99267,-9.55449],[32.99301,-9.55458],[32.99321,-9.55458],[32.99367,-9.5546],[32.99376,-9.55463],[32.99393,-9.55471],[32.99401,-9.55476],[32.99421,-9.5549],[32.99433,-9.555],[32.99439,-9.55506],[32.9944,-9.55507],[32.99454,-9.55513],[32.99458,-9.55514],[32.9948,-9.55524],[32.99498,-9.5552],[32.99505,-9.55518],[32.99531,-9.55529],[32.9953,-9.55534],[32.99529,-9.5554],[32.99531,-9.55544],[32.99541,-9.55549],[32.99552,-9.55559],[32.99553,-9.55574],[32.99558,-9.55585],[32.99557,-9.55592],[32.99551,-9.55619],[32.9955,-9.5564],[32.99551,-9.55668],[32.99552,-9.55688],[32.99557,-9.55704],[32.99568,-9.5572],[32.99578,-9.5573],[32.99587,-9.55746]]},"properties":{"id":1039492353,"cls":"path","hw":"path","tg":"na","name":"","ref":"","surface":"","sc":"unknown","speed":null,"lit":"unk","km":1.818}},
{"type":"Feature","geometry":{"type":"LineString","coordinates":[[32.97498,-9.50546],[32.975,-9.50537],[32.97502,-9.50526],[32.97504,-9.50458],[32.97509,-9.50424],[32.97514,-9.50401],[32.9754,-9.50342],[32.97542,-9.50334],[32.97541,-9.50322],[32.97533,-9.50296],[32.97532,-9.50286],[32.97537,-9.50244],[32.97536,-9.50192],[32.97534,-9.50183],[32.97528,-9.50171],[32.97521,-9.50165],[32.97516,-9.50155],[32.97507,-9.50128],[32.97501,-9.50097],[32.97498,-9.5009],[32.97497,-9.50082],[32.97501,-9.50053],[32.97501,-9.50038],[32.97503,-9.50009],[32.97507,-9.49995],[32.97508,-9.49989],[32.97509,-9.49977],[32.9751,-9.4997],[32.9752,-9.49947],[32.97526,-9.49921],[32.9753,-9.49913],[32.97547,-9.49896],[32.97556,-9.49887],[32.97587,-9.49861],[32.97593,-9.49855],[32.97652,-9.49777],[32.97676,-9.49756],[32.97695,-9.49746],[32.97732,-9.49737],[32.9775,-9.49731],[32.97767,-9.49722],[32.97772,-9.4972]]},"properties":{"id":1039759280,"cls":"track","hw":"track","tg":"none","name":"","ref":"","surface":"","sc":"unknown","speed":null,"lit":"unk","km":1.079}},
{"type":"Feature","geometry":{"type":"LineString","coordinates":[[32.99608,-9.54243],[32.99622,-9.54245],[32.99635,-9.54248],[32.99654,-9.54247],[32.99676,-9.54251]]},"properties":{"id":1040100349,"cls":"path","hw":"path","tg":"na","name":"","ref":"","surface":"","sc":"unknown","speed":null,"lit":"unk","km":0.076}},
{"type":"Feature","geometry":{"type":"LineString","coordinates":[[32.99781,-9.5399],[32.99782,-9.53993],[32.9978,-9.54003],[32.9978,-9.54005],[32.99784,-9.5401],[32.99786,-9.54034],[32.99793,-9.54055],[32.99792,-9.54079],[32.99795,-9.54086],[32.99816,-9.54093],[32.99838,-9.54103],[32.99867,-9.54127],[32.99875,-9.54135],[32.9988,-9.5414],[32.99887,-9.54165],[32.99895,-9.54178],[32.99896,-9.54184],[32.99893,-9.54198],[32.99893,-9.54223],[32.99895,-9.54243],[32.99896,-9.54253],[32.99892,-9.54257],[32.99887,-9.54256],[32.99876,-9.54248],[32.9987,-9.54248],[32.99862,-9.54254],[32.99854,-9.54268]]},"properties":{"id":1040100354,"cls":"path","hw":"path","tg":"na","name":"","ref":"","surface":"","sc":"unknown","speed":null,"lit":"unk","km":0.415}},
{"type":"Feature","geometry":{"type":"LineString","coordinates":[[32.99775,-9.53939],[32.9977,-9.53942],[32.99761,-9.53953],[32.99755,-9.53953],[32.99748,-9.53956],[32.99722,-9.53974],[32.99714,-9.5398]]},"properties":{"id":1040100355,"cls":"path","hw":"path","tg":"na","name":"","ref":"","surface":"","sc":"unknown","speed":null,"lit":"unk","km":0.083}},
{"type":"Feature","geometry":{"type":"LineString","coordinates":[[32.9971,-9.53972],[32.99714,-9.5398],[32.99713,-9.53985],[32.99711,-9.53992],[32.99698,-9.54031],[32.99696,-9.54035],[32.99694,-9.54042],[32.99691,-9.54045],[32.99689,-9.54049],[32.99686,-9.54061],[32.99673,-9.54089],[32.99662,-9.54096],[32.9965,-9.541],[32.99638,-9.54113],[32.99633,-9.54123],[32.99628,-9.54146],[32.99628,-9.54168],[32.99632,-9.5418],[32.99642,-9.54192],[32.99648,-9.54203],[32.99655,-9.54217]]},"properties":{"id":1040100356,"cls":"path","hw":"path","tg":"na","name":"","ref":"","surface":"","sc":"unknown","speed":null,"lit":"unk","km":0.313}},
{"type":"Feature","geometry":{"type":"LineString","coordinates":[[32.99531,-9.54062],[32.99526,-9.54073],[32.99516,-9.54084],[32.99515,-9.54088],[32.99515,-9.54093],[32.99512,-9.54105],[32.99505,-9.54109]]},"properties":{"id":1040100357,"cls":"track","hw":"track","tg":"none","name":"","ref":"","surface":"","sc":"unknown","speed":null,"lit":"unk","km":0.063}},
{"type":"Feature","geometry":{"type":"LineString","coordinates":[[32.99646,-9.53651],[32.99653,-9.53647],[32.99671,-9.53633]]},"properties":{"id":1040100364,"cls":"track","hw":"track","tg":"none","name":"","ref":"","surface":"","sc":"unknown","speed":null,"lit":"unk","km":0.034}},
{"type":"Feature","geometry":{"type":"LineString","coordinates":[[32.99424,-9.53765],[32.99434,-9.53772],[32.9946,-9.53784],[32.9947,-9.53795],[32.99476,-9.53809],[32.99485,-9.53816],[32.99512,-9.53824],[32.9952,-9.53832],[32.99559,-9.53846],[32.99564,-9.53848]]},"properties":{"id":1040100367,"cls":"track","hw":"track","tg":"none","name":"","ref":"","surface":"","sc":"unknown","speed":null,"lit":"unk","km":0.186}},
{"type":"Feature","geometry":{"type":"LineString","coordinates":[[32.99735,-9.53676],[32.99755,-9.53699],[32.99776,-9.53737],[32.99791,-9.53753]]},"properties":{"id":1040100368,"cls":"track","hw":"track","tg":"none","name":"","ref":"","surface":"","sc":"unknown","speed":null,"lit":"unk","km":0.106}},
{"type":"Feature","geometry":{"type":"LineString","coordinates":[[32.99628,-9.53679],[32.99636,-9.53685],[32.99647,-9.53711],[32.99666,-9.5371],[32.99675,-9.53711]]},"properties":{"id":1040100369,"cls":"path","hw":"path","tg":"na","name":"","ref":"","surface":"","sc":"unknown","speed":null,"lit":"unk","km":0.073}},
{"type":"Feature","geometry":{"type":"LineString","coordinates":[[32.99522,-9.53737],[32.9953,-9.53736],[32.99566,-9.5374]]},"properties":{"id":1040100370,"cls":"track","hw":"track","tg":"none","name":"","ref":"","surface":"","sc":"unknown","speed":null,"lit":"unk","km":0.049}},
{"type":"Feature","geometry":{"type":"LineString","coordinates":[[32.99992,-9.60546],[33.00005,-9.60544],[33.0002,-9.60545],[33.00024,-9.60545],[33.00028,-9.60541],[33.00041,-9.60538],[33.0005,-9.60536],[33.00059,-9.60535],[33.0008,-9.60524],[33.00083,-9.60522],[33.00091,-9.60525],[33.00098,-9.60527],[33.00103,-9.60528],[33.00109,-9.60525],[33.00115,-9.60525],[33.00124,-9.60518],[33.00131,-9.60518],[33.00139,-9.60518],[33.00145,-9.60514],[33.00148,-9.6051],[33.00158,-9.6051],[33.00166,-9.60508],[33.00177,-9.60499],[33.00182,-9.60498],[33.00201,-9.60495],[33.00209,-9.60493],[33.00214,-9.60495],[33.00223,-9.60491],[33.00233,-9.60495],[33.00238,-9.60496],[33.00247,-9.60495],[33.00252,-9.60493],[33.0026,-9.6049],[33.00267,-9.60486],[33.00278,-9.60482],[33.00284,-9.6048],[33.00293,-9.60478],[33.00297,-9.60477]]},"properties":{"id":1040163563,"cls":"track","hw":"track","tg":"none","name":"","ref":"","surface":"","sc":"unknown","speed":null,"lit":"unk","km":0.36}},
{"type":"Feature","geometry":{"type":"LineString","coordinates":[[32.99425,-9.60777],[32.99441,-9.6077],[32.99453,-9.60766],[32.99465,-9.60765],[32.99473,-9.60762],[32.99475,-9.60757],[32.99487,-9.60752],[32.99511,-9.60738],[32.99522,-9.60732],[32.99528,-9.60729],[32.99537,-9.60729],[32.9955,-9.60729],[32.99558,-9.6073],[32.99563,-9.60728],[32.99567,-9.60723],[32.99573,-9.60719],[32.9958,-9.60716],[32.99591,-9.60716],[32.99596,-9.60712],[32.99608,-9.60703],[32.99618,-9.60694],[32.99622,-9.60687],[32.99627,-9.60685],[32.99635,-9.60687],[32.99642,-9.60682],[32.99653,-9.60678],[32.9966,-9.60673],[32.99664,-9.60673],[32.99672,-9.60671],[32.9968,-9.60666],[32.99687,-9.6066],[32.99696,-9.60656],[32.99701,-9.60657],[32.99706,-9.60656],[32.9971,-9.60651],[32.99715,-9.60648],[32.9972,-9.60647],[32.99724,-9.60644],[32.99733,-9.60639],[32.99741,-9.60635],[32.99751,-9.60628],[32.99758,-9.6062],[32.99765,-9.60615],[32.99774,-9.60611],[32.99784,-9.60603],[32.99791,-9.606],[32.998,-9.60596],[32.99812,-9.60588],[32.99822,-9.60586],[32.99833,-9.60584],[32.99843,-9.6058],[32.99853,-9.60574],[32.99863,-9.60572],[32.99876,-9.60572],[32.99884,-9.60572],[32.99888,-9.60568],[32.99893,-9.60569],[32.99897,-9.60568],[32.99903,-9.60565],[32.99914,-9.60567],[32.99926,-9.60565],[32.99937,-9.60565],[32.99948,-9.60565],[32.99961,-9.60562],[32.99975,-9.60559],[32.99987,-9.60555],[32.99992,-9.60546]]},"properties":{"id":1040163564,"cls":"path","hw":"path","tg":"na","name":"","ref":"","surface":"","sc":"unknown","speed":null,"lit":"unk","km":0.704}},
{"type":"Feature","geometry":{"type":"LineString","coordinates":[[32.98152,-9.60401],[32.98175,-9.604],[32.98187,-9.60403],[32.98205,-9.60402],[32.98215,-9.60402],[32.98241,-9.60415],[32.98253,-9.60426],[32.98291,-9.60439],[32.98323,-9.60446],[32.9834,-9.60449],[32.98352,-9.60453],[32.98375,-9.60457],[32.98416,-9.6045],[32.98442,-9.60447],[32.98458,-9.60446],[32.98472,-9.60446],[32.98479,-9.60445],[32.98486,-9.6044],[32.98493,-9.60442],[32.98497,-9.6044],[32.98509,-9.60439],[32.98516,-9.60443],[32.98527,-9.60444],[32.98542,-9.60442],[32.98548,-9.60443],[32.98557,-9.60447],[32.98563,-9.60453],[32.98569,-9.60461],[32.98585,-9.60465],[32.98609,-9.60473],[32.98621,-9.60478],[32.98632,-9.60478],[32.98641,-9.60483],[32.98664,-9.6049],[32.98672,-9.60491],[32.98679,-9.6049],[32.98683,-9.60493],[32.98692,-9.60494],[32.98699,-9.60494],[32.98705,-9.60497],[32.9871,-9.60496],[32.98716,-9.60495],[32.98722,-9.60499],[32.98725,-9.60504],[32.98736,-9.60508],[32.98751,-9.60514],[32.98759,-9.60518],[32.98763,-9.60518],[32.98776,-9.60522],[32.98784,-9.60524],[32.98792,-9.60523],[32.98798,-9.60522],[32.98808,-9.60525],[32.98813,-9.60529],[32.98819,-9.60531],[32.98828,-9.60531],[32.98841,-9.60535],[32.98852,-9.60536],[32.98865,-9.60539],[32.98879,-9.60542],[32.9889,-9.60548],[32.98905,-9.60553],[32.98913,-9.60553],[32.98931,-9.60562],[32.98952,-9.60571],[32.98966,-9.60576],[32.98999,-9.60596],[32.99005,-9.60598],[32.99032,-9.60613],[32.99054,-9.60622],[32.99065,-9.60626],[32.99077,-9.60629],[32.99082,-9.60636],[32.99085,-9.60644],[32.99094,-9.60645],[32.99099,-9.60646],[32.99104,-9.60652],[32.99116,-9.60659],[32.99134,-9.60663],[32.99145,-9.60666],[32.99162,-9.60674],[32.9917,-9.60679],[32.99178,-9.6068],[32.99188,-9.60688],[32.992,-9.60689],[32.99208,-9.60696],[32.9923,-9.60703],[32.99249,-9.60707],[32.99265,-9.6071],[32.99275,-9.60713],[32.99284,-9.60726],[32.99292,-9.60734],[32.993,-9.60738],[32.99308,-9.60739],[32.99315,-9.60739],[32.99324,-9.60744],[32.99342,-9.6075],[32.99362,-9.60755],[32.9937,-9.6076],[32.99381,-9.6076],[32.99388,-9.60764],[32.99397,-9.60765],[32.99411,-9.60772],[32.99423,-9.60776],[32.99425,-9.60777],[32.99452,-9.60787],[32.99463,-9.60792],[32.99483,-9.60807],[32.99502,-9.60809],[32.99511,-9.60812],[32.99521,-9.60821],[32.99526,-9.60822],[32.99536,-9.60829],[32.99543,-9.6083],[32.9956,-9.60827],[32.99577,-9.60825],[32.99594,-9.60822],[32.99622,-9.6084],[32.99631,-9.60846],[32.99658,-9.60856],[32.9967,-9.60863],[32.99696,-9.60868],[32.99713,-9.60865],[32.99728,-9.6087],[32.99741,-9.60873]]},"properties":{"id":1040163565,"cls":"track","hw":"track","tg":"none","name":"","ref":"","surface":"","sc":"unknown","speed":null,"lit":"unk","km":1.894}},
{"type":"Feature","geometry":{"type":"LineString","coordinates":[[32.99978,-9.54537],[32.9998,-9.54527],[32.99992,-9.54517],[33.00004,-9.54504],[33.0001,-9.545],[33.0002,-9.54489],[33.00026,-9.54478],[33.00032,-9.54455],[33.00036,-9.5443],[33.00045,-9.54404],[33.00047,-9.54382],[33.00053,-9.54369],[33.00054,-9.54351]]},"properties":{"id":1041143322,"cls":"track","hw":"track","tg":"none","name":"","ref":"","surface":"","sc":"unknown","speed":null,"lit":"unk","km":0.232}},
{"type":"Feature","geometry":{"type":"LineString","coordinates":[[32.99814,-9.63413],[32.9982,-9.63405],[32.99827,-9.63401],[32.99829,-9.634],[32.99833,-9.63395],[32.99843,-9.63376],[32.99847,-9.6337],[32.99853,-9.63364],[32.99927,-9.63284],[32.99966,-9.63234],[33.00042,-9.63138],[33.00079,-9.63093],[33.00087,-9.63088],[33.001,-9.63061],[33.00103,-9.63058],[33.00112,-9.63044],[33.00129,-9.6303],[33.00134,-9.6302],[33.00143,-9.6301],[33.0016,-9.62971],[33.00194,-9.62931],[33.00207,-9.62907],[33.00223,-9.62884],[33.0024,-9.62856],[33.00246,-9.62849],[33.00305,-9.62759],[33.00318,-9.62745],[33.00323,-9.62733],[33.00328,-9.62722],[33.00335,-9.62713],[33.00342,-9.62695],[33.00349,-9.62679],[33.00359,-9.62664],[33.00365,-9.62652],[33.00451,-9.62574],[33.0047,-9.62558],[33.00479,-9.62543],[33.00496,-9.62525],[33.00503,-9.62517],[33.00528,-9.62486],[33.00551,-9.62454],[33.0057,-9.62431],[33.00586,-9.62408],[33.00597,-9.62389],[33.00601,-9.62386],[33.00604,-9.62379],[33.00619,-9.62361],[33.00636,-9.62341],[33.00642,-9.62315],[33.00654,-9.62269],[33.00656,-9.62266],[33.00672,-9.62219],[33.00679,-9.62195],[33.00683,-9.62178],[33.00684,-9.62151],[33.00691,-9.62123],[33.00705,-9.621],[33.00729,-9.62042],[33.00745,-9.61985],[33.00781,-9.61899],[33.0079,-9.61866],[33.00791,-9.61852],[33.00801,-9.61804],[33.00806,-9.61792],[33.00809,-9.61775],[33.00813,-9.61763],[33.00817,-9.61741],[33.00827,-9.61718],[33.0084,-9.61704],[33.00848,-9.61692],[33.00868,-9.6165]]},"properties":{"id":1156841819,"cls":"path","hw":"path","tg":"na","name":"","ref":"","surface":"","sc":"unknown","speed":null,"lit":"unk","km":2.324}},
{"type":"Feature","geometry":{"type":"LineString","coordinates":[[32.99623,-9.55537],[32.99619,-9.5553],[32.99613,-9.55523],[32.99606,-9.55506],[32.99601,-9.55494],[32.99604,-9.5548],[32.99595,-9.55466]]},"properties":{"id":1174319656,"cls":"path","hw":"path","tg":"na","name":"","ref":"","surface":"","sc":"unknown","speed":null,"lit":"unk","km":0.088}},
{"type":"Feature","geometry":{"type":"LineString","coordinates":[[32.99532,-9.54475],[32.99545,-9.54475],[32.99556,-9.54479],[32.9956,-9.54482],[32.99567,-9.54483],[32.99577,-9.5448],[32.9959,-9.54479],[32.99599,-9.54479]]},"properties":{"id":1174362680,"cls":"path","hw":"path","tg":"na","name":"","ref":"","surface":"","sc":"unknown","speed":null,"lit":"unk","km":0.076}},
{"type":"Feature","geometry":{"type":"LineString","coordinates":[[32.99552,-9.55559],[32.99566,-9.55562],[32.99569,-9.55563],[32.99573,-9.55564],[32.99579,-9.55562],[32.9958,-9.55557],[32.99585,-9.55552]]},"properties":{"id":1174681456,"cls":"path","hw":"path","tg":"na","name":"","ref":"","surface":"","sc":"unknown","speed":null,"lit":"unk","km":0.044}},
{"type":"Feature","geometry":{"type":"LineString","coordinates":[[32.99585,-9.55552],[32.99589,-9.55547],[32.99598,-9.55542],[32.99601,-9.55542],[32.99607,-9.55541],[32.99613,-9.5554],[32.99619,-9.55538],[32.99623,-9.55537]]},"properties":{"id":1174681461,"cls":"path","hw":"path","tg":"na","name":"","ref":"","surface":"","sc":"unknown","speed":null,"lit":"unk","km":0.047}},
{"type":"Feature","geometry":{"type":"LineString","coordinates":[[32.9991,-9.57747],[32.99945,-9.57768],[32.99972,-9.57783],[33.00002,-9.57795],[33.00012,-9.57799],[33.00024,-9.578],[33.00034,-9.57801],[33.00041,-9.57799],[33.00047,-9.57796],[33.00053,-9.57789],[33.0007,-9.57759],[33.00072,-9.57756],[33.00076,-9.57753],[33.00079,-9.57752],[33.00083,-9.57752],[33.00088,-9.57753],[33.00094,-9.57753],[33.00098,-9.57754],[33.00104,-9.57752],[33.00109,-9.5775],[33.00113,-9.57748],[33.00121,-9.57748]]},"properties":{"id":1176512495,"cls":"path","hw":"path","tg":"na","name":"","ref":"","surface":"unpaved","sc":"unpaved","speed":null,"lit":"unk","km":0.275}},
{"type":"Feature","geometry":{"type":"LineString","coordinates":[[32.98207,-9.57332],[32.98224,-9.5734],[32.98251,-9.57356],[32.98269,-9.57365],[32.98383,-9.57416],[32.98466,-9.57456],[32.98522,-9.5748],[32.98546,-9.57491],[32.98581,-9.57504],[32.98609,-9.57515],[32.98634,-9.57528],[32.987,-9.57551],[32.98753,-9.57574],[32.9883,-9.57608],[32.9884,-9.57609],[32.98911,-9.57642],[32.98932,-9.57649],[32.9895,-9.57658],[32.9896,-9.57665],[32.98996,-9.57688],[32.99021,-9.57703],[32.99106,-9.57756],[32.99151,-9.57782],[32.99162,-9.57787],[32.99176,-9.57792],[32.99192,-9.57803],[32.99201,-9.57806],[32.99228,-9.57812],[32.99279,-9.57828],[32.99308,-9.57836],[32.99328,-9.57839],[32.99347,-9.57843],[32.9936,-9.57846],[32.99367,-9.57847],[32.99378,-9.57849],[32.99388,-9.57852],[32.99401,-9.57858],[32.99409,-9.5786],[32.99416,-9.57861],[32.99428,-9.57865],[32.99439,-9.57866],[32.99455,-9.5787]]},"properties":{"id":1176512496,"cls":"unclassified","hw":"unclassified","tg":"na","name":"","ref":"","surface":"unpaved","sc":"unpaved","speed":null,"lit":"unk","km":1.503}},
{"type":"Feature","geometry":{"type":"LineString","coordinates":[[32.99992,-9.60546],[33.00002,-9.6053],[33.00006,-9.60519],[33.00017,-9.60509],[33.00029,-9.60496],[33.00034,-9.60493],[33.00043,-9.60488],[33.00056,-9.60487],[33.00064,-9.60485],[33.00082,-9.60477],[33.00116,-9.60457],[33.00121,-9.60456],[33.00126,-9.60453],[33.00129,-9.60446],[33.00137,-9.60433],[33.00143,-9.60427],[33.0015,-9.60419],[33.00158,-9.60415],[33.00165,-9.6041],[33.00171,-9.6041],[33.00181,-9.6041],[33.00188,-9.60406],[33.00196,-9.60405],[33.00201,-9.60397],[33.00207,-9.60391],[33.00226,-9.60384],[33.00237,-9.60379],[33.00246,-9.60374],[33.00254,-9.60368],[33.00261,-9.60364],[33.00268,-9.60356],[33.00278,-9.6035],[33.00289,-9.60348],[33.00295,-9.60348],[33.00303,-9.60348],[33.00319,-9.60341],[33.00338,-9.60332],[33.00354,-9.60318],[33.00364,-9.60313],[33.00378,-9.60311],[33.00394,-9.60313]]},"properties":{"id":1205109092,"cls":"track","hw":"track","tg":"none","name":"","ref":"","surface":"","sc":"unknown","speed":null,"lit":"unk","km":0.539}},
{"type":"Feature","geometry":{"type":"LineString","coordinates":[[32.99451,-9.5795],[32.99448,-9.57958],[32.99448,-9.5797],[32.99455,-9.57983],[32.9946,-9.5799],[32.99474,-9.58015],[32.99478,-9.58024],[32.99483,-9.58038],[32.99485,-9.58044],[32.99487,-9.58052]]},"properties":{"id":1208417213,"cls":"path","hw":"path","tg":"na","name":"","ref":"","surface":"","sc":"unknown","speed":null,"lit":"unk","km":0.124}}
]}