{"type":"FeatureCollection","features":[
{"type":"Feature","geometry":{"type":"LineString","coordinates":[[32.94279,-12.85011],[32.94259,-12.85024],[32.94185,-12.85055],[32.94144,-12.85072],[32.93904,-12.85169],[32.93788,-12.85217],[32.93693,-12.85253],[32.93494,-12.85335],[32.93352,-12.85393],[32.93263,-12.85429],[32.9318,-12.85462],[32.93154,-12.85474],[32.93133,-12.85486],[32.93118,-12.85496],[32.93102,-12.85508],[32.93076,-12.85536],[32.93037,-12.85579],[32.92967,-12.85659],[32.92917,-12.85708],[32.92898,-12.85732],[32.9285,-12.85789],[32.92781,-12.8587],[32.92706,-12.85954],[32.92627,-12.86048],[32.9247,-12.86239],[32.92339,-12.86387],[32.92214,-12.86532],[32.92168,-12.86585],[32.92057,-12.86716],[32.91997,-12.86786],[32.91896,-12.869],[32.91862,-12.86939],[32.9183,-12.86978],[32.91782,-12.87047],[32.91726,-12.87136],[32.91652,-12.87252],[32.91554,-12.87409],[32.91431,-12.87603],[32.91416,-12.87627],[32.91289,-12.87824],[32.91228,-12.87925],[32.91174,-12.8801],[32.91067,-12.88178],[32.91003,-12.88281],[32.90977,-12.88318],[32.90928,-12.88395],[32.9086,-12.88493],[32.90781,-12.88602],[32.90741,-12.88668],[32.907,-12.88739],[32.90637,-12.88849],[32.90615,-12.88887],[32.9059,-12.88932],[32.90451,-12.89168],[32.90424,-12.89215],[32.904,-12.89249],[32.90359,-12.89323],[32.90281,-12.89457],[32.90265,-12.89482],[32.90211,-12.89579],[32.90144,-12.897],[32.90075,-12.89831],[32.90035,-12.89903],[32.89992,-12.89976],[32.89973,-12.90007],[32.89858,-12.90192],[32.89788,-12.90315],[32.89779,-12.90342],[32.89779,-12.90366],[32.89782,-12.90382],[32.89786,-12.90395],[32.89805,-12.90416],[32.89889,-12.90511],[32.89997,-12.9064],[32.9004,-12.9069],[32.90128,-12.90791],[32.90152,-12.9082],[32.9017,-12.90836],[32.90175,-12.90841],[32.90188,-12.90847],[32.90213,-12.90857],[32.90256,-12.90864],[32.90525,-12.90874],[32.90613,-12.90877],[32.90813,-12.90883],[32.91067,-12.9089],[32.91225,-12.90895],[32.91485,-12.90904],[32.91526,-12.90906],[32.91543,-12.90907],[32.91559,-12.90911],[32.91574,-12.90915],[32.9159,-12.90922],[32.91613,-12.90934],[32.91639,-12.90951],[32.91746,-12.91027],[32.9192,-12.91152],[32.92119,-12.91295],[32.92195,-12.91349],[32.92526,-12.91586],[32.92772,-12.91766],[32.92843,-12.91815],[32.92924,-12.91874],[32.93011,-12.91939],[32.93098,-12.92],[32.9323,-12.92102],[32.9333,-12.92173],[32.9343,-12.92244],[32.93477,-12.92275],[32.93492,-12.92286],[32.93598,-12.92365],[32.93715,-12.9244],[32.93776,-12.92483],[32.93809,-12.92504],[32.9384,-12.92521],[32.93858,-12.92529],[32.93879,-12.92536],[32.94041,-12.92581],[32.94095,-12.92598],[32.94197,-12.92624],[32.94311,-12.92658],[32.94413,-12.92686],[32.94475,-12.92702],[32.94507,-12.92712],[32.94546,-12.92727],[32.94633,-12.92752],[32.94746,-12.9278],[32.94774,-12.92788],[32.94872,-12.92817],[32.94886,-12.9282],[32.94905,-12.92823],[32.94943,-12.92828],[32.94961,-12.92828],[32.94977,-12.92827],[32.95023,-12.92817],[32.95166,-12.92774],[32.95322,-12.92726],[32.95567,-12.92648]]},"properties":{"id":302558027,"cls":"unclassified","hw":"unclassified","tg":"na","name":"","ref":"","surface":"unpaved","sc":"unpaved","speed":null,"lit":"unk","km":15.109}},
{"type":"Feature","geometry":{"type":"LineString","coordinates":[[32.93623,-12.79779],[32.93579,-12.79788],[32.93535,-12.79802],[32.93482,-12.79815],[32.93423,-12.79831],[32.9342,-12.79832],[32.93397,-12.79841],[32.93377,-12.7985]]},"properties":{"id":504790586,"cls":"unclassified","hw":"unclassified","tg":"na","name":"","ref":"","surface":"","sc":"unknown","speed":null,"lit":"unk","km":0.279}},
{"type":"Feature","geometry":{"type":"LineString","coordinates":[[32.93535,-12.79802],[32.93539,-12.79796],[32.93543,-12.79786],[32.93546,-12.79774],[32.9355,-12.79758],[32.93553,-12.79744],[32.93555,-12.79736],[32.9356,-12.79725],[32.93559,-12.7971],[32.93573,-12.79702],[32.93581,-12.79692],[32.93584,-12.79688],[32.93581,-12.79679]]},"properties":{"id":504790587,"cls":"track","hw":"track","tg":"none","name":"","ref":"","surface":"","sc":"unknown","speed":null,"lit":"unk","km":0.155}},
{"type":"Feature","geometry":{"type":"LineString","coordinates":[[32.9342,-12.79832],[32.93421,-12.79825],[32.93426,-12.79807],[32.9343,-12.79789],[32.93435,-12.79766],[32.93436,-12.79754],[32.93438,-12.79737],[32.93438,-12.79722],[32.93439,-12.79704],[32.93436,-12.7969],[32.93434,-12.79674]]},"properties":{"id":504790588,"cls":"track","hw":"track","tg":"none","name":"","ref":"","surface":"","sc":"unknown","speed":null,"lit":"unk","km":0.178}},
{"type":"Feature","geometry":{"type":"LineString","coordinates":[[32.93377,-12.7985],[32.9336,-12.79851],[32.93342,-12.79855],[32.93323,-12.79856],[32.93305,-12.79856],[32.933,-12.79854],[32.93292,-12.79851],[32.9328,-12.79847],[32.93269,-12.79841],[32.9325,-12.79835],[32.93238,-12.79833],[32.93229,-12.79832],[32.93222,-12.79827],[32.93215,-12.79822],[32.93208,-12.79814],[32.93202,-12.79805],[32.93194,-12.79795],[32.93188,-12.79791],[32.93169,-12.79781],[32.93152,-12.79775],[32.93135,-12.79773],[32.93111,-12.79772],[32.93089,-12.79767],[32.93071,-12.79764],[32.93053,-12.79763],[32.93038,-12.79761],[32.93025,-12.79756],[32.93012,-12.79747],[32.93002,-12.79738],[32.92993,-12.79733],[32.92979,-12.79727]]},"properties":{"id":504790589,"cls":"track","hw":"track","tg":"none","name":"","ref":"","surface":"","sc":"unknown","speed":null,"lit":"unk","km":0.473}},
{"type":"Feature","geometry":{"type":"LineString","coordinates":[[32.93434,-12.79674],[32.93406,-12.79674],[32.93384,-12.79672],[32.93357,-12.79672],[32.93324,-12.79673],[32.93302,-12.79673],[32.93214,-12.79679],[32.93138,-12.79691],[32.93114,-12.79699],[32.93093,-12.79704],[32.93073,-12.79706],[32.93058,-12.79708],[32.93044,-12.79711],[32.93013,-12.79717],[32.92988,-12.79723],[32.92979,-12.79727],[32.92945,-12.79733],[32.9292,-12.79736],[32.92894,-12.7974],[32.92869,-12.79743],[32.92828,-12.79744],[32.92812,-12.79744],[32.928,-12.79743],[32.92778,-12.79733],[32.92765,-12.79726],[32.92754,-12.7972]]},"properties":{"id":504790590,"cls":"track","hw":"track","tg":"none","name":"","ref":"","surface":"","sc":"unknown","speed":null,"lit":"unk","km":0.752}},
{"type":"Feature","geometry":{"type":"LineString","coordinates":[[32.93196,-12.78055],[32.93186,-12.7807],[32.93173,-12.78085],[32.93156,-12.78106],[32.93133,-12.78131],[32.93111,-12.78154],[32.93091,-12.78177],[32.93074,-12.782],[32.93047,-12.78229],[32.93005,-12.78277],[32.92986,-12.78299],[32.92969,-12.78326],[32.92951,-12.78346],[32.92931,-12.78383],[32.92908,-12.78424],[32.92886,-12.78462],[32.92866,-12.78498],[32.92854,-12.78526],[32.92842,-12.78548],[32.92833,-12.78571],[32.92826,-12.78589],[32.92815,-12.78608],[32.92803,-12.78623],[32.92786,-12.78645],[32.92763,-12.7867],[32.92737,-12.78695],[32.92732,-12.787],[32.92692,-12.78736],[32.92652,-12.78762],[32.92634,-12.78774],[32.92589,-12.78801],[32.92563,-12.78821],[32.92539,-12.78835],[32.92498,-12.78857],[32.92464,-12.78877],[32.92444,-12.78895],[32.92421,-12.78922],[32.92398,-12.78944],[32.92376,-12.78955],[32.92355,-12.78964],[32.92333,-12.78973],[32.92309,-12.78984],[32.92295,-12.79],[32.92275,-12.79017],[32.9225,-12.79036],[32.92228,-12.79045],[32.922,-12.79054],[32.9217,-12.79062],[32.92141,-12.79073],[32.92115,-12.79084],[32.92086,-12.79089],[32.92054,-12.79099],[32.92019,-12.79109],[32.91983,-12.79118],[32.91952,-12.79127],[32.91916,-12.79133],[32.91892,-12.79134],[32.91861,-12.79138],[32.91836,-12.79143],[32.91816,-12.79145],[32.91794,-12.79147],[32.91756,-12.79161],[32.91735,-12.79174],[32.91714,-12.79184],[32.91679,-12.7921],[32.91646,-12.79233],[32.91616,-12.79241],[32.91562,-12.79253],[32.91524,-12.79263],[32.91492,-12.79269],[32.91472,-12.79276],[32.91441,-12.79287],[32.91409,-12.79299],[32.91381,-12.7931],[32.91356,-12.79319],[32.91326,-12.79329],[32.91292,-12.79338],[32.91262,-12.79341],[32.91228,-12.79344],[32.91189,-12.79346],[32.91155,-12.79347],[32.91128,-12.7935],[32.91087,-12.79368],[32.91054,-12.79383],[32.91016,-12.79406],[32.90969,-12.79432],[32.90937,-12.79456],[32.90917,-12.79479],[32.90889,-12.79503],[32.90862,-12.79528],[32.90835,-12.79555],[32.90804,-12.79587],[32.90779,-12.79609],[32.90752,-12.79631],[32.90726,-12.79646],[32.9067,-12.79678],[32.90639,-12.79699],[32.90578,-12.79737],[32.90565,-12.79745]]},"properties":{"id":504790596,"cls":"track","hw":"track","tg":"none","name":"","ref":"","surface":"","sc":"unknown","speed":null,"lit":"unk","km":3.57}},
{"type":"Feature","geometry":{"type":"LineString","coordinates":[[32.93291,-12.7803],[32.93278,-12.7804],[32.93257,-12.78042],[32.93196,-12.78055],[32.93123,-12.78048],[32.93013,-12.78036],[32.9294,-12.78027],[32.92846,-12.77985],[32.92749,-12.77966],[32.92653,-12.77958],[32.92505,-12.77941],[32.92376,-12.77931],[32.92304,-12.77925],[32.92271,-12.77923],[32.92116,-12.77902],[32.92013,-12.77889],[32.91951,-12.77895],[32.9185,-12.7791],[32.91824,-12.77914],[32.91743,-12.77935],[32.91683,-12.77931],[32.9164,-12.77941],[32.91571,-12.77977],[32.91452,-12.7803]]},"properties":{"id":530760880,"cls":"track","hw":"track","tg":"none","name":"","ref":"","surface":"","sc":"unknown","speed":null,"lit":"unk","km":2.048}},
{"type":"Feature","geometry":{"type":"LineString","coordinates":[[32.99878,-12.63229],[32.99879,-12.63232],[32.99879,-12.63235],[32.99886,-12.63254],[32.99892,-12.63278],[32.99895,-12.63285],[32.99902,-12.63297],[32.99923,-12.63354],[32.99946,-12.63405],[32.99964,-12.63453],[32.99968,-12.63469],[32.99969,-12.63485],[32.99968,-12.63502],[32.99965,-12.6351],[32.99963,-12.6352],[32.99965,-12.63534],[32.99968,-12.63543],[32.99982,-12.6357],[33.00005,-12.63627],[33.00012,-12.63641],[33.00033,-12.63668],[33.00043,-12.63685],[33.00053,-12.63711],[33.00062,-12.63723],[33.00073,-12.63742],[33.00089,-12.63766],[33.00097,-12.63779],[33.00129,-12.6385],[33.00137,-12.63874],[33.00143,-12.63884],[33.00165,-12.63907],[33.0018,-12.63926],[33.00188,-12.63937],[33.00213,-12.63964],[33.00217,-12.63972],[33.00228,-12.63997],[33.00238,-12.64013],[33.0025,-12.64028],[33.00261,-12.64045],[33.00275,-12.64061],[33.00278,-12.6407],[33.00279,-12.64079],[33.00274,-12.64119],[33.00253,-12.64209],[33.0024,-12.64252],[33.00239,-12.64265],[33.00239,-12.64274],[33.0024,-12.64304],[33.0024,-12.64312],[33.00238,-12.64321],[33.00235,-12.64331],[33.00203,-12.64395],[33.00196,-12.64411],[33.00194,-12.64426],[33.00192,-12.64477],[33.00193,-12.64506],[33.00188,-12.64541],[33.00189,-12.64562],[33.0019,-12.6458],[33.00204,-12.6464],[33.00208,-12.64678],[33.00209,-12.64697],[33.00225,-12.64755],[33.00233,-12.6477],[33.00243,-12.64782],[33.00292,-12.64818],[33.00359,-12.64876],[33.00381,-12.64897],[33.00387,-12.64905],[33.00406,-12.64933],[33.00423,-12.64952],[33.00439,-12.64968],[33.00475,-12.65002],[33.00489,-12.65016],[33.00508,-12.65039],[33.00521,-12.65052],[33.00546,-12.65091],[33.00558,-12.65105],[33.00577,-12.65121],[33.00604,-12.65142],[33.00621,-12.65157],[33.00644,-12.65181],[33.00658,-12.65197],[33.00694,-12.65252],[33.00704,-12.65262],[33.00731,-12.65296],[33.00744,-12.65319],[33.00757,-12.65346],[33.00765,-12.65391],[33.00766,-12.65404],[33.00766,-12.65421],[33.00768,-12.65434],[33.00775,-12.65454],[33.00778,-12.6547],[33.00791,-12.6556],[33.00803,-12.65639],[33.00807,-12.65666],[33.00818,-12.65766],[33.00835,-12.65885],[33.00831,-12.65926],[33.00827,-12.65982],[33.00842,-12.66059],[33.00856,-12.66078],[33.00861,-12.66087],[33.00867,-12.66107],[33.00872,-12.66134],[33.00878,-12.66147],[33.0089,-12.66176],[33.00913,-12.66223],[33.00928,-12.6625],[33.00948,-12.66279],[33.00961,-12.66295],[33.00968,-12.66308],[33.0098,-12.66332],[33.0099,-12.66362],[33.01002,-12.66384],[33.01011,-12.66402],[33.01064,-12.66504],[33.01078,-12.6652],[33.01082,-12.66528],[33.01087,-12.66533],[33.01106,-12.66549],[33.01121,-12.66564],[33.01161,-12.66619],[33.01201,-12.66664],[33.01213,-12.66676],[33.01226,-12.66693],[33.01231,-12.66704],[33.01233,-12.66713],[33.01236,-12.66727],[33.01241,-12.66757],[33.01238,-12.66775],[33.01235,-12.66782],[33.01228,-12.66791],[33.01219,-12.66801],[33.01203,-12.66824],[33.01177,-12.66872],[33.01168,-12.66884],[33.01156,-12.66894],[33.01148,-12.66898],[33.01105,-12.66923],[33.01075,-12.66936],[33.01063,-12.66944],[33.01035,-12.66968],[33.01006,-12.66988],[33.00988,-12.67008],[33.00979,-12.67021],[33.00965,-12.67039],[33.00958,-12.67068],[33.00946,-12.67093],[33.00942,-12.67099],[33.00938,-12.67103],[33.00931,-12.67105],[33.00923,-12.67113],[33.00916,-12.67121],[33.00914,-12.67126],[33.00915,-12.67141],[33.00912,-12.67149],[33.00905,-12.67159],[33.00902,-12.67169],[33.00894,-12.67181],[33.00892,-12.67189],[33.00891,-12.67207],[33.00891,-12.67219],[33.00896,-12.67227],[33.00899,-12.67242],[33.00901,-12.67262],[33.00902,-12.67268],[33.0091,-12.67298],[33.00914,-12.67316],[33.00918,-12.67324],[33.00933,-12.67362],[33.00935,-12.6737],[33.00937,-12.67384],[33.00937,-12.67402],[33.00939,-12.67429],[33.00938,-12.67447],[33.00936,-12.67465],[33.00937,-12.67475],[33.00939,-12.67494],[33.0095,-12.67524],[33.0095,-12.67536],[33.00949,-12.67548],[33.00949,-12.6756],[33.00953,-12.67589],[33.00954,-12.67607],[33.00953,-12.67621],[33.00948,-12.67645],[33.00938,-12.67659],[33.00898,-12.67729],[33.0088,-12.67799],[33.00878,-12.67804],[33.00872,-12.67809],[33.00842,-12.67832],[33.00812,-12.67853],[33.00783,-12.67878],[33.0077,-12.6789],[33.00753,-12.6792],[33.00747,-12.67938],[33.00712,-12.6797],[33.00695,-12.67995],[33.00686,-12.68012],[33.00676,-12.68042],[33.00675,-12.68049],[33.00664,-12.68124],[33.00661,-12.68145],[33.00659,-12.6815],[33.00657,-12.68154],[33.0065,-12.68159],[33.00642,-12.68169],[33.0064,-12.68175],[33.00639,-12.68184],[33.0063,-12.68198],[33.00627,-12.68208],[33.00624,-12.68218],[33.00627,-12.68235],[33.00619,-12.68273],[33.00597,-12.68336],[33.00588,-12.68362],[33.00582,-12.68377],[33.00578,-12.68402],[33.00572,-12.68424],[33.00551,-12.68473],[33.00535,-12.68515],[33.00526,-12.68541],[33.00514,-12.68563],[33.00504,-12.68589],[33.00511,-12.68597],[33.0052,-12.68604],[33.00539,-12.68618],[33.00567,-12.68641],[33.00574,-12.68648],[33.00578,-12.68656],[33.00599,-12.687],[33.00602,-12.68713],[33.00603,-12.68732],[33.00608,-12.68744],[33.00616,-12.68763],[33.00619,-12.68769],[33.00623,-12.68785],[33.00624,-12.68799],[33.00629,-12.68819],[33.0063,-12.68827],[33.00628,-12.68848],[33.00629,-12.68859],[33.00631,-12.68868],[33.00634,-12.68877],[33.00639,-12.68896],[33.00639,-12.68902],[33.00639,-12.68922],[33.00637,-12.68933],[33.00634,-12.68937],[33.0063,-12.6894],[33.00627,-12.68947],[33.00622,-12.68973],[33.00619,-12.6898],[33.00615,-12.68984],[33.00613,-12.68988],[33.00607,-12.69008],[33.00582,-12.69103],[33.00572,-12.69134],[33.0057,-12.69137],[33.00564,-12.69141],[33.00552,-12.69147],[33.00547,-12.69147],[33.00544,-12.69149],[33.00541,-12.69151],[33.00539,-12.69157],[33.00538,-12.69159],[33.00523,-12.69166],[33.0051,-12.69171],[33.00495,-12.69182],[33.00472,-12.69194]]},"properties":{"id":654126398,"cls":"track","hw":"track","tg":"none","name":"","ref":"","surface":"","sc":"unknown","speed":null,"lit":"unk","km":7.567}},
{"type":"Feature","geometry":{"type":"LineString","coordinates":[[32.98999,-12.90793],[32.99018,-12.90793],[32.99036,-12.90793],[32.99067,-12.90798],[32.99088,-12.90806],[32.99133,-12.90832],[32.99174,-12.90861],[32.99193,-12.90867],[32.99229,-12.90876],[32.99261,-12.90892],[32.99275,-12.90895],[32.99341,-12.90899],[32.99393,-12.90901],[32.99414,-12.90899],[32.99429,-12.909],[32.99475,-12.90906],[32.99533,-12.90912],[32.99564,-12.90914],[32.99612,-12.90915],[32.99641,-12.9092],[32.99689,-12.90925],[32.99733,-12.90926],[32.99768,-12.90924],[32.99785,-12.90922],[32.99872,-12.90924],[32.99908,-12.90926],[32.99958,-12.90924],[33.00048,-12.90913],[33.00143,-12.90906],[33.00176,-12.90906],[33.00193,-12.90906],[33.00273,-12.90923],[33.00287,-12.90915],[33.00301,-12.90905],[33.00312,-12.90905],[33.00324,-12.90905],[33.0033,-12.90903],[33.00342,-12.90897],[33.00375,-12.90879],[33.00402,-12.90862],[33.00433,-12.90835],[33.00456,-12.90816],[33.00484,-12.90796],[33.00506,-12.90782],[33.00523,-12.90766],[33.00534,-12.90752],[33.00547,-12.90735],[33.00556,-12.90726],[33.00574,-12.90715],[33.00598,-12.90703],[33.00617,-12.90692],[33.00627,-12.90686],[33.0065,-12.90672],[33.0067,-12.90662],[33.0069,-12.90656],[33.00717,-12.90647],[33.00734,-12.90641],[33.00748,-12.90629],[33.00776,-12.90601],[33.00791,-12.90585],[33.00814,-12.90568],[33.00843,-12.9055],[33.00866,-12.9054],[33.00894,-12.90528],[33.00922,-12.90515],[33.00977,-12.90495],[33.01008,-12.90479],[33.01034,-12.90467],[33.01063,-12.90458],[33.01081,-12.90453],[33.01112,-12.9045],[33.01128,-12.90444],[33.01132,-12.90442],[33.01135,-12.90439],[33.01138,-12.90435],[33.01141,-12.90431],[33.01151,-12.90423],[33.01162,-12.90416],[33.01172,-12.90411],[33.01181,-12.90408],[33.01186,-12.90405],[33.0123,-12.90362],[33.01248,-12.90348],[33.01272,-12.90333],[33.01298,-12.90309],[33.01333,-12.90275],[33.01351,-12.9026],[33.01364,-12.90249],[33.01391,-12.90231],[33.01424,-12.90207],[33.01443,-12.90186],[33.01463,-12.90163],[33.01483,-12.90148],[33.01496,-12.90138],[33.01516,-12.90119],[33.01527,-12.90112],[33.01553,-12.90098],[33.01584,-12.9007],[33.01588,-12.90065],[33.01601,-12.90046],[33.01608,-12.90041],[33.01622,-12.90029],[33.01632,-12.90022],[33.01636,-12.90018],[33.01649,-12.89999],[33.01708,-12.89928],[33.01715,-12.89916],[33.01719,-12.899],[33.01722,-12.89884],[33.01735,-12.89852],[33.0175,-12.89808],[33.0176,-12.89786],[33.01764,-12.89781],[33.01767,-12.89778],[33.01772,-12.89775],[33.01777,-12.89773],[33.01793,-12.89773],[33.01797,-12.89772],[33.01799,-12.89769],[33.01803,-12.8975],[33.01812,-12.89713],[33.01816,-12.8967],[33.01815,-12.89663],[33.01813,-12.89658],[33.01811,-12.89652],[33.01811,-12.89648],[33.01822,-12.89571],[33.01827,-12.8954],[33.01827,-12.89539],[33.01828,-12.89538],[33.01838,-12.89537],[33.0184,-12.89536],[33.01841,-12.89534],[33.01842,-12.89501],[33.01842,-12.89455],[33.01843,-12.89427],[33.01856,-12.89357]]},"properties":{"id":657479221,"cls":"track","hw":"track","tg":"none","name":"","ref":"","surface":"","sc":"unknown","speed":null,"lit":"unk","km":4.056}},
{"type":"Feature","geometry":{"type":"LineString","coordinates":[[32.96648,-12.9491],[32.96673,-12.94892],[32.96687,-12.94879],[32.96708,-12.94867],[32.96732,-12.94857],[32.96753,-12.94845],[32.9677,-12.94838],[32.96783,-12.94836],[32.96794,-12.94837],[32.96814,-12.94843],[32.96833,-12.94848],[32.96849,-12.9485],[32.96865,-12.94849],[32.96877,-12.94845],[32.96888,-12.94837],[32.96904,-12.94818],[32.96914,-12.94799],[32.9692,-12.94785],[32.96925,-12.94762],[32.96931,-12.94727],[32.96935,-12.94711],[32.9694,-12.94693],[32.96944,-12.94676],[32.96947,-12.94671],[32.96951,-12.94667],[32.96959,-12.94659],[32.96976,-12.94651],[32.97014,-12.94634],[32.97113,-12.94587],[32.97185,-12.94551],[32.97193,-12.94547],[32.97198,-12.94546],[32.97205,-12.94547],[32.97214,-12.94551],[32.97234,-12.94567],[32.97261,-12.94593],[32.97275,-12.94608],[32.97293,-12.94624],[32.9731,-12.94638],[32.97335,-12.94659],[32.97353,-12.94671],[32.97376,-12.9469],[32.97395,-12.947],[32.97411,-12.94709],[32.97435,-12.94721],[32.97464,-12.94734],[32.97488,-12.94744],[32.975,-12.94748],[32.97521,-12.94755],[32.97529,-12.94758],[32.97539,-12.94764],[32.97549,-12.9477],[32.9756,-12.94778],[32.97572,-12.94786],[32.97582,-12.9479],[32.97608,-12.94801],[32.97628,-12.9481],[32.9765,-12.94818],[32.97673,-12.94828],[32.9768,-12.94832],[32.97687,-12.94837],[32.97696,-12.94844],[32.97714,-12.94856],[32.97731,-12.94866],[32.9775,-12.94878],[32.97753,-12.94881],[32.97765,-12.94892],[32.97783,-12.94911],[32.97797,-12.94923],[32.97806,-12.94933],[32.97819,-12.9495],[32.97867,-12.95],[32.97883,-12.95018],[32.97906,-12.95039],[32.97917,-12.95046],[32.9793,-12.95054],[32.97935,-12.95058],[32.97938,-12.95064],[32.9795,-12.95084],[32.97952,-12.95091],[32.97954,-12.95136],[32.97951,-12.95158],[32.9795,-12.95166],[32.97952,-12.95173],[32.97955,-12.95179],[32.9796,-12.95184],[32.97967,-12.95188],[32.98027,-12.95205],[32.98039,-12.95208],[32.9807,-12.95209],[32.98115,-12.95208],[32.98149,-12.95211],[32.98178,-12.95216],[32.98201,-12.95217],[32.98242,-12.95226],[32.98254,-12.95227],[32.98273,-12.95225],[32.98302,-12.95221],[32.98326,-12.95218],[32.984,-12.95205],[32.98434,-12.95199],[32.98451,-12.95196],[32.98473,-12.95193],[32.98502,-12.95192],[32.98519,-12.95194],[32.98579,-12.95211],[32.98649,-12.9523],[32.98672,-12.9524],[32.98707,-12.95254],[32.98723,-12.95261],[32.98745,-12.95265],[32.98776,-12.95268],[32.98827,-12.95271],[32.98872,-12.9527],[32.98923,-12.95268],[32.98948,-12.95266],[32.98965,-12.95267],[32.98992,-12.95271],[32.99031,-12.95276],[32.99069,-12.95281],[32.99086,-12.95284],[32.991,-12.95285],[32.99121,-12.95288],[32.99151,-12.9529],[32.9918,-12.95293],[32.99199,-12.95297],[32.99217,-12.953],[32.99242,-12.95305],[32.99276,-12.95315],[32.99292,-12.95318],[32.99306,-12.9532],[32.99349,-12.95325],[32.99357,-12.95327],[32.99366,-12.95329],[32.99372,-12.9533],[32.99392,-12.95329],[32.99399,-12.9533],[32.99405,-12.95333],[32.99421,-12.95343],[32.99441,-12.95355],[32.99458,-12.95362],[32.99499,-12.95377],[32.99514,-12.9538],[32.99545,-12.95385],[32.99569,-12.95384],[32.99581,-12.95382],[32.99593,-12.95384],[32.99648,-12.95392],[32.99706,-12.954],[32.99722,-12.95402],[32.99742,-12.95406],[32.99768,-12.9541],[32.99795,-12.95415],[32.99818,-12.9542],[32.99831,-12.95424],[32.99842,-12.95427],[32.9985,-12.9543],[32.99881,-12.95435],[32.99949,-12.95445],[32.9998,-12.9545],[33.00004,-12.95455],[33.00012,-12.95457],[33.00031,-12.95463],[33.00043,-12.95468],[33.00049,-12.95471],[33.00056,-12.95472],[33.00058,-12.95471],[33.00075,-12.95471],[33.00143,-12.9548],[33.00214,-12.95488],[33.00275,-12.95496],[33.00565,-12.9552],[33.00582,-12.95522],[33.00592,-12.95523],[33.00603,-12.95525],[33.0067,-12.95528],[33.00688,-12.95527],[33.00698,-12.95525],[33.00707,-12.95523],[33.00714,-12.95522],[33.00726,-12.95523],[33.00775,-12.9553],[33.00782,-12.95532],[33.00789,-12.95534],[33.00806,-12.95537],[33.00851,-12.95543],[33.00921,-12.95555],[33.01007,-12.9557],[33.0101,-12.95571],[33.01018,-12.95575],[33.01122,-12.95725],[33.01157,-12.95778],[33.01182,-12.95811],[33.01299,-12.95944],[33.01308,-12.95962],[33.01311,-12.95978],[33.01309,-12.95991],[33.013,-12.96008],[33.01286,-12.96031],[33.01248,-12.961],[33.01238,-12.96124],[33.01231,-12.96148],[33.01229,-12.96186],[33.01227,-12.96222],[33.0123,-12.96256],[33.01238,-12.96301],[33.01245,-12.96369],[33.01247,-12.96418],[33.0124,-12.96461],[33.0122,-12.96571],[33.0121,-12.96613],[33.01202,-12.96651],[33.01195,-12.96692],[33.01187,-12.96758],[33.01179,-12.96777],[33.01171,-12.96798],[33.01163,-12.96813],[33.01152,-12.96836],[33.01073,-12.96937],[33.01052,-12.96955],[33.01028,-12.96982],[33.01011,-12.97],[33.00994,-12.97022],[33.00961,-12.97059],[33.0093,-12.97091],[33.00921,-12.97104],[33.00911,-12.97116],[33.00903,-12.97122],[33.00887,-12.97144],[33.00868,-12.97166],[33.00855,-12.97182],[33.00826,-12.97219],[33.00819,-12.97228],[33.00815,-12.97238],[33.00805,-12.97266],[33.00793,-12.973],[33.00787,-12.97318],[33.00785,-12.9732],[33.00774,-12.97327],[33.00769,-12.9733],[33.00767,-12.97333],[33.00764,-12.97348],[33.00758,-12.97366],[33.00756,-12.97373],[33.00754,-12.97415],[33.00752,-12.97436],[33.00751,-12.97441],[33.00748,-12.97446],[33.00742,-12.97456],[33.00739,-12.97464],[33.00738,-12.97469],[33.00737,-12.97481],[33.00727,-12.97494],[33.00726,-12.97501],[33.00723,-12.97512],[33.00721,-12.97525],[33.00722,-12.97554],[33.00718,-12.97562],[33.0072,-12.97588],[33.00733,-12.97612],[33.00749,-12.97624],[33.00751,-12.97631],[33.00753,-12.97641],[33.00748,-12.97669],[33.00741,-12.97682],[33.0074,-12.97689],[33.0074,-12.97698],[33.00746,-12.9771],[33.00749,-12.97722],[33.00759,-12.97769],[33.00765,-12.97806],[33.00773,-12.97835],[33.00773,-12.97847],[33.00775,-12.97856],[33.00778,-12.97863],[33.0079,-12.97889],[33.00802,-12.97908],[33.00807,-12.97917],[33.00814,-12.97931],[33.00815,-12.97938],[33.00814,-12.97965],[33.0081,-12.97983],[33.00809,-12.97994],[33.00812,-12.98017],[33.00814,-12.98035],[33.00818,-12.98049],[33.00823,-12.98058],[33.00833,-12.9807],[33.00838,-12.98078],[33.00847,-12.98091],[33.00853,-12.98098],[33.00861,-12.98107],[33.00864,-12.98113],[33.00881,-12.98143],[33.00884,-12.98148],[33.00885,-12.98153],[33.00885,-12.98159],[33.00877,-12.98185],[33.00876,-12.98204],[33.00878,-12.9822],[33.00882,-12.98235],[33.0089,-12.98255],[33.00898,-12.9827],[33.00909,-12.98284],[33.00917,-12.98296],[33.00922,-12.98313],[33.0093,-12.98364],[33.00928,-12.98376],[33.00924,-12.98385],[33.00908,-12.98405],[33.00906,-12.9842],[33.00918,-12.98456],[33.00935,-12.985],[33.00962,-12.98557],[33.00988,-12.98606],[33.00996,-12.98626],[33.01,-12.98647],[33.01003,-12.9866],[33.01007,-12.98674],[33.01085,-12.98834],[33.01103,-12.98864],[33.0111,-12.98886],[33.01114,-12.98906],[33.01115,-12.98913],[33.01115,-12.98933],[33.01113,-12.98944],[33.01108,-12.98959],[33.01085,-12.99009],[33.01063,-12.99074],[33.01044,-12.99127],[33.01026,-12.99166],[33.01011,-12.99194],[33.00994,-12.99222],[33.00973,-12.99247],[33.00956,-12.99276],[33.00942,-12.99302],[33.00912,-12.99337],[33.00883,-12.99368],[33.00854,-12.99399],[33.00833,-12.99425],[33.00804,-12.99455],[33.00783,-12.99474],[33.00756,-12.99503],[33.00729,-12.99533],[33.00654,-12.99622],[33.00643,-12.99633],[33.00632,-12.99638],[33.0062,-12.99646],[33.00566,-12.99692],[33.00551,-12.99702],[33.00544,-12.99706],[33.00529,-12.99709],[33.00495,-12.99715],[33.00478,-12.99723],[33.00454,-12.99733],[33.00439,-12.99744],[33.00423,-12.99761],[33.00401,-12.99796],[33.00379,-12.99833],[33.00348,-12.99886],[33.00323,-12.99923],[33.00311,-12.99944],[33.00298,-12.99967],[33.00276,-13.00006],[33.00251,-13.00041],[33.00229,-13.00071],[33.00218,-13.00086],[33.00203,-13.00108],[33.00189,-13.00126],[33.00159,-13.00168],[33.00138,-13.00195],[33.00126,-13.00211],[33.00113,-13.00229],[33.00093,-13.00257],[33.00083,-13.00269],[33.00072,-13.0028],[33.00045,-13.00298],[33.00024,-13.00321],[33.00019,-13.00328],[33.00014,-13.00332],[33.00009,-13.00338],[33.00004,-13.00342],[32.99989,-13.00348],[32.99974,-13.00353],[32.99965,-13.00357],[32.99952,-13.00361],[32.99942,-13.00364],[32.99934,-13.00364],[32.9985,-13.00356],[32.99835,-13.00356],[32.99823,-13.00356],[32.99808,-13.0036],[32.9975,-13.00365],[32.99709,-13.00368],[32.99622,-13.0037],[32.99595,-13.00372],[32.99568,-13.00376],[32.9954,-13.00379],[32.99522,-13.00382],[32.99501,-13.00384],[32.99479,-13.0039],[32.99464,-13.00394],[32.99444,-13.004],[32.99429,-13.00402],[32.99397,-13.00413],[32.99377,-13.0042],[32.9935,-13.00431],[32.99301,-13.0045],[32.99269,-13.0046],[32.99259,-13.00463],[32.99255,-13.00465],[32.99251,-13.00468],[32.99231,-13.00486],[32.992,-13.00515],[32.9917,-13.00542],[32.99131,-13.00575],[32.99114,-13.00586],[32.99101,-13.00593],[32.99089,-13.00599],[32.99076,-13.00603],[32.99066,-13.00605],[32.99054,-13.00603],[32.9898,-13.00581],[32.98925,-13.00564],[32.98915,-13.0056],[32.98895,-13.00553],[32.98804,-13.00524],[32.98778,-13.00516],[32.98751,-13.00505],[32.98714,-13.00492],[32.9868,-13.00481],[32.98636,-13.00468],[32.98618,-13.0046],[32.98604,-13.00454],[32.98597,-13.00449],[32.98584,-13.00438],[32.9857,-13.00418],[32.9856,-13.00404],[32.98549,-13.00395],[32.98537,-13.00391],[32.98502,-13.00385],[32.98489,-13.00383],[32.98465,-13.00382],[32.98438,-13.00382],[32.98409,-13.00378],[32.98394,-13.00379],[32.98359,-13.0039],[32.98346,-13.00393],[32.98338,-13.00395],[32.98314,-13.00406],[32.98304,-13.0041],[32.98295,-13.00412],[32.98284,-13.00413],[32.98258,-13.00413],[32.98239,-13.00414],[32.98205,-13.00419],[32.98193,-13.00419],[32.98179,-13.00416],[32.9816,-13.00409],[32.98133,-13.00401],[32.98126,-13.004],[32.98105,-13.004],[32.98096,-13.00401],[32.98081,-13.00401],[32.98068,-13.00401],[32.98058,-13.004],[32.97965,-13.00381],[32.97921,-13.0037],[32.9789,-13.00364],[32.97848,-13.0036],[32.97839,-13.00359],[32.97833,-13.00357],[32.97827,-13.00354],[32.97815,-13.0034],[32.97807,-13.0033],[32.97799,-13.00324],[32.97788,-13.0032],[32.97766,-13.00309],[32.97751,-13.00301],[32.97739,-13.00292],[32.97718,-13.00275],[32.97703,-13.00264],[32.97691,-13.00258],[32.97675,-13.00249],[32.97663,-13.0024],[32.97646,-13.00218],[32.97629,-13.00191],[32.97623,-13.0018],[32.97619,-13.00173],[32.97612,-13.00167],[32.97602,-13.00164],[32.97582,-13.00162],[32.97568,-13.00161],[32.97554,-13.0016],[32.97544,-13.00158],[32.97535,-13.00155],[32.97525,-13.00148],[32.97494,-13.00127],[32.97476,-13.00114],[32.97458,-13.00101],[32.97448,-13.00092],[32.97415,-13.00071],[32.97372,-13.00043],[32.97361,-13.00035],[32.97355,-13.0003],[32.97348,-13.00024],[32.97343,-13.00018],[32.97339,-13.00015],[32.97333,-13.00012],[32.9732,-13.00007],[32.97304,-13.00002],[32.97257,-12.99986],[32.9724,-12.99979],[32.97211,-12.99962],[32.97183,-12.99947],[32.9716,-12.9993],[32.97095,-12.99882],[32.97053,-12.99853],[32.97024,-12.99828],[32.97018,-12.99824],[32.97013,-12.99823],[32.97008,-12.99823],[32.96994,-12.99822],[32.96914,-12.99828],[32.96851,-12.99827],[32.96804,-12.99828],[32.96761,-12.99826],[32.96717,-12.99824],[32.96682,-12.99824],[32.96657,-12.99825],[32.96637,-12.99822],[32.96615,-12.99815],[32.96544,-12.99802],[32.96529,-12.998],[32.96516,-12.99801],[32.96504,-12.99804],[32.96479,-12.99811],[32.96428,-12.99822],[32.96402,-12.99827],[32.9636,-12.99832],[32.9633,-12.99833]]},"properties":{"id":657479222,"cls":"track","hw":"track","tg":"none","name":"","ref":"","surface":"","sc":"unknown","speed":null,"lit":"unk","km":15.837}},
{"type":"Feature","geometry":{"type":"LineString","coordinates":[[32.98746,-12.9922],[32.98752,-12.99224],[32.98757,-12.9923],[32.98762,-12.99241],[32.98768,-12.9925],[32.98779,-12.99262],[32.98788,-12.99271],[32.98799,-12.9928],[32.98809,-12.9929],[32.9882,-12.99301],[32.98829,-12.99309],[32.98845,-12.99325],[32.98849,-12.99332],[32.98855,-12.99345],[32.98859,-12.99353],[32.98869,-12.99374],[32.9888,-12.99398],[32.98885,-12.99408],[32.98906,-12.99443],[32.98911,-12.99452],[32.98914,-12.9948],[32.98915,-12.99506],[32.98917,-12.99516],[32.9892,-12.99527],[32.98933,-12.99552],[32.98936,-12.99559],[32.98946,-12.9957],[32.98964,-12.99587],[32.98983,-12.99596],[32.99008,-12.99616],[32.99029,-12.99633],[32.99038,-12.99642],[32.99053,-12.99665],[32.99059,-12.99692],[32.99068,-12.9973],[32.99083,-12.99779],[32.99099,-12.99836],[32.99104,-12.99851],[32.99106,-12.99866],[32.99108,-12.99874],[32.99118,-12.999],[32.99124,-12.99915],[32.9913,-12.99932],[32.99134,-12.99951],[32.99138,-12.99981],[32.99144,-12.99998],[32.99152,-13.00026],[32.99157,-13.00046],[32.99159,-13.00063],[32.99164,-13.00075],[32.99172,-13.00089],[32.99184,-13.00118],[32.9924,-13.00222],[32.99246,-13.00243],[32.99249,-13.00253],[32.9925,-13.00259],[32.99248,-13.00262],[32.99244,-13.00268],[32.99231,-13.00279],[32.99216,-13.00291],[32.99196,-13.00307],[32.99166,-13.00323],[32.9914,-13.00338],[32.99117,-13.00347],[32.99086,-13.00358],[32.99065,-13.00371],[32.99048,-13.00378],[32.99038,-13.00385],[32.99006,-13.00407],[32.98982,-13.00425],[32.98966,-13.00451],[32.98949,-13.00477],[32.98937,-13.00505],[32.98931,-13.00526],[32.98925,-13.00529],[32.98916,-13.00531],[32.98906,-13.00536],[32.98899,-13.00544],[32.98895,-13.00553]]},"properties":{"id":657494532,"cls":"track","hw":"track","tg":"none","name":"","ref":"","surface":"","sc":"unknown","speed":null,"lit":"unk","km":1.842}},
{"type":"Feature","geometry":{"type":"LineString","coordinates":[[32.99108,-12.99874],[32.99157,-12.99864],[32.99198,-12.99857],[32.99223,-12.99852],[32.99244,-12.99848],[32.99267,-12.99847],[32.99297,-12.99845],[32.99318,-12.99846],[32.99335,-12.99849],[32.99348,-12.99854],[32.99361,-12.99859],[32.99374,-12.99862],[32.99389,-12.99868],[32.99402,-12.99871],[32.99411,-12.99874],[32.99417,-12.99879],[32.99423,-12.99883],[32.99437,-12.99892],[32.99451,-12.99902],[32.99462,-12.99906],[32.99472,-12.99907],[32.99489,-12.99913],[32.99492,-12.99913],[32.99496,-12.99911],[32.99514,-12.99891],[32.99516,-12.99889],[32.99519,-12.99888],[32.99523,-12.99888],[32.99554,-12.99893],[32.99586,-12.99898],[32.99615,-12.99904],[32.99638,-12.99908],[32.99688,-12.99915],[32.99692,-12.99916],[32.99697,-12.99913],[32.997,-12.99911],[32.99704,-12.99909],[32.99717,-12.99903],[32.99719,-12.99901],[32.99729,-12.99889],[32.99732,-12.99888],[32.99735,-12.99886],[32.9974,-12.99883],[32.99742,-12.99882],[32.99763,-12.99885],[32.99772,-12.99886],[32.99778,-12.99884],[32.99788,-12.9988],[32.99805,-12.99877],[32.99813,-12.99876],[32.99819,-12.99876],[32.99826,-12.9988],[32.99832,-12.99884],[32.99835,-12.99886],[32.99863,-12.99892],[32.99868,-12.99895],[32.99877,-12.99897],[32.99883,-12.99899],[32.99888,-12.99903],[32.99891,-12.99904],[32.99899,-12.99904],[32.99926,-12.99906],[32.99954,-12.99908],[33.00008,-12.99915],[33.00029,-12.99919],[33.00056,-12.99926],[33.00098,-12.99934],[33.00124,-12.99936],[33.00132,-12.99937],[33.0022,-12.99937],[33.00244,-12.99938],[33.00255,-12.99936],[33.00261,-12.99936],[33.00282,-12.99937],[33.00287,-12.99936],[33.00311,-12.99926],[33.00315,-12.99924],[33.00323,-12.99923]]},"properties":{"id":657526314,"cls":"track","hw":"track","tg":"none","name":"","ref":"","surface":"","sc":"unknown","speed":null,"lit":"unk","km":1.38}},
{"type":"Feature","geometry":{"type":"LineString","coordinates":[[32.98885,-12.99408],[32.98929,-12.99418],[32.98977,-12.99424],[32.99042,-12.99428],[32.99061,-12.99428],[32.99082,-12.99428],[32.99103,-12.99431],[32.9913,-12.99436],[32.99143,-12.99442],[32.99155,-12.99448],[32.99183,-12.99465],[32.99191,-12.99467],[32.99196,-12.99467],[32.99202,-12.99465],[32.99207,-12.99466],[32.99234,-12.99473],[32.9926,-12.99481],[32.993,-12.99487],[32.9931,-12.99486],[32.99323,-12.99481],[32.99329,-12.9948],[32.99337,-12.99479],[32.99354,-12.9948],[32.9937,-12.9948],[32.99413,-12.99482],[32.99453,-12.99486],[32.995,-12.9949],[32.99517,-12.99495],[32.99536,-12.99501],[32.99573,-12.99509],[32.99604,-12.99516],[32.99612,-12.99517],[32.99618,-12.99515],[32.9964,-12.99501],[32.9968,-12.99477],[32.99726,-12.99457],[32.99734,-12.99454],[32.99746,-12.99454],[32.99815,-12.99459],[32.99834,-12.99457],[32.99842,-12.99455],[32.99856,-12.9945],[32.99874,-12.99442],[32.99898,-12.99434],[32.99914,-12.99427],[32.99923,-12.99416],[32.99943,-12.99378],[32.99954,-12.99362],[32.99967,-12.99355],[32.99988,-12.99343],[32.99995,-12.9934],[33.00002,-12.99338],[33.00009,-12.9934],[33.00048,-12.99356],[33.00083,-12.99364],[33.00091,-12.99368],[33.0013,-12.99391],[33.00155,-12.99397],[33.00246,-12.99396],[33.00284,-12.99393],[33.00347,-12.99389],[33.00395,-12.99388],[33.00443,-12.99392],[33.0046,-12.99394],[33.00481,-12.99406],[33.00506,-12.99428],[33.0054,-12.99442],[33.00568,-12.99452],[33.00626,-12.99458],[33.0064,-12.99458],[33.00652,-12.99462],[33.00668,-12.99467],[33.00728,-12.99471],[33.00783,-12.99474]]},"properties":{"id":657526315,"cls":"track","hw":"track","tg":"none","name":"","ref":"","surface":"","sc":"unknown","speed":null,"lit":"unk","km":2.184}},
{"type":"Feature","geometry":{"type":"LineString","coordinates":[[32.99561,-12.98549],[32.99594,-12.98555],[32.99625,-12.98562],[32.99652,-12.98568],[32.99685,-12.98576],[32.99711,-12.98582],[32.99717,-12.98584],[32.99723,-12.98587],[32.99746,-12.98597],[32.99783,-12.98611],[32.99852,-12.98624],[32.99879,-12.9863],[32.99903,-12.98634],[32.99925,-12.98637],[32.99944,-12.98637],[32.99951,-12.98638],[32.99974,-12.98645],[32.99989,-12.98653],[33.00035,-12.98684],[33.00048,-12.9869],[33.00061,-12.98696],[33.00069,-12.98702],[33.00078,-12.98712],[33.00085,-12.98718],[33.00093,-12.98727],[33.00102,-12.98741],[33.00113,-12.98763],[33.00122,-12.98783],[33.00132,-12.98802],[33.00145,-12.98816],[33.00174,-12.98833],[33.00204,-12.9885],[33.00231,-12.98861],[33.00268,-12.98871],[33.00289,-12.98877],[33.00298,-12.98877],[33.00317,-12.98877],[33.00374,-12.98882],[33.00385,-12.98884],[33.00406,-12.98891],[33.00447,-12.98901],[33.00481,-12.98905],[33.00538,-12.98912],[33.00659,-12.9892],[33.00669,-12.98919],[33.00682,-12.98915],[33.00708,-12.98905],[33.00731,-12.98897],[33.00743,-12.98896],[33.00775,-12.98891],[33.00799,-12.98891],[33.00828,-12.98894],[33.00868,-12.98898],[33.00889,-12.98902],[33.00985,-12.98924],[33.00997,-12.98925],[33.01013,-12.98923],[33.01023,-12.98922],[33.01051,-12.98916],[33.01075,-12.98909],[33.01084,-12.98907],[33.01096,-12.98908],[33.01115,-12.98913]]},"properties":{"id":657526316,"cls":"track","hw":"track","tg":"none","name":"","ref":"","surface":"","sc":"unknown","speed":null,"lit":"unk","km":1.818}},
{"type":"Feature","geometry":{"type":"LineString","coordinates":[[32.99954,-12.94464],[32.99952,-12.94443],[32.99949,-12.94422],[32.99948,-12.94398],[32.99951,-12.94376],[32.99953,-12.94365],[32.99956,-12.94353],[32.99956,-12.94346],[32.99951,-12.94341],[32.99944,-12.94333],[32.9994,-12.94325],[32.99938,-12.94315],[32.99932,-12.94289],[32.99925,-12.94262],[32.99923,-12.94253],[32.99919,-12.94247],[32.99911,-12.94237],[32.99901,-12.94219],[32.99894,-12.94202],[32.99884,-12.94187],[32.99875,-12.94172],[32.99863,-12.94161],[32.9985,-12.94149],[32.99839,-12.94129],[32.99812,-12.94077],[32.99811,-12.94071],[32.9981,-12.94064],[32.99812,-12.94057],[32.99825,-12.94017],[32.99845,-12.93981],[32.99867,-12.93948],[32.99875,-12.93937],[32.99884,-12.93928],[32.99904,-12.93917],[32.9993,-12.93903],[32.99952,-12.93883],[32.99965,-12.93866],[32.99973,-12.93859],[32.99999,-12.93836],[33.00029,-12.93805],[33.00053,-12.93783],[33.00088,-12.93758],[33.001,-12.9375],[33.00118,-12.93743],[33.00136,-12.93741],[33.00223,-12.9372],[33.00268,-12.93706],[33.00337,-12.9368],[33.00381,-12.93666],[33.00386,-12.93663],[33.0039,-12.93659],[33.004,-12.93648],[33.00409,-12.9364],[33.00428,-12.93622],[33.00431,-12.93616],[33.00431,-12.93612],[33.00427,-12.93598],[33.00424,-12.93581],[33.00421,-12.93566],[33.00418,-12.93555],[33.00409,-12.93529],[33.00406,-12.93517],[33.00405,-12.93506],[33.00405,-12.93476],[33.00408,-12.93434],[33.00409,-12.93399],[33.0041,-12.93395],[33.00414,-12.9339],[33.00418,-12.93385],[33.00421,-12.93379],[33.00423,-12.9337],[33.00425,-12.93355],[33.00424,-12.93349],[33.0042,-12.9334],[33.00416,-12.93326],[33.00412,-12.93314],[33.00407,-12.93287],[33.00398,-12.93258],[33.00392,-12.93234],[33.0039,-12.93215],[33.00391,-12.93207],[33.00393,-12.932],[33.0041,-12.9315],[33.00425,-12.93096],[33.00431,-12.93073],[33.00433,-12.93037],[33.00434,-12.92996],[33.00437,-12.92973],[33.00445,-12.9294],[33.00462,-12.92873],[33.00492,-12.92703],[33.00501,-12.92662],[33.00511,-12.92607],[33.00515,-12.92588],[33.00526,-12.92566],[33.00529,-12.92557],[33.0053,-12.92547],[33.00512,-12.92444],[33.00504,-12.92398],[33.00501,-12.9237],[33.00496,-12.92313],[33.00497,-12.92311]]},"properties":{"id":658027825,"cls":"track","hw":"track","tg":"none","name":"","ref":"","surface":"","sc":"unknown","speed":null,"lit":"unk","km":2.855}},
{"type":"Feature","geometry":{"type":"LineString","coordinates":[[32.91111,-12.81457],[32.91121,-12.81447],[32.91129,-12.81438],[32.91134,-12.81429],[32.91136,-12.81426],[32.91138,-12.81424],[32.91142,-12.81424],[32.91148,-12.81424],[32.91155,-12.81424],[32.9116,-12.81423],[32.91164,-12.8142],[32.91171,-12.81411],[32.91184,-12.81394],[32.91203,-12.81366],[32.91222,-12.81337],[32.91232,-12.81319],[32.91241,-12.81306],[32.91252,-12.81298],[32.91272,-12.81287],[32.91301,-12.81265],[32.91341,-12.81238],[32.91352,-12.81227],[32.91361,-12.81216],[32.9137,-12.81206],[32.91381,-12.81198],[32.91425,-12.81168],[32.91445,-12.81155],[32.91462,-12.81147],[32.91477,-12.81134],[32.9149,-12.81125],[32.91538,-12.81083],[32.91581,-12.81063],[32.91622,-12.81039],[32.91643,-12.81017],[32.91668,-12.80976],[32.91681,-12.80949],[32.91696,-12.80925],[32.91737,-12.80875],[32.91746,-12.80861],[32.91754,-12.80853],[32.91763,-12.80849],[32.91815,-12.80829],[32.91863,-12.80808],[32.91902,-12.80797],[32.91937,-12.80782],[32.91958,-12.80773],[32.91997,-12.80762],[32.92055,-12.80742],[32.92091,-12.80732],[32.92107,-12.80729],[32.92122,-12.80727],[32.92137,-12.80729],[32.92187,-12.80733],[32.92223,-12.8073],[32.9228,-12.8073],[32.92352,-12.80728],[32.92375,-12.80729],[32.92383,-12.80728],[32.9241,-12.80721],[32.92431,-12.80713],[32.92449,-12.80707],[32.92465,-12.80705],[32.92481,-12.80704],[32.92502,-12.80707],[32.92529,-12.80712],[32.92576,-12.80722],[32.92621,-12.80727],[32.92639,-12.80725],[32.92657,-12.80726],[32.92669,-12.80725],[32.9269,-12.80723],[32.92729,-12.80712],[32.9278,-12.807],[32.92801,-12.80688],[32.92853,-12.80654],[32.92887,-12.80633],[32.92906,-12.80624],[32.92918,-12.80619],[32.92936,-12.80616],[32.92949,-12.80616],[32.92959,-12.80613],[32.92971,-12.80607],[32.92977,-12.80601],[32.92985,-12.80586],[32.92995,-12.80569],[32.93015,-12.80544],[32.93039,-12.80513],[32.93065,-12.80476],[32.93083,-12.80451],[32.93078,-12.80447],[32.93086,-12.80446],[32.9309,-12.80436],[32.93096,-12.80419],[32.93105,-12.80378],[32.93115,-12.80353],[32.93124,-12.80324],[32.93143,-12.80267],[32.93168,-12.80201],[32.93185,-12.80156],[32.932,-12.80111],[32.93226,-12.80041],[32.93242,-12.79999],[32.93256,-12.79953],[32.93271,-12.79911],[32.93284,-12.79886],[32.933,-12.79854]]},"properties":{"id":686613451,"cls":"track","hw":"track","tg":"none","name":"","ref":"","surface":"","sc":"unknown","speed":null,"lit":"unk","km":3.303}},
{"type":"Feature","geometry":{"type":"LineString","coordinates":[[32.98999,-12.90793],[32.99053,-12.90763],[32.99096,-12.90718],[32.99108,-12.90704],[32.99126,-12.90681],[32.99159,-12.90596],[32.9919,-12.90461],[32.99221,-12.90338],[32.99247,-12.90207],[32.99282,-12.90027],[32.993,-12.89964],[32.9931,-12.89914],[32.99318,-12.8987],[32.99336,-12.89788],[32.9935,-12.8972],[32.99363,-12.89668],[32.99376,-12.89609],[32.99391,-12.89533],[32.99405,-12.89474],[32.99413,-12.89436],[32.99414,-12.89432],[32.99425,-12.89385],[32.99439,-12.89315],[32.99447,-12.89281],[32.99454,-12.89251],[32.99461,-12.8923],[32.99472,-12.89211],[32.99498,-12.89178],[32.9953,-12.89143],[32.99601,-12.89064],[32.99659,-12.89003],[32.99676,-12.88984],[32.99684,-12.88978],[32.99686,-12.88975],[32.99687,-12.8897],[32.99687,-12.88964],[32.99686,-12.88962],[32.99684,-12.88957],[32.9968,-12.8895],[32.99676,-12.88944],[32.99675,-12.88941],[32.99672,-12.88938],[32.99667,-12.88934],[32.99663,-12.88932],[32.99658,-12.88929],[32.99652,-12.88927],[32.99645,-12.88929]]},"properties":{"id":686614579,"cls":"unclassified","hw":"unclassified","tg":"na","name":"","ref":"","surface":"unpaved","sc":"unpaved","speed":null,"lit":"unk","km":2.297}},
{"type":"Feature","geometry":{"type":"LineString","coordinates":[[32.9589,-12.89342],[32.95926,-12.89335],[32.95945,-12.89331],[32.95968,-12.89327],[32.95983,-12.89323],[32.95998,-12.89323],[32.96022,-12.89321],[32.96041,-12.89318],[32.96074,-12.89312],[32.96134,-12.89305],[32.96173,-12.893],[32.96223,-12.89295],[32.96255,-12.8929],[32.96291,-12.89284],[32.96332,-12.89278],[32.96397,-12.89269],[32.9643,-12.89263],[32.96466,-12.8926],[32.9649,-12.89257],[32.9652,-12.89252],[32.96619,-12.89239],[32.96661,-12.89235],[32.96709,-12.89226],[32.96784,-12.89217],[32.96826,-12.89211],[32.96842,-12.89207],[32.96857,-12.89205],[32.96892,-12.89202],[32.96928,-12.89197],[32.96976,-12.89189],[32.96996,-12.89185],[32.97008,-12.89183],[32.97018,-12.89183],[32.97039,-12.89183],[32.97062,-12.89181],[32.9708,-12.89177],[32.97101,-12.89174],[32.97116,-12.89172],[32.9713,-12.89168],[32.97134,-12.89168],[32.97146,-12.89167],[32.97166,-12.89167],[32.97191,-12.89162],[32.97221,-12.89158],[32.97251,-12.89155],[32.97281,-12.89151],[32.97325,-12.89146],[32.97356,-12.8914],[32.97378,-12.89138],[32.97393,-12.89135],[32.97404,-12.89134],[32.97421,-12.89132],[32.97441,-12.89127],[32.97448,-12.89124],[32.97454,-12.89123],[32.97463,-12.89123],[32.97484,-12.89123],[32.97512,-12.89121],[32.97533,-12.89117],[32.97556,-12.89113],[32.97615,-12.89106],[32.97632,-12.89105],[32.9767,-12.89106],[32.97692,-12.89109],[32.97723,-12.89115],[32.97754,-12.89121],[32.97807,-12.8913],[32.97858,-12.89139],[32.97891,-12.89146],[32.97945,-12.89156],[32.97993,-12.89164],[32.98026,-12.8917],[32.98052,-12.89175],[32.98099,-12.89185],[32.98146,-12.89192],[32.98217,-12.89205],[32.98245,-12.8921],[32.98308,-12.89222],[32.98333,-12.89226],[32.98364,-12.89231],[32.98409,-12.8924],[32.98457,-12.89249],[32.98477,-12.89251],[32.98498,-12.89256],[32.98521,-12.89261],[32.98584,-12.89272],[32.98634,-12.89282],[32.98675,-12.89288],[32.98754,-12.89305],[32.98794,-12.89309],[32.98821,-12.89306],[32.98847,-12.893],[32.98868,-12.8929],[32.98916,-12.89267],[32.99052,-12.89204],[32.99171,-12.89149],[32.99245,-12.89114],[32.99316,-12.89081],[32.99448,-12.89018],[32.99497,-12.88994],[32.9957,-12.88961],[32.99615,-12.8894],[32.99645,-12.88929]]},"properties":{"id":686614580,"cls":"unclassified","hw":"unclassified","tg":"na","name":"","ref":"","surface":"unpaved","sc":"unpaved","speed":null,"lit":"unk","km":4.207}},
{"type":"Feature","geometry":{"type":"LineString","coordinates":[[32.93288,-12.8031],[32.93341,-12.80298],[32.93391,-12.80286],[32.93408,-12.80279],[32.93424,-12.80273],[32.93435,-12.8027],[32.93465,-12.80268],[32.93488,-12.8027],[32.93524,-12.80277],[32.93545,-12.80281],[32.93565,-12.80288],[32.93592,-12.803],[32.9362,-12.8031],[32.93628,-12.80314],[32.93633,-12.80315],[32.93641,-12.80317],[32.9365,-12.80321],[32.93702,-12.80334],[32.93728,-12.8034],[32.93737,-12.80342],[32.93789,-12.80345],[32.93807,-12.80345],[32.93837,-12.8034]]},"properties":{"id":686618755,"cls":"track","hw":"track","tg":"none","name":"","ref":"","surface":"","sc":"unknown","speed":null,"lit":"unk","km":0.615}},
{"type":"Feature","geometry":{"type":"LineString","coordinates":[[32.93278,-12.80328],[32.93288,-12.8031],[32.93313,-12.80272],[32.93319,-12.80262],[32.93322,-12.80257],[32.93322,-12.80253],[32.93324,-12.80244],[32.93326,-12.80231],[32.93327,-12.80212],[32.93332,-12.80187],[32.93335,-12.80159],[32.93335,-12.80149],[32.93334,-12.80141],[32.93333,-12.80129],[32.93334,-12.80115],[32.9334,-12.80089],[32.93343,-12.8008],[32.93345,-12.80074],[32.93347,-12.80066],[32.93351,-12.80046],[32.93358,-12.8002],[32.93368,-12.79983],[32.93372,-12.79966],[32.93383,-12.79939],[32.93393,-12.79928],[32.93398,-12.79916],[32.93398,-12.79892],[32.93397,-12.79841]]},"properties":{"id":686618757,"cls":"unclassified","hw":"unclassified","tg":"na","name":"","ref":"","surface":"unpaved","sc":"unpaved","speed":null,"lit":"unk","km":0.569}},
{"type":"Feature","geometry":{"type":"LineString","coordinates":[[32.9388,-12.80367],[32.93865,-12.80363],[32.93853,-12.8036],[32.93842,-12.80353]]},"properties":{"id":686618760,"cls":"track","hw":"track","tg":"none","name":"","ref":"","surface":"","sc":"unknown","speed":null,"lit":"unk","km":0.045}},
{"type":"Feature","geometry":{"type":"LineString","coordinates":[[32.94208,-12.81245],[32.94235,-12.8124]]},"properties":{"id":686618762,"cls":"track","hw":"track","tg":"none","name":"","ref":"","surface":"","sc":"unknown","speed":null,"lit":"unk","km":0.03}},
{"type":"Feature","geometry":{"type":"LineString","coordinates":[[32.94112,-12.82138],[32.94063,-12.82129]]},"properties":{"id":686618763,"cls":"track","hw":"track","tg":"none","name":"","ref":"","surface":"","sc":"unknown","speed":null,"lit":"unk","km":0.054}},
{"type":"Feature","geometry":{"type":"LineString","coordinates":[[32.93993,-12.82612],[32.94031,-12.82616]]},"properties":{"id":686618764,"cls":"track","hw":"track","tg":"none","name":"","ref":"","surface":"","sc":"unknown","speed":null,"lit":"unk","km":0.041}},
{"type":"Feature","geometry":{"type":"LineString","coordinates":[[32.93938,-12.83283],[32.93949,-12.83283]]},"properties":{"id":686618766,"cls":"track","hw":"track","tg":"none","name":"","ref":"","surface":"","sc":"unknown","speed":null,"lit":"unk","km":0.012}},
{"type":"Feature","geometry":{"type":"LineString","coordinates":[[32.93579,-12.79788],[32.93594,-12.79825],[32.93609,-12.79865],[32.93638,-12.79927],[32.93662,-12.79975],[32.93696,-12.80052],[32.93717,-12.80094],[32.93752,-12.80157],[32.93771,-12.80194],[32.93783,-12.80217],[32.93805,-12.80266],[32.93818,-12.80295],[32.93823,-12.80308],[32.93837,-12.8034],[32.93842,-12.80353],[32.93856,-12.80384],[32.93888,-12.80466],[32.93919,-12.80552],[32.93949,-12.80621],[32.93998,-12.80731],[32.94056,-12.80857],[32.94097,-12.80948],[32.94119,-12.80996],[32.94128,-12.8102],[32.94138,-12.81048],[32.94148,-12.81071],[32.94157,-12.81087],[32.94163,-12.81099],[32.94171,-12.81121],[32.94178,-12.81147],[32.94189,-12.8118],[32.9419,-12.81184],[32.94201,-12.81222],[32.94208,-12.81245],[32.9421,-12.81256],[32.94212,-12.81278],[32.94211,-12.81309],[32.94206,-12.81376],[32.94201,-12.81409],[32.94197,-12.81439],[32.94187,-12.81495],[32.94183,-12.8152],[32.94173,-12.81586],[32.94168,-12.81621],[32.94165,-12.8164],[32.94156,-12.817],[32.94147,-12.81732],[32.94136,-12.81772],[32.94132,-12.81784],[32.94131,-12.81794],[32.94128,-12.81815],[32.9412,-12.81856],[32.94115,-12.81897],[32.94104,-12.81957],[32.94095,-12.81997],[32.94084,-12.82059],[32.94069,-12.82102],[32.94063,-12.82129],[32.9406,-12.82159],[32.94042,-12.82279],[32.94038,-12.82346],[32.94031,-12.82383],[32.94023,-12.82436],[32.94016,-12.8248],[32.94003,-12.82581],[32.93993,-12.82612],[32.93988,-12.82656],[32.9399,-12.82672],[32.9399,-12.82702],[32.93983,-12.82732],[32.9398,-12.82757],[32.93976,-12.82782],[32.93968,-12.82846],[32.93965,-12.82895],[32.9396,-12.82937],[32.93959,-12.8296],[32.93963,-12.82971],[32.93967,-12.82982],[32.93965,-12.82993],[32.93961,-12.83006],[32.93951,-12.83022],[32.93944,-12.8304],[32.93941,-12.83053],[32.9393,-12.83138],[32.93923,-12.83191],[32.93925,-12.83215],[32.93926,-12.83228],[32.9393,-12.83237],[32.93935,-12.83246],[32.93939,-12.83265],[32.93938,-12.83283],[32.93948,-12.83344],[32.93949,-12.83354],[32.93952,-12.83371],[32.93952,-12.83372],[32.93953,-12.83373],[32.93955,-12.83373],[32.93962,-12.83375]]},"properties":{"id":686618768,"cls":"track","hw":"track","tg":"none","name":"","ref":"","surface":"","sc":"unknown","speed":null,"lit":"unk","km":4.174}},
{"type":"Feature","geometry":{"type":"LineString","coordinates":[[32.94067,-12.83783],[32.94073,-12.83758],[32.9408,-12.83744],[32.94085,-12.83737],[32.94089,-12.83732],[32.94094,-12.8373],[32.94107,-12.83729],[32.94127,-12.83727],[32.94139,-12.83729],[32.94161,-12.83733],[32.94172,-12.83736],[32.94181,-12.83737],[32.94197,-12.83734],[32.94217,-12.83724],[32.94238,-12.83704],[32.94247,-12.83695],[32.94267,-12.83677],[32.94279,-12.83667],[32.94294,-12.83653],[32.94328,-12.83624],[32.94356,-12.83597],[32.94371,-12.83578],[32.94387,-12.83554],[32.94398,-12.83543],[32.94429,-12.83513],[32.94444,-12.83502],[32.9445,-12.83501],[32.94467,-12.835]]},"properties":{"id":686622265,"cls":"track","hw":"track","tg":"none","name":"","ref":"","surface":"","sc":"unknown","speed":null,"lit":"unk","km":0.581}},
{"type":"Feature","geometry":{"type":"LineString","coordinates":[[32.94103,-12.83922],[32.9407,-12.83926]]},"properties":{"id":686622269,"cls":"track","hw":"track","tg":"none","name":"","ref":"","surface":"","sc":"unknown","speed":null,"lit":"unk","km":0.036}},
{"type":"Feature","geometry":{"type":"LineString","coordinates":[[32.94031,-12.83733],[32.94054,-12.83753],[32.94059,-12.83762],[32.94067,-12.83783],[32.94077,-12.83828],[32.94091,-12.83872],[32.94103,-12.83922],[32.94112,-12.83953],[32.94121,-12.83971],[32.94131,-12.84004],[32.94154,-12.84093],[32.94169,-12.84137],[32.9418,-12.84195],[32.94191,-12.84251],[32.942,-12.84303],[32.94212,-12.84367],[32.94221,-12.844],[32.94235,-12.84474],[32.94246,-12.84528],[32.94252,-12.84564],[32.94257,-12.84597],[32.94259,-12.84622],[32.9426,-12.84639],[32.94261,-12.8466],[32.9426,-12.84665],[32.94259,-12.84668],[32.94258,-12.84671],[32.94255,-12.84673],[32.94216,-12.84677]]},"properties":{"id":686622271,"cls":"track","hw":"track","tg":"none","name":"","ref":"","surface":"","sc":"unknown","speed":null,"lit":"unk","km":1.129}},
{"type":"Feature","geometry":{"type":"LineString","coordinates":[[32.93278,-12.7804],[32.93288,-12.78045],[32.93293,-12.7805]]},"properties":{"id":687267692,"cls":"track","hw":"track","tg":"none","name":"","ref":"","surface":"","sc":"unknown","speed":null,"lit":"unk","km":0.02}},
{"type":"Feature","geometry":{"type":"LineString","coordinates":[[32.99919,-12.9778],[32.99905,-12.97781],[32.99898,-12.97781],[32.99893,-12.9778],[32.9988,-12.97779],[32.99853,-12.97774],[32.99783,-12.97763],[32.99744,-12.97756],[32.9972,-12.97754],[32.99689,-12.97749],[32.99637,-12.97742],[32.99595,-12.9774],[32.99549,-12.97737],[32.99489,-12.97734],[32.9942,-12.97732],[32.99357,-12.97728],[32.99315,-12.97727],[32.99295,-12.97723],[32.99265,-12.97718],[32.99215,-12.97702],[32.99188,-12.97695],[32.9918,-12.97694],[32.9917,-12.97699],[32.99152,-12.97707],[32.99146,-12.97711],[32.99139,-12.97715],[32.99132,-12.97718],[32.99125,-12.97718],[32.99114,-12.97715],[32.99095,-12.97712],[32.9907,-12.97709],[32.99053,-12.97707],[32.99045,-12.97704],[32.99039,-12.97704],[32.99034,-12.97706],[32.99028,-12.97708],[32.99,-12.97714],[32.98988,-12.97716],[32.98972,-12.97713],[32.98952,-12.97711],[32.98935,-12.9771],[32.98916,-12.97711],[32.98899,-12.97714],[32.98889,-12.97717],[32.98881,-12.97721],[32.98862,-12.97734],[32.98851,-12.97742],[32.98841,-12.97752],[32.98825,-12.97761],[32.98812,-12.97769],[32.988,-12.9778],[32.98794,-12.97789],[32.98788,-12.97798],[32.98782,-12.97806],[32.98777,-12.97812],[32.98769,-12.97816],[32.98757,-12.9782],[32.98751,-12.97824],[32.98745,-12.97829],[32.98733,-12.97836],[32.98725,-12.97842],[32.98714,-12.97852],[32.98698,-12.97863],[32.98687,-12.97871],[32.98675,-12.97876],[32.98656,-12.97883],[32.98638,-12.97886],[32.98623,-12.97888],[32.98614,-12.9789],[32.98605,-12.97892],[32.98595,-12.97897],[32.98584,-12.97904],[32.98578,-12.97911],[32.98569,-12.97916],[32.98565,-12.97917],[32.98552,-12.97922],[32.98539,-12.97929],[32.98527,-12.97935],[32.9852,-12.97936],[32.98511,-12.97939],[32.98493,-12.97943],[32.98484,-12.97946],[32.98476,-12.97948],[32.98468,-12.97952],[32.98461,-12.97959],[32.98447,-12.9797],[32.98431,-12.97982],[32.98422,-12.97991],[32.98412,-12.98002],[32.98406,-12.9801],[32.98397,-12.98024],[32.98391,-12.98035],[32.98381,-12.98053],[32.98378,-12.98056],[32.98374,-12.98059],[32.98366,-12.98065],[32.98351,-12.98084],[32.98333,-12.98105],[32.9832,-12.98128],[32.98315,-12.98136],[32.98311,-12.98139],[32.98306,-12.98143],[32.98301,-12.98148],[32.98294,-12.98156],[32.9828,-12.98173],[32.98273,-12.98183],[32.98268,-12.98189],[32.98261,-12.98193],[32.98253,-12.98198],[32.98242,-12.98201],[32.98226,-12.98205],[32.98215,-12.98208],[32.98204,-12.98214],[32.98194,-12.9822],[32.98186,-12.98223],[32.98177,-12.98225],[32.98162,-12.98225],[32.98145,-12.98227],[32.98135,-12.98228],[32.98121,-12.98231],[32.98105,-12.98235],[32.98088,-12.98238],[32.98071,-12.9824],[32.9806,-12.98242],[32.98018,-12.98253],[32.97992,-12.98261],[32.97975,-12.98266],[32.9796,-12.98267],[32.97937,-12.98267],[32.97916,-12.98269],[32.9789,-12.98273],[32.97868,-12.98275],[32.97859,-12.98277],[32.97851,-12.9828],[32.97842,-12.98284],[32.97826,-12.98291],[32.97804,-12.98297],[32.97764,-12.9831],[32.97741,-12.98317],[32.97733,-12.98319],[32.97727,-12.98322],[32.97719,-12.98327],[32.97713,-12.98331],[32.97706,-12.98333],[32.97692,-12.98336],[32.97658,-12.98348],[32.9763,-12.98358],[32.97591,-12.98375],[32.97547,-12.98396],[32.97528,-12.98405],[32.97517,-12.98412],[32.97508,-12.98418],[32.97495,-12.98432],[32.97475,-12.98451],[32.97438,-12.98485],[32.97409,-12.98511],[32.9738,-12.98531],[32.97365,-12.98539],[32.97357,-12.98543],[32.97351,-12.98549],[32.97342,-12.98557],[32.97333,-12.98562],[32.97321,-12.98567],[32.97311,-12.98571],[32.97303,-12.98577],[32.97296,-12.9858],[32.97289,-12.98583],[32.97282,-12.98586],[32.97276,-12.98587],[32.97271,-12.98588],[32.97268,-12.9859],[32.97265,-12.98593],[32.97255,-12.98604],[32.97238,-12.98615],[32.97201,-12.98639],[32.97165,-12.98658],[32.97146,-12.98671],[32.97131,-12.98679],[32.97118,-12.98685],[32.97103,-12.98692],[32.97083,-12.98706],[32.97063,-12.98719],[32.97053,-12.98726],[32.97045,-12.98732],[32.97039,-12.9874],[32.97034,-12.98747],[32.9703,-12.98757],[32.97027,-12.98769],[32.97023,-12.98777],[32.97021,-12.98782],[32.97018,-12.98789],[32.97014,-12.98793],[32.97002,-12.988],[32.96978,-12.98815],[32.96958,-12.98828],[32.96946,-12.98838],[32.96939,-12.98847],[32.96935,-12.98853],[32.96929,-12.98856],[32.96922,-12.98859],[32.96915,-12.98863],[32.96906,-12.9887],[32.969,-12.98873],[32.96888,-12.98877],[32.96879,-12.98879],[32.96876,-12.98879],[32.96874,-12.9888],[32.96872,-12.98883],[32.96871,-12.98885],[32.96868,-12.98893],[32.96863,-12.98914],[32.96853,-12.98954],[32.96849,-12.98975],[32.96848,-12.98981],[32.96851,-12.98992],[32.96855,-12.99001],[32.96859,-12.99014],[32.9686,-12.99022],[32.9686,-12.99036],[32.96861,-12.99045],[32.96863,-12.9906],[32.96869,-12.99079],[32.96872,-12.99089],[32.96873,-12.99095],[32.96872,-12.99102],[32.96871,-12.99107]]},"properties":{"id":687322063,"cls":"track","hw":"track","tg":"none","name":"","ref":"","surface":"","sc":"unknown","speed":null,"lit":"unk","km":4.029}},
{"type":"Feature","geometry":{"type":"LineString","coordinates":[[32.92541,-12.69529],[32.92545,-12.69533],[32.92551,-12.69539],[32.92562,-12.69548],[32.92567,-12.69551],[32.92571,-12.69554],[32.92591,-12.69572],[32.92597,-12.69578],[32.92602,-12.69583],[32.92611,-12.69592],[32.92615,-12.69596],[32.92619,-12.69601],[32.92633,-12.69616],[32.92636,-12.69621],[32.92639,-12.69626],[32.92648,-12.69641],[32.92652,-12.69647],[32.92659,-12.69653],[32.92669,-12.69663],[32.92674,-12.69668],[32.92679,-12.69672],[32.92688,-12.69679],[32.92691,-12.69682],[32.92695,-12.69688],[32.927,-12.697],[32.92705,-12.69709],[32.92712,-12.69716],[32.92727,-12.69727],[32.92733,-12.69732],[32.92741,-12.69738],[32.92756,-12.69749],[32.92768,-12.69756],[32.92784,-12.69765],[32.92819,-12.69789],[32.9283,-12.69795],[32.92844,-12.69802],[32.92859,-12.69809],[32.92867,-12.69812],[32.92879,-12.69817],[32.92898,-12.69824],[32.92907,-12.69829],[32.92919,-12.69839],[32.92937,-12.69856],[32.92945,-12.69865],[32.92957,-12.69878],[32.92969,-12.6989],[32.92978,-12.69898],[32.92993,-12.69907],[32.93017,-12.6992],[32.93029,-12.69924],[32.93039,-12.69927],[32.93058,-12.69931],[32.93069,-12.69934],[32.93075,-12.69938],[32.9309,-12.69958],[32.93094,-12.69962],[32.93102,-12.69973],[32.93121,-12.69995],[32.93126,-12.70002],[32.93132,-12.70009],[32.93147,-12.70027],[32.9315,-12.70031],[32.93154,-12.70036],[32.93161,-12.70045],[32.93165,-12.70048],[32.93168,-12.70052],[32.93175,-12.70061],[32.93178,-12.70063],[32.93182,-12.70068],[32.93187,-12.70074],[32.9319,-12.70077],[32.93193,-12.7008],[32.932,-12.7009],[32.93202,-12.70093],[32.93206,-12.70099],[32.93215,-12.70109],[32.93218,-12.70111],[32.9322,-12.70114],[32.93228,-12.70125],[32.9323,-12.70129],[32.93233,-12.70132],[32.93236,-12.70135],[32.93242,-12.70144],[32.93245,-12.70147],[32.93249,-12.70152],[32.93261,-12.70165],[32.93266,-12.70171],[32.93271,-12.70179],[32.93278,-12.70186],[32.93285,-12.70194],[32.93289,-12.70198],[32.93293,-12.70204],[32.93303,-12.70214],[32.93307,-12.70219],[32.93314,-12.70229],[32.93326,-12.70243],[32.93333,-12.7025],[32.93338,-12.70257],[32.93353,-12.70276],[32.93357,-12.70281],[32.93362,-12.70288],[32.93371,-12.70305],[32.93376,-12.70311],[32.93381,-12.70317],[32.93398,-12.70345],[32.93406,-12.7036],[32.93415,-12.70375],[32.93425,-12.70392],[32.9343,-12.70407],[32.93436,-12.70421],[32.93442,-12.70446],[32.93452,-12.70477],[32.93456,-12.70489],[32.93461,-12.70505],[32.93467,-12.70525],[32.93471,-12.70538],[32.93474,-12.70546],[32.93479,-12.70565],[32.93482,-12.70583],[32.93493,-12.7063],[32.93496,-12.70644],[32.93505,-12.70704],[32.93509,-12.70714],[32.93512,-12.70727],[32.93516,-12.70748],[32.93517,-12.70756],[32.93516,-12.70767],[32.93513,-12.70782],[32.93512,-12.70789],[32.9351,-12.70803],[32.93507,-12.70827],[32.93505,-12.70835],[32.93504,-12.70844],[32.93502,-12.70867],[32.935,-12.70873],[32.93498,-12.70882],[32.93493,-12.70901],[32.93492,-12.70909],[32.9349,-12.70918],[32.93486,-12.70927],[32.93483,-12.70944],[32.93484,-12.70949],[32.93486,-12.70957],[32.93493,-12.70977],[32.93495,-12.70982],[32.93497,-12.70988],[32.93506,-12.71008],[32.93511,-12.71021],[32.93518,-12.71035],[32.93527,-12.71054],[32.93533,-12.71061],[32.93539,-12.71066],[32.93549,-12.71071],[32.93554,-12.71075],[32.93558,-12.71082],[32.93571,-12.71106],[32.93575,-12.71113],[32.93578,-12.7112],[32.93585,-12.71134],[32.93589,-12.71141],[32.93591,-12.71149],[32.93593,-12.71153],[32.93593,-12.71157],[32.93591,-12.71168],[32.9359,-12.71175],[32.93584,-12.71199],[32.93582,-12.71205],[32.93582,-12.71212],[32.93582,-12.71224],[32.93581,-12.71231],[32.9358,-12.71237],[32.93578,-12.71251],[32.93576,-12.7126],[32.93575,-12.71269],[32.93575,-12.71282],[32.93576,-12.71292],[32.93577,-12.71303],[32.93578,-12.7132],[32.93578,-12.71329],[32.93578,-12.71336],[32.93578,-12.71349],[32.93576,-12.71359],[32.93577,-12.71368],[32.93579,-12.71391],[32.93579,-12.71399],[32.9358,-12.71412],[32.93581,-12.71429],[32.93581,-12.71435],[32.93582,-12.71443],[32.93586,-12.71453],[32.93588,-12.7146],[32.9359,-12.71469],[32.93591,-12.71479],[32.93593,-12.71488],[32.93596,-12.71496],[32.93602,-12.71512],[32.93602,-12.71524],[32.936,-12.71531],[32.93599,-12.71538],[32.936,-12.7155],[32.93602,-12.71554],[32.93607,-12.71561],[32.9361,-12.71573],[32.93611,-12.7158],[32.93612,-12.71588],[32.93613,-12.71598],[32.93615,-12.71603],[32.93621,-12.71608],[32.93632,-12.71613],[32.93636,-12.71615],[32.9364,-12.7162],[32.93642,-12.71626],[32.93644,-12.71631],[32.93645,-12.71637],[32.93647,-12.71646],[32.93655,-12.71657],[32.93661,-12.71662],[32.93673,-12.71674],[32.93678,-12.7168],[32.93685,-12.71689],[32.9369,-12.71699],[32.93693,-12.71704],[32.93697,-12.71712],[32.93702,-12.71718],[32.93712,-12.71731],[32.93718,-12.71737],[32.93723,-12.71746],[32.9373,-12.71763],[32.93735,-12.71784],[32.93741,-12.71796],[32.93744,-12.71812],[32.93748,-12.71831],[32.93751,-12.7185],[32.93753,-12.71873],[32.93756,-12.71885],[32.93756,-12.71902],[32.93751,-12.71939],[32.93747,-12.71966],[32.93746,-12.71999],[32.93744,-12.72029],[32.93744,-12.72045],[32.93739,-12.72064],[32.93737,-12.72079],[32.93738,-12.72094],[32.93744,-12.72109],[32.93749,-12.72119],[32.93753,-12.72135],[32.93763,-12.72152],[32.93774,-12.72169],[32.93797,-12.72186],[32.93803,-12.72194],[32.93805,-12.72208],[32.93808,-12.72218],[32.9382,-12.7223],[32.93838,-12.7224],[32.93854,-12.72248],[32.93867,-12.72256],[32.93878,-12.72268],[32.93882,-12.72279],[32.93885,-12.72294],[32.93888,-12.72315],[32.9389,-12.72328],[32.93892,-12.72338],[32.93896,-12.72358],[32.93899,-12.72365],[32.93904,-12.72375],[32.93914,-12.72394],[32.93922,-12.72398],[32.93928,-12.72402],[32.93931,-12.72408],[32.93933,-12.7241],[32.9394,-12.72414],[32.93949,-12.72419],[32.93965,-12.72429],[32.93975,-12.72436],[32.93979,-12.7244],[32.93985,-12.72446],[32.93997,-12.72451],[32.9401,-12.7246],[32.94021,-12.72467],[32.94031,-12.72471],[32.94062,-12.72482],[32.94074,-12.72488],[32.94086,-12.72492],[32.94129,-12.72499],[32.94164,-12.72505],[32.94174,-12.72511],[32.94191,-12.72516],[32.94249,-12.72523],[32.94268,-12.72526],[32.94288,-12.7253],[32.94319,-12.72535],[32.94344,-12.72535],[32.94366,-12.72536],[32.94406,-12.72541],[32.94428,-12.72542],[32.94468,-12.72548],[32.94487,-12.72549],[32.94511,-12.72555],[32.94541,-12.72562],[32.94563,-12.72566],[32.94596,-12.72572],[32.94604,-12.72573],[32.94613,-12.72576],[32.94623,-12.72582],[32.94645,-12.72599],[32.94657,-12.72607],[32.94683,-12.72618],[32.947,-12.72624],[32.94725,-12.72636],[32.94746,-12.72643],[32.94769,-12.72653],[32.9478,-12.7266],[32.94796,-12.72667],[32.94809,-12.72674],[32.94825,-12.72677],[32.94843,-12.72681],[32.94851,-12.72684],[32.9486,-12.72686],[32.94898,-12.72698],[32.94913,-12.72703],[32.94927,-12.72711],[32.94946,-12.72724],[32.94959,-12.72731],[32.94978,-12.72741],[32.94997,-12.72751],[32.95009,-12.72757],[32.95026,-12.72764],[32.95049,-12.72774],[32.95071,-12.7278],[32.95094,-12.72783],[32.95118,-12.72791],[32.95165,-12.72806],[32.95187,-12.72811],[32.95208,-12.72814],[32.95238,-12.72821],[32.95259,-12.72827],[32.95279,-12.72837],[32.95288,-12.72839],[32.95317,-12.72849],[32.95337,-12.72857],[32.95359,-12.72864],[32.95391,-12.72875],[32.95404,-12.72881],[32.9542,-12.72887],[32.95435,-12.72893],[32.95448,-12.72896],[32.95465,-12.729],[32.95477,-12.72905],[32.95494,-12.72911],[32.95516,-12.7292],[32.95528,-12.72923],[32.95537,-12.72926],[32.95554,-12.72934],[32.95561,-12.72938],[32.95569,-12.72941],[32.95579,-12.72945],[32.95593,-12.72952],[32.95611,-12.72965],[32.95627,-12.72971],[32.95641,-12.72977],[32.95665,-12.72986],[32.95684,-12.72993],[32.95703,-12.72997],[32.95725,-12.72999],[32.9575,-12.73],[32.95764,-12.73003],[32.95786,-12.73006],[32.95813,-12.73009],[32.95832,-12.73011],[32.95854,-12.73011],[32.95873,-12.73007],[32.95896,-12.73011],[32.95916,-12.73021],[32.95955,-12.73034],[32.95999,-12.7305],[32.96058,-12.7308],[32.961,-12.7311],[32.96117,-12.73122],[32.9613,-12.73132],[32.96144,-12.73137],[32.96174,-12.73149],[32.96225,-12.73174],[32.96247,-12.7318],[32.96268,-12.73185],[32.96289,-12.73187],[32.96304,-12.73186],[32.96322,-12.7319],[32.96422,-12.73216],[32.96461,-12.73228],[32.96491,-12.73236],[32.96535,-12.73247],[32.96548,-12.73251],[32.9659,-12.73269],[32.96634,-12.73289],[32.96655,-12.73295]]},"properties":{"id":688358409,"cls":"track","hw":"track","tg":"none","name":"","ref":"","surface":"","sc":"unknown","speed":null,"lit":"unk","km":6.979}},
{"type":"Feature","geometry":{"type":"LineString","coordinates":[[32.92421,-12.75816],[32.9242,-12.7583],[32.9242,-12.75843],[32.92424,-12.75852],[32.92426,-12.75872],[32.9243,-12.75889],[32.92434,-12.75902],[32.92444,-12.75929],[32.92452,-12.75954],[32.92464,-12.75988],[32.9247,-12.76003],[32.92485,-12.76037],[32.92513,-12.76093],[32.9254,-12.76148],[32.9255,-12.76164],[32.92566,-12.76182],[32.92582,-12.76197],[32.92588,-12.76203],[32.92592,-12.76209],[32.92594,-12.76218],[32.92593,-12.76238],[32.92592,-12.76266],[32.92592,-12.7628],[32.92591,-12.76287],[32.92593,-12.76296],[32.92596,-12.76304],[32.92599,-12.76309],[32.92608,-12.76323],[32.92639,-12.7635],[32.92651,-12.76359],[32.92677,-12.76388],[32.92704,-12.76419],[32.92718,-12.76434],[32.92723,-12.76447],[32.92733,-12.76463],[32.92744,-12.76477],[32.92757,-12.76491],[32.92772,-12.76509],[32.92796,-12.76539],[32.92812,-12.76558],[32.92841,-12.76595],[32.92848,-12.76603],[32.92858,-12.76614],[32.92864,-12.76622],[32.92875,-12.7664],[32.92884,-12.7666],[32.92899,-12.76694],[32.92913,-12.76716],[32.92928,-12.76744],[32.92951,-12.76772],[32.92974,-12.76806],[32.92978,-12.76813],[32.92981,-12.76823],[32.92979,-12.7683],[32.92974,-12.76841],[32.92966,-12.76847],[32.92931,-12.76864],[32.92902,-12.76879],[32.92896,-12.76886],[32.92892,-12.76895],[32.92892,-12.76904],[32.92898,-12.76944],[32.92899,-12.76959],[32.92901,-12.76983],[32.9291,-12.77013],[32.9292,-12.77039],[32.92928,-12.77061],[32.92928,-12.77075],[32.92929,-12.77097],[32.92931,-12.77122],[32.92934,-12.77139],[32.92942,-12.77158],[32.92949,-12.77173],[32.92958,-12.77188],[32.92973,-12.77206],[32.92987,-12.77222],[32.93009,-12.77242],[32.9304,-12.77271],[32.93073,-12.77297],[32.9311,-12.77325],[32.93131,-12.77341],[32.93148,-12.77353],[32.93156,-12.77361],[32.93162,-12.77367],[32.93165,-12.77376],[32.93172,-12.7741],[32.93182,-12.77442],[32.93187,-12.77463],[32.93194,-12.77487],[32.93204,-12.77529],[32.9321,-12.77547],[32.93222,-12.77606],[32.93232,-12.77716],[32.9324,-12.77803],[32.93247,-12.77867],[32.93249,-12.77894],[32.93249,-12.77908],[32.93253,-12.7796],[32.93254,-12.77991],[32.93257,-12.78042],[32.93258,-12.78053],[32.93259,-12.78084],[32.93259,-12.78154],[32.93259,-12.78165],[32.93263,-12.78237],[32.93265,-12.78256],[32.93267,-12.78281],[32.93269,-12.78297],[32.93271,-12.78321],[32.93274,-12.7834],[32.93276,-12.78357],[32.9328,-12.78384],[32.93281,-12.78391],[32.93282,-12.78401],[32.93284,-12.78409],[32.93286,-12.78417],[32.93288,-12.78427],[32.93292,-12.78437],[32.93295,-12.78444],[32.93298,-12.7845],[32.93303,-12.78459],[32.93309,-12.78469],[32.93315,-12.78479],[32.93319,-12.78489],[32.93321,-12.78495],[32.93323,-12.785],[32.93327,-12.78513],[32.93331,-12.7854],[32.93331,-12.78547],[32.93332,-12.7856],[32.93332,-12.78575],[32.93331,-12.78583],[32.93327,-12.78595],[32.93319,-12.78613],[32.93318,-12.7862],[32.93317,-12.78625],[32.93315,-12.78631],[32.93319,-12.78668],[32.93324,-12.78713],[32.93333,-12.78763],[32.93345,-12.78807],[32.93362,-12.78917],[32.93375,-12.78979],[32.93397,-12.79063],[32.93413,-12.79134],[32.93432,-12.792],[32.93438,-12.79224],[32.93443,-12.79241],[32.93453,-12.7927],[32.93462,-12.79312],[32.93462,-12.7932],[32.9346,-12.79333],[32.93458,-12.79348],[32.93454,-12.79369],[32.93454,-12.7937],[32.9345,-12.7939],[32.93448,-12.79411],[32.93445,-12.79431],[32.93443,-12.79448],[32.93443,-12.79466],[32.93448,-12.79485],[32.93455,-12.79502],[32.93466,-12.79514],[32.9349,-12.79548],[32.93496,-12.7956],[32.93506,-12.79574],[32.93512,-12.79591],[32.93523,-12.79613],[32.93532,-12.79628],[32.93535,-12.79632],[32.9354,-12.79641],[32.93544,-12.79651],[32.9355,-12.7967],[32.93559,-12.7971],[32.93572,-12.79759],[32.93575,-12.79773],[32.93579,-12.79788]]},"properties":{"id":688404751,"cls":"track","hw":"track","tg":"none","name":"","ref":"","surface":"","sc":"unknown","speed":null,"lit":"unk","km":4.847}},
{"type":"Feature","geometry":{"type":"LineString","coordinates":[[32.9668,-12.70781],[32.96681,-12.70781],[32.96683,-12.70783],[32.96685,-12.70785],[32.96692,-12.70794],[32.96699,-12.70801],[32.96711,-12.70811],[32.96747,-12.70837],[32.96783,-12.70854],[32.96813,-12.70869],[32.9683,-12.70875],[32.96843,-12.70881],[32.96847,-12.70886],[32.96855,-12.70894],[32.96861,-12.70899],[32.96868,-12.70906],[32.9688,-12.70911],[32.96895,-12.70917],[32.96933,-12.70928],[32.96981,-12.70941],[32.97019,-12.7095],[32.97047,-12.70955],[32.97052,-12.70955],[32.97055,-12.70953],[32.97058,-12.70949],[32.97074,-12.70922],[32.97087,-12.70904],[32.97102,-12.70871],[32.97129,-12.70836],[32.97146,-12.7082],[32.97163,-12.70812],[32.97191,-12.7081],[32.97223,-12.70807],[32.97246,-12.70804],[32.9728,-12.708],[32.973,-12.70795],[32.97328,-12.7079],[32.97342,-12.70788],[32.97353,-12.70785],[32.9737,-12.70785],[32.97411,-12.70783],[32.97436,-12.7078],[32.97467,-12.70779],[32.97505,-12.70782],[32.97524,-12.70783],[32.9754,-12.70787],[32.97557,-12.7079],[32.97602,-12.70791],[32.97643,-12.70794],[32.9767,-12.70795],[32.9769,-12.70801],[32.97703,-12.70808],[32.97711,-12.70811],[32.97721,-12.70812],[32.97745,-12.70813],[32.97776,-12.70813],[32.9781,-12.70812],[32.9784,-12.70811],[32.97867,-12.7081],[32.97882,-12.70808],[32.97893,-12.70804],[32.97899,-12.70802],[32.97904,-12.70798],[32.97934,-12.70777],[32.97956,-12.70763],[32.97987,-12.70744],[32.98022,-12.70722],[32.98052,-12.70701],[32.9807,-12.70688],[32.98092,-12.70675],[32.9812,-12.7066],[32.98144,-12.70645],[32.98162,-12.70638],[32.9818,-12.70634],[32.9822,-12.70626],[32.98254,-12.7062],[32.98287,-12.70615],[32.98309,-12.7061],[32.98326,-12.7061],[32.98358,-12.70612],[32.98369,-12.70608]]},"properties":{"id":688415208,"cls":"track","hw":"track","tg":"none","name":"","ref":"","surface":"","sc":"unknown","speed":null,"lit":"unk","km":2.037}},
{"type":"Feature","geometry":{"type":"LineString","coordinates":[[32.93577,-12.71303],[32.93616,-12.71309],[32.9363,-12.71314],[32.93648,-12.7132],[32.93674,-12.71324],[32.93707,-12.71323],[32.93727,-12.71321],[32.93751,-12.71324],[32.93789,-12.71338],[32.93819,-12.71356],[32.93853,-12.71373],[32.93883,-12.71387],[32.93901,-12.71395],[32.93925,-12.71403],[32.93938,-12.71407],[32.93963,-12.71421],[32.9398,-12.71427],[32.93998,-12.71429],[32.9404,-12.71437],[32.94062,-12.71442],[32.94129,-12.71462],[32.94166,-12.71473],[32.94209,-12.71482],[32.94268,-12.71492],[32.94325,-12.71508],[32.94363,-12.71516],[32.94405,-12.71526],[32.94441,-12.71536],[32.94472,-12.71542],[32.94501,-12.71549],[32.94511,-12.71552],[32.94527,-12.71555],[32.94549,-12.71562],[32.94579,-12.71569],[32.94638,-12.71583],[32.94691,-12.71595],[32.94727,-12.71601],[32.94765,-12.7161],[32.94807,-12.71622],[32.94827,-12.71627],[32.94849,-12.71632],[32.94873,-12.7164],[32.94912,-12.7165],[32.94941,-12.71656],[32.94964,-12.71662],[32.94999,-12.71667],[32.95016,-12.71673],[32.95034,-12.71678],[32.95052,-12.71682],[32.95066,-12.71681],[32.95101,-12.71689],[32.95136,-12.71699],[32.9518,-12.71713],[32.95207,-12.7172],[32.95221,-12.71722],[32.95234,-12.71723],[32.95247,-12.71726],[32.95262,-12.71722],[32.95271,-12.71719],[32.95276,-12.71718],[32.9528,-12.71717],[32.95287,-12.71718],[32.95303,-12.71721],[32.95316,-12.71728],[32.9534,-12.71747],[32.9536,-12.71762],[32.95382,-12.71774],[32.95413,-12.71781],[32.95453,-12.71787],[32.95473,-12.71791],[32.95482,-12.71792],[32.95504,-12.71791],[32.95524,-12.71796],[32.95542,-12.71803],[32.9556,-12.71814],[32.95577,-12.71818],[32.95601,-12.71818],[32.95612,-12.71817],[32.95629,-12.7182],[32.95657,-12.71822],[32.95694,-12.71823],[32.95719,-12.7182],[32.95752,-12.71816],[32.95792,-12.71815],[32.9583,-12.71812],[32.95874,-12.71807],[32.95963,-12.71796],[32.96038,-12.7179],[32.96095,-12.71785],[32.9615,-12.71779],[32.96205,-12.71771],[32.96263,-12.71762],[32.96306,-12.71758],[32.9631,-12.71758],[32.96316,-12.71759],[32.96329,-12.71762],[32.96366,-12.71774],[32.96384,-12.71782],[32.96405,-12.71796],[32.96432,-12.71814],[32.96461,-12.71828],[32.96493,-12.7184],[32.96524,-12.71849],[32.9656,-12.71856],[32.96589,-12.71857],[32.966,-12.71856],[32.96616,-12.7185],[32.96644,-12.71841],[32.96679,-12.71828],[32.96709,-12.7182],[32.96726,-12.71811],[32.96738,-12.71808],[32.9674,-12.71807],[32.96741,-12.71805],[32.96742,-12.718],[32.96737,-12.71782],[32.96733,-12.71772],[32.96731,-12.7176],[32.9673,-12.7173],[32.9673,-12.71714],[32.96728,-12.71705],[32.9672,-12.71689],[32.96714,-12.71676],[32.96713,-12.7167],[32.96713,-12.71664],[32.96744,-12.71627],[32.9678,-12.71587],[32.96797,-12.7157],[32.9682,-12.71553]]},"properties":{"id":688415209,"cls":"track","hw":"track","tg":"none","name":"","ref":"","surface":"","sc":"unknown","speed":null,"lit":"unk","km":3.904}},
{"type":"Feature","geometry":{"type":"LineString","coordinates":[[32.92954,-12.7515],[32.93006,-12.7515],[32.93094,-12.75147],[32.93172,-12.75147],[32.9325,-12.75149],[32.93331,-12.75153],[32.93342,-12.75153],[32.93356,-12.75152],[32.9337,-12.75143],[32.93395,-12.75132],[32.93429,-12.75118],[32.9345,-12.75113],[32.9347,-12.75112],[32.93482,-12.75113],[32.93497,-12.75117],[32.9353,-12.75119],[32.93548,-12.7512],[32.93558,-12.75123],[32.9358,-12.7513],[32.93595,-12.75133],[32.93607,-12.75132],[32.93633,-12.75128],[32.93649,-12.75125],[32.93672,-12.75127],[32.93705,-12.75129],[32.93717,-12.7513],[32.93729,-12.75133],[32.93735,-12.75133],[32.93746,-12.75132],[32.93758,-12.75127],[32.93811,-12.75106],[32.93858,-12.75095],[32.9398,-12.75067],[32.9408,-12.75046],[32.9416,-12.75031],[32.94201,-12.75027],[32.94251,-12.75024],[32.94266,-12.75026],[32.94298,-12.7503],[32.94322,-12.75028],[32.94351,-12.75029],[32.94369,-12.75033],[32.94404,-12.75035],[32.94431,-12.75037],[32.94458,-12.7504],[32.94489,-12.75042],[32.94533,-12.75044],[32.94559,-12.75046],[32.94601,-12.75044],[32.94633,-12.75043],[32.94685,-12.75041],[32.94701,-12.75043],[32.94718,-12.75043],[32.94732,-12.7504],[32.94754,-12.75032],[32.94812,-12.75003],[32.94897,-12.74964],[32.9491,-12.74959],[32.94925,-12.74954],[32.94939,-12.7495],[32.94953,-12.74944],[32.94962,-12.7494],[32.94972,-12.74933],[32.94982,-12.74928],[32.95003,-12.74921],[32.95028,-12.74915],[32.9504,-12.74911],[32.95056,-12.74908],[32.95065,-12.74905],[32.95074,-12.749],[32.95085,-12.74897],[32.95113,-12.74895],[32.95142,-12.74891]]},"properties":{"id":688415210,"cls":"track","hw":"track","tg":"none","name":"","ref":"","surface":"","sc":"unknown","speed":null,"lit":"unk","km":2.438}},
{"type":"Feature","geometry":{"type":"LineString","coordinates":[[32.94175,-12.76035],[32.94173,-12.76031],[32.94171,-12.76024],[32.94171,-12.76011],[32.9417,-12.76005],[32.94169,-12.76001],[32.94164,-12.75996],[32.94152,-12.75988],[32.94145,-12.75982],[32.94123,-12.75965],[32.94113,-12.75959],[32.9409,-12.75947],[32.94069,-12.75936],[32.9405,-12.75924],[32.94044,-12.7592],[32.94033,-12.75902],[32.94014,-12.75873],[32.94001,-12.7584],[32.93995,-12.7583],[32.93987,-12.75825],[32.93981,-12.75816],[32.93969,-12.758],[32.93954,-12.75782],[32.93938,-12.75773],[32.93904,-12.75754],[32.93873,-12.75736],[32.93831,-12.75722],[32.93783,-12.75705],[32.93713,-12.75685],[32.93651,-12.75667],[32.93586,-12.75651],[32.93503,-12.75628],[32.93424,-12.75603],[32.93394,-12.75587],[32.93318,-12.75537],[32.93259,-12.755],[32.93212,-12.75472],[32.93159,-12.7545],[32.93138,-12.75433],[32.93078,-12.75382],[32.93055,-12.75358],[32.93043,-12.75346],[32.93036,-12.75343],[32.93026,-12.75342],[32.92989,-12.75347],[32.92967,-12.75348],[32.92956,-12.75349],[32.92938,-12.75345],[32.92915,-12.7534],[32.92904,-12.75336],[32.92887,-12.75325],[32.92871,-12.75314],[32.92859,-12.75307],[32.92853,-12.75305],[32.92846,-12.75303],[32.92781,-12.75307],[32.92703,-12.7531]]},"properties":{"id":688415211,"cls":"track","hw":"track","tg":"none","name":"","ref":"","surface":"","sc":"unknown","speed":null,"lit":"unk","km":1.885}},
{"type":"Feature","geometry":{"type":"LineString","coordinates":[[32.94312,-12.76335],[32.94286,-12.76288],[32.94269,-12.76245],[32.94262,-12.76227],[32.94247,-12.762],[32.94231,-12.76171],[32.94212,-12.76123],[32.94202,-12.76087],[32.94191,-12.76066],[32.94183,-12.7605],[32.94175,-12.76035]]},"properties":{"id":688415212,"cls":"track","hw":"track","tg":"none","name":"","ref":"","surface":"","sc":"unknown","speed":null,"lit":"unk","km":0.366}},
{"type":"Feature","geometry":{"type":"LineString","coordinates":[[32.92863,-12.76557],[32.92904,-12.76542],[32.92936,-12.76535],[32.92947,-12.76532],[32.92964,-12.7652],[32.93018,-12.76502],[32.93068,-12.76485],[32.93103,-12.76475],[32.93138,-12.76461],[32.93172,-12.76442],[32.93187,-12.76434],[32.93221,-12.76422],[32.93268,-12.76405],[32.93299,-12.76394],[32.9334,-12.76371],[32.93412,-12.76336],[32.9344,-12.76326],[32.93466,-12.76319],[32.9349,-12.76313],[32.93544,-12.76292],[32.93613,-12.76268],[32.93643,-12.76257],[32.93647,-12.76255],[32.93648,-12.76253],[32.9365,-12.76244],[32.93652,-12.7622],[32.93657,-12.762],[32.9367,-12.76183],[32.93688,-12.76168],[32.93732,-12.76143],[32.93764,-12.76125],[32.93805,-12.76112],[32.93821,-12.76108],[32.93848,-12.76107],[32.93896,-12.76104],[32.93954,-12.76108],[32.93987,-12.76108],[32.94028,-12.76103],[32.94044,-12.76099],[32.94071,-12.76088],[32.9411,-12.76075],[32.94124,-12.76068],[32.94137,-12.7606],[32.94147,-12.76044],[32.94154,-12.76037],[32.94158,-12.76035],[32.94162,-12.76034],[32.94175,-12.76035]]},"properties":{"id":688415213,"cls":"track","hw":"track","tg":"none","name":"","ref":"","surface":"","sc":"unknown","speed":null,"lit":"unk","km":1.598}},
{"type":"Feature","geometry":{"type":"LineString","coordinates":[[32.93446,-12.79083],[32.93457,-12.79065],[32.93462,-12.79051],[32.93467,-12.79035],[32.93476,-12.79013],[32.93491,-12.7898],[32.93511,-12.78941],[32.93517,-12.7893],[32.93524,-12.78922],[32.93532,-12.78916],[32.9356,-12.78885],[32.93569,-12.78875],[32.93595,-12.78855],[32.93614,-12.78832],[32.93639,-12.78789],[32.9365,-12.78771],[32.93657,-12.78755],[32.93668,-12.78745],[32.93683,-12.78738],[32.93691,-12.78733],[32.93695,-12.7873],[32.93699,-12.78725],[32.93703,-12.78718],[32.9371,-12.7871],[32.93717,-12.78688],[32.93727,-12.78665],[32.93733,-12.78653],[32.93741,-12.78626],[32.93747,-12.78601],[32.93761,-12.7858],[32.93768,-12.78564],[32.9377,-12.78561],[32.93771,-12.78557],[32.9377,-12.78552],[32.93769,-12.78549],[32.93768,-12.78548],[32.93761,-12.78547],[32.93752,-12.78548],[32.93736,-12.78548],[32.93703,-12.78543],[32.93677,-12.7854],[32.93645,-12.78535],[32.93628,-12.78535],[32.93611,-12.78537],[32.93595,-12.78541],[32.93587,-12.78547],[32.93576,-12.78553],[32.93565,-12.78559],[32.93555,-12.78562],[32.93543,-12.78564],[32.93533,-12.78565],[32.93525,-12.78563],[32.93507,-12.78554],[32.93479,-12.78541],[32.93464,-12.78536],[32.93457,-12.78535],[32.9345,-12.78535],[32.93442,-12.78538],[32.93432,-12.78545],[32.93421,-12.7855],[32.93409,-12.78554],[32.93386,-12.78556],[32.93351,-12.78557]]},"properties":{"id":688415214,"cls":"track","hw":"track","tg":"none","name":"","ref":"","surface":"","sc":"unknown","speed":null,"lit":"unk","km":1.182}},
{"type":"Feature","geometry":{"type":"LineString","coordinates":[[32.93454,-12.79369],[32.93455,-12.79359],[32.93453,-12.79357],[32.93449,-12.79356],[32.93441,-12.79353],[32.93428,-12.79351],[32.93407,-12.79348],[32.93387,-12.7934],[32.93368,-12.79328],[32.93357,-12.79321],[32.93343,-12.79308],[32.93329,-12.79291],[32.93313,-12.79273],[32.9329,-12.79252],[32.93265,-12.79229],[32.93246,-12.79213],[32.93216,-12.79174],[32.93195,-12.79149],[32.93175,-12.79125],[32.9316,-12.79107],[32.93138,-12.79082],[32.93111,-12.7905],[32.93091,-12.79029],[32.93068,-12.79001],[32.93045,-12.78973],[32.93026,-12.78951],[32.93005,-12.78932],[32.92974,-12.78908],[32.92941,-12.78878],[32.92918,-12.78855],[32.92903,-12.78831],[32.92895,-12.78819],[32.92884,-12.78807],[32.92861,-12.78788],[32.92838,-12.78776],[32.92822,-12.78767],[32.9281,-12.78754],[32.92792,-12.78737],[32.92766,-12.78718],[32.92737,-12.78695]]},"properties":{"id":688415215,"cls":"track","hw":"track","tg":"none","name":"","ref":"","surface":"","sc":"unknown","speed":null,"lit":"unk","km":1.102}},
{"type":"Feature","geometry":{"type":"LineString","coordinates":[[32.93462,-12.79312],[32.93477,-12.79296],[32.93479,-12.79271]]},"properties":{"id":688416588,"cls":"track","hw":"track","tg":"none","name":"","ref":"","surface":"","sc":"unknown","speed":null,"lit":"unk","km":0.052}},
{"type":"Feature","geometry":{"type":"LineString","coordinates":[[32.93434,-12.79674],[32.93455,-12.7967],[32.9348,-12.79665],[32.93499,-12.79657],[32.93516,-12.79644],[32.93535,-12.79632],[32.9356,-12.79625]]},"properties":{"id":688416590,"cls":"track","hw":"track","tg":"none","name":"","ref":"","surface":"","sc":"unknown","speed":null,"lit":"unk","km":0.149}},
{"type":"Feature","geometry":{"type":"LineString","coordinates":[[32.9631,-12.71758],[32.96328,-12.71754],[32.96334,-12.71752],[32.96339,-12.71747],[32.96352,-12.71729],[32.9636,-12.71702],[32.96372,-12.71683],[32.96388,-12.71669],[32.9642,-12.71644],[32.9645,-12.71622],[32.96461,-12.71613],[32.9647,-12.716],[32.96479,-12.71583],[32.96484,-12.71572],[32.96489,-12.71561],[32.96534,-12.71506],[32.96556,-12.71474],[32.96559,-12.71467],[32.96562,-12.71457],[32.9657,-12.71441],[32.96577,-12.71431],[32.96581,-12.71425],[32.96587,-12.71412],[32.96595,-12.71387],[32.96601,-12.71371],[32.96612,-12.71355],[32.96631,-12.71325],[32.96653,-12.71297],[32.96663,-12.71283],[32.96666,-12.71276],[32.96667,-12.71269],[32.96668,-12.71257],[32.96667,-12.71202],[32.9667,-12.71155],[32.96669,-12.71133],[32.96668,-12.71122],[32.96668,-12.71114],[32.96669,-12.71101],[32.96668,-12.71083],[32.96663,-12.71061],[32.96658,-12.71036],[32.9666,-12.71003],[32.96659,-12.70992],[32.96658,-12.70967],[32.96661,-12.70931],[32.96667,-12.70871],[32.9667,-12.7083],[32.96674,-12.70792],[32.96675,-12.70785],[32.96676,-12.70783],[32.96677,-12.70781],[32.96677,-12.70781],[32.96679,-12.70781],[32.9668,-12.70781]]},"properties":{"id":688444272,"cls":"track","hw":"track","tg":"none","name":"","ref":"","surface":"","sc":"unknown","speed":null,"lit":"unk","km":1.235}},
{"type":"Feature","geometry":{"type":"LineString","coordinates":[[32.93972,-12.82993],[32.93973,-12.82986]]},"properties":{"id":1008819867,"cls":"primary","hw":"primary","tg":"na","name":"","ref":"M12","surface":"asphalt","sc":"paved","speed":null,"lit":"unk","km":0.008}},
{"type":"Feature","geometry":{"type":"LineString","coordinates":[[32.93973,-12.82986],[32.94031,-12.82616],[32.94069,-12.82385],[32.94112,-12.82138],[32.94163,-12.81819],[32.94198,-12.81602],[32.94219,-12.81484],[32.94234,-12.81388],[32.9424,-12.8133],[32.9424,-12.81304],[32.9424,-12.81278],[32.94235,-12.8124],[32.94232,-12.81214],[32.94226,-12.81184],[32.94219,-12.81157],[32.94205,-12.81119],[32.9419,-12.81082],[32.94157,-12.81003],[32.94118,-12.80915],[32.93969,-12.80575],[32.93931,-12.80482],[32.9388,-12.80367],[32.93845,-12.80291],[32.93789,-12.8016],[32.93729,-12.80023],[32.93675,-12.79897],[32.93623,-12.79779],[32.93614,-12.79754],[32.93581,-12.79679],[32.9356,-12.79625],[32.93543,-12.79568],[32.93527,-12.7951],[32.93518,-12.79473],[32.93504,-12.79405],[32.93484,-12.79299],[32.93479,-12.79271],[32.9347,-12.79217],[32.93446,-12.79083],[32.93436,-12.79026],[32.9337,-12.78669],[32.93351,-12.78557],[32.9335,-12.78552],[32.93329,-12.78444],[32.9332,-12.78387],[32.93315,-12.78336],[32.93303,-12.78175],[32.93294,-12.78069],[32.93293,-12.7805],[32.93291,-12.7803],[32.93274,-12.77791],[32.93262,-12.77649],[32.93249,-12.77487],[32.93243,-12.77411],[32.93242,-12.77393],[32.93235,-12.77313],[32.9323,-12.77261],[32.93216,-12.772],[32.93203,-12.77147],[32.93182,-12.77078],[32.9317,-12.77041],[32.9316,-12.77018],[32.93147,-12.76989],[32.93136,-12.76967],[32.93126,-12.76947],[32.93091,-12.76884],[32.93048,-12.76815],[32.92967,-12.76702],[32.92899,-12.76607],[32.92863,-12.76557],[32.92805,-12.76477],[32.92718,-12.76357],[32.92636,-12.7624],[32.92598,-12.76184],[32.92565,-12.7613],[32.92539,-12.76085],[32.92508,-12.76026],[32.92492,-12.75993],[32.92479,-12.75962],[32.92421,-12.75816],[32.9241,-12.75793],[32.92378,-12.7571],[32.92345,-12.75627],[32.92282,-12.75475],[32.92232,-12.75355],[32.92211,-12.75302],[32.92168,-12.75199],[32.92134,-12.75115],[32.92102,-12.75037],[32.92017,-12.7483],[32.9199,-12.74763]]},"properties":{"id":1008819868,"cls":"primary","hw":"primary","tg":"na","name":"","ref":"M12","surface":"asphalt","sc":"paved","speed":null,"lit":"unk","km":9.67}},
{"type":"Feature","geometry":{"type":"LineString","coordinates":[[32.94185,-12.85055],[32.94107,-12.85036],[32.9399,-12.84996],[32.93902,-12.84958],[32.9384,-12.84948],[32.93794,-12.84943],[32.93713,-12.84925],[32.93666,-12.84911],[32.93583,-12.84883],[32.9346,-12.84849],[32.93452,-12.84847],[32.93418,-12.84864],[32.93375,-12.84892],[32.93336,-12.84905],[32.93298,-12.84915]]},"properties":{"id":1230968124,"cls":"track","hw":"track","tg":"none","name":"","ref":"","surface":"","sc":"unknown","speed":null,"lit":"unk","km":1.015}},
{"type":"Feature","geometry":{"type":"LineString","coordinates":[[32.93452,-12.84847],[32.93501,-12.84772],[32.93555,-12.8472],[32.93587,-12.8469],[32.93613,-12.84654],[32.93647,-12.84615],[32.93678,-12.84584],[32.93702,-12.8456],[32.93754,-12.84502],[32.93824,-12.84453],[32.93887,-12.84401],[32.93948,-12.84365],[32.94006,-12.84335],[32.94048,-12.84324]]},"properties":{"id":1230968125,"cls":"track","hw":"track","tg":"none","name":"","ref":"","surface":"","sc":"unknown","speed":null,"lit":"unk","km":0.885}},
{"type":"Feature","geometry":{"type":"LineString","coordinates":[[32.93304,-12.77411],[32.93328,-12.77427],[32.9334,-12.77431]]},"properties":{"id":1260554198,"cls":"service","hw":"service","tg":"na","name":"","ref":"","surface":"","sc":"unknown","speed":null,"lit":"unk","km":0.045}},
{"type":"Feature","geometry":{"type":"LineString","coordinates":[[32.93243,-12.77411],[32.93304,-12.77411],[32.9335,-12.77409],[32.93365,-12.77397],[32.93374,-12.77388],[32.93384,-12.77375],[32.93391,-12.77368],[32.93402,-12.7737],[32.93412,-12.77376]]},"properties":{"id":1260554199,"cls":"service","hw":"service","tg":"na","name":"","ref":"","surface":"","sc":"unknown","speed":null,"lit":"unk","km":0.205}},
{"type":"Feature","geometry":{"type":"LineString","coordinates":[[32.93078,-12.80447],[32.93095,-12.80453],[32.93124,-12.80459],[32.9313,-12.8046],[32.93137,-12.80458],[32.93154,-12.80449],[32.93167,-12.80441],[32.93169,-12.80441],[32.93173,-12.80442],[32.93178,-12.80442],[32.93182,-12.8044],[32.93186,-12.80435],[32.93192,-12.80426],[32.93201,-12.80417],[32.93209,-12.80409],[32.93215,-12.80404],[32.93227,-12.80395],[32.93232,-12.80389],[32.93245,-12.80372],[32.93259,-12.80356],[32.93272,-12.80337],[32.93278,-12.80328]]},"properties":{"id":1260604372,"cls":"track","hw":"track","tg":"none","name":"","ref":"","surface":"unpaved","sc":"unpaved","speed":null,"lit":"unk","km":0.284}},
{"type":"Feature","geometry":{"type":"LineString","coordinates":[[32.96743,-12.98742],[32.96756,-12.98685],[32.96759,-12.9867],[32.96768,-12.98629],[32.9678,-12.98564],[32.96787,-12.98519],[32.96789,-12.98479],[32.96788,-12.98407],[32.96782,-12.98337],[32.96777,-12.98305],[32.96769,-12.98269],[32.96758,-12.98228],[32.96727,-12.98094],[32.96704,-12.97991],[32.96655,-12.9778],[32.9663,-12.97672],[32.96593,-12.97503],[32.96585,-12.97445],[32.96579,-12.97399],[32.96576,-12.97322],[32.96576,-12.97272],[32.96588,-12.96899],[32.9659,-12.96745],[32.96594,-12.96659],[32.96596,-12.96594],[32.96597,-12.96541],[32.96601,-12.96384],[32.96603,-12.96316],[32.96632,-12.95442],[32.96636,-12.95319],[32.9664,-12.95182],[32.96639,-12.95115],[32.96648,-12.9491],[32.96654,-12.94696],[32.96658,-12.94564],[32.96657,-12.94493],[32.96653,-12.94449],[32.9665,-12.94421],[32.9663,-12.94331],[32.96619,-12.94294],[32.96528,-12.94032],[32.96492,-12.93938],[32.96404,-12.93679],[32.96347,-12.93508],[32.96287,-12.93339],[32.96206,-12.93103],[32.96073,-12.92727],[32.96032,-12.92605],[32.95963,-12.92414],[32.95948,-12.92368],[32.95943,-12.92347],[32.95933,-12.92294],[32.95928,-12.92242],[32.95926,-12.92203],[32.95926,-12.92177],[32.95928,-12.92129],[32.95936,-12.92074],[32.95944,-12.92035],[32.95955,-12.91995],[32.95971,-12.91949],[32.961,-12.91604],[32.9618,-12.91386],[32.96267,-12.91158],[32.96378,-12.90857],[32.96399,-12.90797],[32.9641,-12.90759],[32.96418,-12.90714],[32.96424,-12.90665],[32.96424,-12.90619],[32.96422,-12.90582],[32.96419,-12.90543],[32.96411,-12.90502],[32.96398,-12.90457],[32.96363,-12.90373],[32.96305,-12.90243],[32.96224,-12.90068],[32.96158,-12.89917],[32.96088,-12.89766],[32.95948,-12.89465],[32.9589,-12.89342],[32.95845,-12.89231],[32.95793,-12.89118],[32.95618,-12.88728],[32.9554,-12.88559],[32.9521,-12.87829],[32.95166,-12.87734],[32.95033,-12.87438],[32.94778,-12.86874],[32.94719,-12.86743],[32.94665,-12.86625],[32.94618,-12.86521],[32.94609,-12.865],[32.94586,-12.86443],[32.94563,-12.86381],[32.94545,-12.86324],[32.9453,-12.86269],[32.9451,-12.86184],[32.94466,-12.85956],[32.94366,-12.85447],[32.94279,-12.85011],[32.94216,-12.84677],[32.94204,-12.84622],[32.9407,-12.83926],[32.94061,-12.83881],[32.94031,-12.83733],[32.93962,-12.83375],[32.93952,-12.83311],[32.93949,-12.83283],[32.93946,-12.83218],[32.93947,-12.8316],[32.93954,-12.83104],[32.93972,-12.82993]]},"properties":{"id":1260631867,"cls":"primary","hw":"primary","tg":"na","name":"","ref":"M12","surface":"asphalt","sc":"paved","speed":null,"lit":"unk","km":18.246}}
]}