{"type":"FeatureCollection","features":[
{"type":"Feature","geometry":{"type":"LineString","coordinates":[[34.48166,-14.56156],[34.48101,-14.56096],[34.48059,-14.5605],[34.48039,-14.56026],[34.48018,-14.56],[34.47935,-14.55824],[34.479,-14.55731],[34.47878,-14.55674],[34.47851,-14.55611],[34.478,-14.55495],[34.47756,-14.55433],[34.47707,-14.55364],[34.47652,-14.55282],[34.47628,-14.55243],[34.47607,-14.55203],[34.47574,-14.5516],[34.47501,-14.55058],[34.47418,-14.54949],[34.47341,-14.54853],[34.47294,-14.54804],[34.47251,-14.54755],[34.47239,-14.54737],[34.47228,-14.54718],[34.47203,-14.54675],[34.47184,-14.54647],[34.47174,-14.54634],[34.47161,-14.54622],[34.47148,-14.54594],[34.4714,-14.54575],[34.47134,-14.54555],[34.47123,-14.54473],[34.47123,-14.54454],[34.47127,-14.54438],[34.47129,-14.54434],[34.47131,-14.54431],[34.47133,-14.54425],[34.47135,-14.54421],[34.47136,-14.54417],[34.47135,-14.54415],[34.47134,-14.54413],[34.4713,-14.54411],[34.47127,-14.54408],[34.47124,-14.54406],[34.47122,-14.54404],[34.47121,-14.54402],[34.4712,-14.544],[34.47119,-14.5439],[34.47117,-14.54356],[34.47108,-14.54244],[34.47086,-14.54061],[34.47089,-14.53867],[34.47061,-14.53721],[34.47034,-14.53665],[34.47011,-14.53603],[34.47003,-14.5358],[34.47,-14.53568],[34.46999,-14.53553],[34.46996,-14.53494],[34.46973,-14.53202],[34.46964,-14.53166],[34.4693,-14.53036],[34.46915,-14.52955],[34.46908,-14.52917],[34.46906,-14.52906],[34.4689,-14.52821],[34.46857,-14.52634],[34.46844,-14.52588],[34.4683,-14.52539],[34.46812,-14.52493],[34.46808,-14.52484],[34.4679,-14.52447],[34.4676,-14.52396],[34.46728,-14.52345],[34.46709,-14.52314],[34.46657,-14.52235],[34.46603,-14.52165],[34.46586,-14.52143],[34.46551,-14.52101],[34.46518,-14.52053],[34.46506,-14.5203],[34.46496,-14.52002],[34.46448,-14.51939],[34.46416,-14.51895]]},"properties":{"id":25628920,"cls":"unclassified","hw":"unclassified","tg":"na","name":"","ref":"","surface":"","sc":"unknown","speed":null,"lit":"unk","km":5.252}},
{"type":"Feature","geometry":{"type":"LineString","coordinates":[[34.46576,-14.52056],[34.4671,-14.52167],[34.46873,-14.52302],[34.46995,-14.52401],[34.47044,-14.52446],[34.47069,-14.52476],[34.47101,-14.52518],[34.47156,-14.52611],[34.47242,-14.52776],[34.47341,-14.52963],[34.47385,-14.53043],[34.47432,-14.53119],[34.47476,-14.53178],[34.47509,-14.53215],[34.4756,-14.53266],[34.47596,-14.53298],[34.47646,-14.53338],[34.47715,-14.53383],[34.47778,-14.5342],[34.47838,-14.53448],[34.47939,-14.53487],[34.47999,-14.53503],[34.48068,-14.53517],[34.48137,-14.53526],[34.48204,-14.53531],[34.4827,-14.5353],[34.48374,-14.53528],[34.4839,-14.53527],[34.48485,-14.53528],[34.48516,-14.53531],[34.48562,-14.53539],[34.486,-14.53547],[34.48631,-14.53557],[34.48668,-14.53571],[34.48735,-14.53604],[34.48782,-14.53631],[34.48915,-14.53709],[34.49055,-14.53791],[34.49122,-14.5383],[34.49221,-14.53888],[34.49304,-14.53938],[34.49348,-14.53968],[34.4937,-14.53986],[34.49395,-14.54011],[34.49417,-14.54036],[34.49433,-14.54058],[34.4945,-14.54085],[34.49463,-14.54111],[34.49474,-14.54137],[34.49491,-14.54191],[34.49497,-14.54221],[34.495,-14.54256],[34.495,-14.5429],[34.49498,-14.54321],[34.49491,-14.54361],[34.49464,-14.54465],[34.49441,-14.5455],[34.49436,-14.54602],[34.49437,-14.54631],[34.4944,-14.54655],[34.49444,-14.5468],[34.49452,-14.54707],[34.49508,-14.5484],[34.49554,-14.5495],[34.49575,-14.54997],[34.49626,-14.55114],[34.49673,-14.55224],[34.497,-14.55268],[34.49725,-14.55299],[34.49752,-14.55322],[34.49782,-14.55343],[34.49812,-14.55359],[34.49848,-14.55373],[34.49887,-14.55383],[34.49919,-14.55386],[34.49956,-14.55385],[34.49995,-14.5538],[34.50204,-14.55335],[34.50317,-14.5531],[34.50413,-14.55298],[34.51051,-14.55245],[34.51086,-14.55243],[34.51112,-14.55245],[34.5114,-14.5525]]},"properties":{"id":300418210,"cls":"trunk","hw":"trunk","tg":"na","name":"","ref":"M1","surface":"","sc":"unknown","speed":100,"lit":"unk","km":7.036}},
{"type":"Feature","geometry":{"type":"LineString","coordinates":[[34.48551,-14.50051],[34.48566,-14.50045]]},"properties":{"id":396552272,"cls":"unclassified","hw":"unclassified","tg":"na","name":"","ref":"","surface":"","sc":"unknown","speed":null,"lit":"unk","km":0.017}},
{"type":"Feature","geometry":{"type":"LineString","coordinates":[[34.48357,-14.50826],[34.48383,-14.50838]]},"properties":{"id":396552274,"cls":"unclassified","hw":"unclassified","tg":"na","name":"","ref":"","surface":"","sc":"unknown","speed":null,"lit":"unk","km":0.031}},
{"type":"Feature","geometry":{"type":"LineString","coordinates":[[34.46781,-14.5109],[34.46961,-14.51049],[34.47095,-14.51016],[34.47181,-14.50991],[34.47206,-14.50976],[34.47234,-14.50957],[34.47262,-14.50942],[34.4729,-14.50934],[34.4735,-14.50918],[34.47416,-14.50897],[34.47472,-14.50877],[34.47583,-14.50817],[34.47675,-14.5075],[34.47719,-14.50728],[34.47733,-14.50719],[34.47739,-14.50714],[34.47741,-14.50711],[34.47743,-14.50709],[34.47765,-14.50652],[34.47787,-14.50597],[34.47846,-14.50472],[34.4788,-14.50417],[34.47898,-14.50393],[34.47917,-14.5037],[34.4794,-14.50349],[34.47957,-14.50337],[34.47973,-14.50328],[34.48001,-14.50324],[34.48026,-14.50325],[34.48057,-14.50328],[34.4808,-14.50328],[34.48114,-14.50321],[34.48132,-14.50316],[34.48155,-14.50308],[34.48236,-14.5027],[34.4828,-14.5024],[34.48317,-14.5021],[34.48397,-14.50133],[34.48444,-14.50102],[34.48489,-14.50078],[34.48524,-14.50063],[34.48551,-14.50051]]},"properties":{"id":396552292,"cls":"unclassified","hw":"unclassified","tg":"na","name":"","ref":"","surface":"","sc":"unknown","speed":null,"lit":"unk","km":2.35}},
{"type":"Feature","geometry":{"type":"LineString","coordinates":[[34.48383,-14.50838],[34.48407,-14.5085],[34.48418,-14.50854],[34.48429,-14.50856],[34.48478,-14.50856],[34.48526,-14.5085],[34.48557,-14.50846],[34.48603,-14.50838],[34.4864,-14.50831],[34.48693,-14.50824],[34.48736,-14.50819],[34.48775,-14.50816],[34.48795,-14.50815],[34.4881,-14.50816],[34.48827,-14.50821],[34.48865,-14.50835],[34.48881,-14.50842],[34.48895,-14.50845],[34.48917,-14.50843],[34.48933,-14.5084],[34.48944,-14.5084],[34.48958,-14.50843],[34.48972,-14.50848],[34.48987,-14.50852],[34.48999,-14.50855],[34.49005,-14.50854],[34.49012,-14.50852],[34.49021,-14.50848],[34.49037,-14.50838],[34.49058,-14.50828],[34.4907,-14.50825],[34.49084,-14.50824],[34.49102,-14.50827],[34.49133,-14.50832],[34.49152,-14.50837],[34.49168,-14.50843],[34.49205,-14.50865],[34.49229,-14.5088],[34.49244,-14.50892],[34.49258,-14.50898],[34.49272,-14.50901],[34.49291,-14.509],[34.49303,-14.50898],[34.49325,-14.50897],[34.49347,-14.50895],[34.4937,-14.5089],[34.4938,-14.50884],[34.49396,-14.50878],[34.49405,-14.50873],[34.49417,-14.50869],[34.49427,-14.50867],[34.49443,-14.50868],[34.49454,-14.50869],[34.49468,-14.50866],[34.49475,-14.50864],[34.49481,-14.50859],[34.49492,-14.5085],[34.495,-14.50839],[34.49507,-14.50827],[34.49513,-14.50815],[34.49518,-14.50802],[34.49522,-14.50777],[34.49523,-14.5076],[34.49528,-14.50738],[34.49535,-14.50722],[34.49552,-14.5069],[34.49561,-14.50676],[34.49577,-14.50653],[34.49593,-14.50632],[34.49604,-14.50622],[34.49616,-14.5061],[34.49624,-14.50606],[34.49637,-14.50604],[34.49664,-14.50604],[34.49726,-14.50616],[34.49792,-14.50617]]},"properties":{"id":396552294,"cls":"unclassified","hw":"unclassified","tg":"na","name":"","ref":"","surface":"","sc":"unknown","speed":null,"lit":"unk","km":1.749}},
{"type":"Feature","geometry":{"type":"LineString","coordinates":[[34.48566,-14.50045],[34.48576,-14.50039],[34.48581,-14.50032],[34.4859,-14.50005],[34.48599,-14.49992],[34.48607,-14.49985],[34.48615,-14.49979],[34.48628,-14.49973],[34.48641,-14.49969],[34.48663,-14.49964],[34.48684,-14.4996],[34.48703,-14.49954],[34.48723,-14.49944],[34.48729,-14.4994],[34.48736,-14.49937],[34.48742,-14.49937],[34.48751,-14.49936],[34.48759,-14.49933],[34.48768,-14.4993],[34.48776,-14.49926],[34.48785,-14.49922],[34.48799,-14.49916],[34.48808,-14.49909],[34.4882,-14.49899],[34.4884,-14.49885],[34.48858,-14.49869],[34.48871,-14.49859],[34.4889,-14.49843],[34.48898,-14.49836],[34.48906,-14.49828],[34.48921,-14.49809],[34.48939,-14.49791],[34.48956,-14.49773],[34.48992,-14.49752],[34.49009,-14.49741],[34.4903,-14.49723],[34.49041,-14.49713],[34.49047,-14.49708],[34.49054,-14.49702],[34.49059,-14.49693],[34.49062,-14.49688],[34.49072,-14.49671],[34.49079,-14.49659],[34.49088,-14.4965],[34.49094,-14.49646],[34.49101,-14.49643],[34.49105,-14.49637],[34.49108,-14.49629],[34.49112,-14.4962],[34.49116,-14.49614],[34.4912,-14.4961],[34.49126,-14.49606],[34.49133,-14.49604],[34.49139,-14.49602],[34.49148,-14.49602],[34.49157,-14.496],[34.49165,-14.49597],[34.49174,-14.49592],[34.49183,-14.49586],[34.49188,-14.49576],[34.49192,-14.49568],[34.49197,-14.4956],[34.49203,-14.49556],[34.49212,-14.49556],[34.49223,-14.49557],[34.49241,-14.49559],[34.49254,-14.49558],[34.49264,-14.49556],[34.49274,-14.49553],[34.49282,-14.49544],[34.49295,-14.49533],[34.49304,-14.49525],[34.49315,-14.49518],[34.4933,-14.49511],[34.49345,-14.49506],[34.49365,-14.495],[34.49382,-14.49498],[34.49405,-14.49496],[34.49426,-14.49497],[34.49441,-14.49498],[34.49451,-14.49497],[34.49484,-14.49491],[34.49499,-14.49491],[34.49514,-14.49492],[34.49525,-14.49493],[34.4953,-14.49491],[34.49536,-14.49489],[34.49545,-14.49483],[34.49553,-14.49481],[34.49561,-14.49479],[34.49571,-14.49477],[34.49584,-14.49475],[34.496,-14.49475],[34.49618,-14.49473]]},"properties":{"id":396552304,"cls":"unclassified","hw":"unclassified","tg":"na","name":"","ref":"","surface":"","sc":"unknown","speed":null,"lit":"unk","km":1.384}},
{"type":"Feature","geometry":{"type":"LineString","coordinates":[[34.46549,-14.5156],[34.46592,-14.5155],[34.46619,-14.51548],[34.46651,-14.51549],[34.46666,-14.51554],[34.46679,-14.51559],[34.4669,-14.51566],[34.467,-14.51574],[34.46709,-14.51589],[34.46716,-14.51599],[34.46726,-14.51606],[34.46732,-14.51613],[34.46755,-14.51655],[34.46768,-14.51683],[34.46781,-14.51707],[34.46803,-14.5173],[34.46826,-14.5175],[34.46851,-14.51768],[34.46874,-14.5178],[34.46905,-14.51786],[34.4693,-14.51788],[34.46947,-14.51793],[34.47071,-14.51828],[34.47142,-14.51851],[34.47182,-14.5187],[34.47197,-14.51882],[34.47208,-14.51895],[34.47269,-14.5201],[34.47284,-14.5203],[34.47294,-14.5204],[34.47304,-14.52046],[34.47341,-14.52055],[34.47403,-14.52083],[34.47452,-14.52096],[34.47497,-14.52102],[34.47556,-14.52098],[34.47619,-14.52098],[34.47714,-14.52101],[34.47771,-14.52115],[34.47829,-14.52133],[34.47839,-14.52136],[34.47847,-14.52136],[34.4798,-14.52114],[34.48003,-14.5211],[34.48024,-14.52101],[34.48097,-14.5206],[34.48125,-14.52022],[34.48162,-14.51967],[34.48186,-14.5192],[34.48186,-14.51908],[34.48191,-14.51895],[34.48199,-14.51886],[34.48209,-14.5188],[34.48219,-14.51872],[34.48223,-14.51865],[34.48228,-14.51861],[34.48257,-14.51849],[34.48264,-14.51843],[34.48269,-14.51836],[34.48274,-14.5183],[34.48277,-14.51823],[34.48279,-14.51798],[34.48281,-14.51788],[34.48285,-14.51782],[34.4831,-14.51744],[34.48311,-14.51734],[34.48309,-14.51726],[34.48303,-14.51709],[34.483,-14.51692],[34.48302,-14.51685],[34.48305,-14.51678],[34.48336,-14.51647],[34.48367,-14.51608],[34.48389,-14.51565],[34.4841,-14.5154],[34.48428,-14.51501],[34.48443,-14.51446],[34.48453,-14.51431],[34.48467,-14.51418],[34.48512,-14.51391],[34.48524,-14.51377],[34.48536,-14.51364],[34.48562,-14.51348],[34.48591,-14.51339],[34.48614,-14.51334]]},"properties":{"id":396552311,"cls":"unclassified","hw":"unclassified","tg":"na","name":"","ref":"","surface":"","sc":"unknown","speed":null,"lit":"unk","km":2.991}},
{"type":"Feature","geometry":{"type":"LineString","coordinates":[[34.46285,-14.51429],[34.46303,-14.51449],[34.46311,-14.51458],[34.46318,-14.51469],[34.46319,-14.51489],[34.46321,-14.515],[34.46326,-14.51515],[34.46329,-14.51534],[34.46333,-14.51539],[34.46337,-14.51544],[34.46345,-14.51552],[34.46355,-14.51556],[34.46369,-14.51561],[34.46392,-14.51567],[34.46403,-14.51568],[34.46414,-14.51571]]},"properties":{"id":396552319,"cls":"residential","hw":"residential","tg":"na","name":"","ref":"","surface":"","sc":"unknown","speed":null,"lit":"unk","km":0.235}},
{"type":"Feature","geometry":{"type":"LineString","coordinates":[[34.48557,-14.50846],[34.48585,-14.50863],[34.48611,-14.50875],[34.48664,-14.509],[34.48699,-14.50917],[34.4875,-14.50944],[34.48763,-14.50954],[34.48768,-14.50957],[34.48841,-14.51],[34.48892,-14.5102],[34.48909,-14.51027],[34.48968,-14.51031],[34.4899,-14.5104],[34.49034,-14.51063],[34.49053,-14.51069],[34.49083,-14.51077],[34.49112,-14.51094],[34.49167,-14.51115],[34.49213,-14.51128],[34.4925,-14.51147],[34.49295,-14.51164],[34.49317,-14.5118],[34.49338,-14.51183],[34.49356,-14.5118],[34.49403,-14.51191],[34.49462,-14.51196],[34.49488,-14.51202],[34.49521,-14.51212],[34.49564,-14.5121],[34.49593,-14.51202],[34.49616,-14.51203],[34.49658,-14.51191],[34.49695,-14.51195],[34.49758,-14.51211],[34.49804,-14.51224],[34.4983,-14.5124],[34.49845,-14.51243],[34.49905,-14.51238],[34.49935,-14.51239],[34.49949,-14.51235],[34.49988,-14.51247],[34.5002,-14.5125],[34.50046,-14.51256],[34.50079,-14.5126],[34.50135,-14.51271],[34.50184,-14.51279],[34.5022,-14.51283],[34.50235,-14.51276],[34.50249,-14.51289],[34.50274,-14.51299],[34.50312,-14.51305],[34.50349,-14.51316]]},"properties":{"id":396552322,"cls":"path","hw":"path","tg":"na","name":"","ref":"","surface":"","sc":"unknown","speed":null,"lit":"unk","km":2.054}},
{"type":"Feature","geometry":{"type":"LineString","coordinates":[[34.45589,-14.50595],[34.45529,-14.50569],[34.45503,-14.50561],[34.45442,-14.50545],[34.45431,-14.50543],[34.45416,-14.50542],[34.45404,-14.50544],[34.4539,-14.50545],[34.45354,-14.50532],[34.45328,-14.50523]]},"properties":{"id":396552327,"cls":"unclassified","hw":"unclassified","tg":"na","name":"","ref":"","surface":"","sc":"unknown","speed":null,"lit":"unk","km":0.296}},
{"type":"Feature","geometry":{"type":"LineString","coordinates":[[34.46576,-14.52056],[34.46556,-14.51869],[34.46546,-14.51762],[34.46547,-14.51713],[34.46547,-14.51652],[34.4655,-14.5159],[34.46549,-14.5156]]},"properties":{"id":396552333,"cls":"residential","hw":"residential","tg":"na","name":"","ref":"","surface":"","sc":"unknown","speed":null,"lit":"unk","km":0.553}},
{"type":"Feature","geometry":{"type":"LineString","coordinates":[[34.47472,-14.50877],[34.47508,-14.5088],[34.47551,-14.50884],[34.47618,-14.50885],[34.47694,-14.50884],[34.4773,-14.50882],[34.47753,-14.50881],[34.47764,-14.50878],[34.47774,-14.50876],[34.47816,-14.50872],[34.47853,-14.5087],[34.47905,-14.50868],[34.47954,-14.50867],[34.4803,-14.50852],[34.48112,-14.50835],[34.48312,-14.50813],[34.48325,-14.50815],[34.48336,-14.50818],[34.48357,-14.50826]]},"properties":{"id":396552335,"cls":"unclassified","hw":"unclassified","tg":"na","name":"","ref":"","surface":"","sc":"unknown","speed":null,"lit":"unk","km":0.962}},
{"type":"Feature","geometry":{"type":"LineString","coordinates":[[34.45864,-14.52907],[34.45894,-14.52805],[34.45913,-14.52743],[34.45917,-14.52734],[34.45924,-14.52727],[34.46148,-14.52577],[34.46153,-14.5257],[34.46158,-14.52563],[34.46203,-14.52497],[34.46204,-14.52492],[34.46204,-14.52487],[34.46198,-14.52421],[34.46187,-14.52284],[34.46182,-14.52188],[34.46182,-14.52183],[34.46184,-14.52179],[34.46293,-14.52078],[34.46366,-14.52014],[34.46381,-14.51993],[34.4639,-14.5198],[34.46399,-14.51964],[34.46413,-14.51937],[34.46416,-14.51924],[34.46417,-14.5191],[34.46416,-14.51895],[34.46373,-14.5181],[34.46323,-14.51714],[34.46299,-14.5167],[34.46229,-14.51543],[34.46157,-14.514],[34.46109,-14.51314]]},"properties":{"id":396574378,"cls":"unclassified","hw":"unclassified","tg":"na","name":"","ref":"","surface":"","sc":"unknown","speed":null,"lit":"unk","km":2.108}},
{"type":"Feature","geometry":{"type":"LineString","coordinates":[[34.48899,-14.53424],[34.48887,-14.53423],[34.4888,-14.53423],[34.48871,-14.53425],[34.48848,-14.53431],[34.48838,-14.53434],[34.48825,-14.53436],[34.48818,-14.53434],[34.48813,-14.53433],[34.48802,-14.53427],[34.4879,-14.53421],[34.48778,-14.53414],[34.48769,-14.53409],[34.48758,-14.53406],[34.48708,-14.53397],[34.48685,-14.53392],[34.48672,-14.53389],[34.48667,-14.5339],[34.48658,-14.5339],[34.48624,-14.53397],[34.48606,-14.53404],[34.48588,-14.5341],[34.48561,-14.53423],[34.48526,-14.53449],[34.48478,-14.53489],[34.48468,-14.53493],[34.48456,-14.53496],[34.48427,-14.53504],[34.48404,-14.53511],[34.48385,-14.5352],[34.48374,-14.53528]]},"properties":{"id":396574399,"cls":"residential","hw":"residential","tg":"na","name":"","ref":"","surface":"","sc":"unknown","speed":null,"lit":"unk","km":0.619}},
{"type":"Feature","geometry":{"type":"LineString","coordinates":[[34.48339,-14.5287],[34.48323,-14.52855],[34.48316,-14.52848],[34.48312,-14.52839],[34.48304,-14.52768],[34.483,-14.5276],[34.48296,-14.52753],[34.48284,-14.52739],[34.48246,-14.52712],[34.48234,-14.52702],[34.48225,-14.52691],[34.48216,-14.52677],[34.48207,-14.52662],[34.48186,-14.52635],[34.48161,-14.52616],[34.48131,-14.52604],[34.48047,-14.52578],[34.48043,-14.52574],[34.48041,-14.52567],[34.48036,-14.52549],[34.47978,-14.52449],[34.47953,-14.52416],[34.47926,-14.52387],[34.47868,-14.52332],[34.47829,-14.52299],[34.47814,-14.52292],[34.47794,-14.52284],[34.47777,-14.52271],[34.47761,-14.52255],[34.47662,-14.5217],[34.47639,-14.52149],[34.4763,-14.52137],[34.47625,-14.52127],[34.47619,-14.52098]]},"properties":{"id":396574408,"cls":"unclassified","hw":"unclassified","tg":"na","name":"","ref":"","surface":"","sc":"unknown","speed":null,"lit":"unk","km":1.209}},
{"type":"Feature","geometry":{"type":"LineString","coordinates":[[34.4835,-14.52875],[34.48339,-14.5287]]},"properties":{"id":396574423,"cls":"unclassified","hw":"unclassified","tg":"na","name":"","ref":"","surface":"","sc":"unknown","speed":null,"lit":"unk","km":0.013}},
{"type":"Feature","geometry":{"type":"LineString","coordinates":[[34.48626,-14.55341],[34.48657,-14.55167],[34.48673,-14.55039],[34.48668,-14.54959],[34.48641,-14.54833],[34.48648,-14.54654],[34.48655,-14.5457],[34.48663,-14.54526],[34.4869,-14.5446],[34.48696,-14.54381],[34.48679,-14.54337],[34.48683,-14.54315],[34.48694,-14.54291],[34.48697,-14.54274],[34.48699,-14.54255],[34.48703,-14.54193],[34.48691,-14.5411],[34.48685,-14.54069],[34.48675,-14.54027],[34.48656,-14.53981],[34.48621,-14.53895],[34.48571,-14.53806],[34.4855,-14.53751],[34.48519,-14.53686],[34.48483,-14.53633]]},"properties":{"id":396574440,"cls":"unclassified","hw":"unclassified","tg":"na","name":"","ref":"","surface":"","sc":"unknown","speed":null,"lit":"unk","km":1.97}},
{"type":"Feature","geometry":{"type":"LineString","coordinates":[[34.49055,-14.53791],[34.4903,-14.53753],[34.49009,-14.53716],[34.48993,-14.53692],[34.48978,-14.53666],[34.48966,-14.53626],[34.48955,-14.53581],[34.48939,-14.53508],[34.48933,-14.53491],[34.48922,-14.53473],[34.48899,-14.53424],[34.4889,-14.53355],[34.48886,-14.53342],[34.48878,-14.5333],[34.4885,-14.53284],[34.48832,-14.5326],[34.48824,-14.53246],[34.48818,-14.53231],[34.48803,-14.53146],[34.48791,-14.53094],[34.48787,-14.53079],[34.48784,-14.53062],[34.48777,-14.53046],[34.48757,-14.53023],[34.48752,-14.5302],[34.48744,-14.53017],[34.48736,-14.53016],[34.48726,-14.53015],[34.48703,-14.53019],[34.4869,-14.5302],[34.48672,-14.53015],[34.48655,-14.53011],[34.48617,-14.53],[34.48559,-14.52978],[34.48532,-14.52966],[34.48506,-14.52951],[34.48488,-14.52937],[34.48465,-14.52914],[34.48443,-14.52908],[34.48438,-14.52907],[34.48431,-14.52907],[34.48422,-14.52909],[34.48415,-14.52909],[34.48369,-14.52884],[34.4835,-14.52875]]},"properties":{"id":396574442,"cls":"unclassified","hw":"unclassified","tg":"na","name":"","ref":"","surface":"","sc":"unknown","speed":null,"lit":"unk","km":1.409}},
{"type":"Feature","geometry":{"type":"LineString","coordinates":[[34.49721,-14.55335],[34.49721,-14.55357],[34.49722,-14.55366],[34.49725,-14.55375],[34.49749,-14.55402],[34.49755,-14.5541],[34.49759,-14.55418],[34.4976,-14.55424],[34.49761,-14.55432],[34.49755,-14.5545],[34.49748,-14.55471],[34.49743,-14.55491],[34.49741,-14.55496],[34.49738,-14.555],[34.49721,-14.55513],[34.49697,-14.55537],[34.49671,-14.55562],[34.49661,-14.55567],[34.49648,-14.55571],[34.49622,-14.55576],[34.49603,-14.55577],[34.49592,-14.55577],[34.49585,-14.55578],[34.49579,-14.5558],[34.49571,-14.55585],[34.49564,-14.55591],[34.49548,-14.55607],[34.49521,-14.55644],[34.49479,-14.55704],[34.49469,-14.55719],[34.4946,-14.55734],[34.49431,-14.5582],[34.49427,-14.55824],[34.49416,-14.55831],[34.494,-14.55842],[34.49385,-14.55854],[34.4937,-14.55869],[34.49346,-14.55906],[34.49323,-14.55942],[34.49291,-14.55989],[34.49266,-14.56063],[34.49232,-14.56151],[34.49218,-14.56163],[34.49205,-14.56177],[34.49186,-14.56211],[34.49177,-14.56227],[34.49171,-14.56254],[34.49171,-14.56293],[34.49169,-14.56416],[34.49184,-14.56501],[34.49188,-14.56619],[34.49189,-14.56637],[34.49191,-14.56654],[34.49199,-14.56675],[34.49203,-14.56687],[34.49202,-14.56706],[34.49201,-14.56734],[34.49197,-14.5675],[34.49195,-14.56764],[34.49196,-14.56776],[34.49207,-14.56803],[34.49222,-14.56831],[34.49232,-14.5685],[34.49239,-14.56869],[34.49253,-14.56918],[34.49271,-14.57038]]},"properties":{"id":396574446,"cls":"unclassified","hw":"unclassified","tg":"na","name":"","ref":"","surface":"","sc":"unknown","speed":null,"lit":"unk","km":2.179}},
{"type":"Feature","geometry":{"type":"LineString","coordinates":[[34.4839,-14.53527],[34.48393,-14.53541],[34.48395,-14.53551],[34.48401,-14.5356],[34.48409,-14.53568],[34.48446,-14.53602],[34.48483,-14.53633],[34.48536,-14.53672],[34.48576,-14.537],[34.48591,-14.5371],[34.4869,-14.53752],[34.48848,-14.53807],[34.48999,-14.53861],[34.4909,-14.53889],[34.49207,-14.53922],[34.49263,-14.53942],[34.49308,-14.53966],[34.49343,-14.53989],[34.49398,-14.54051],[34.49444,-14.5412],[34.49463,-14.54156],[34.4947,-14.54172],[34.49474,-14.5419],[34.49472,-14.54298],[34.49458,-14.54429],[34.49447,-14.5447],[34.49438,-14.54511],[34.49426,-14.54563],[34.49417,-14.54614],[34.4941,-14.54664],[34.49409,-14.54684],[34.4941,-14.54702],[34.49422,-14.54757],[34.49437,-14.548],[34.49482,-14.54891],[34.49506,-14.54926],[34.49531,-14.54963],[34.49549,-14.54989],[34.49564,-14.55013],[34.49628,-14.55154],[34.49651,-14.55214],[34.49679,-14.5527],[34.49721,-14.55335],[34.49767,-14.55379],[34.49793,-14.55398],[34.49817,-14.55411],[34.49831,-14.55415],[34.49851,-14.55419],[34.49871,-14.55421],[34.49916,-14.55411],[34.50028,-14.5539],[34.50113,-14.5537],[34.50162,-14.55358],[34.50174,-14.55356],[34.5019,-14.55354],[34.50207,-14.55355],[34.50218,-14.55359],[34.50241,-14.55367],[34.50273,-14.55379],[34.50323,-14.55406],[34.50349,-14.55425],[34.5038,-14.55449],[34.50415,-14.55474],[34.50441,-14.5549],[34.50451,-14.55496],[34.50459,-14.55503],[34.50465,-14.5551],[34.50469,-14.55519],[34.50471,-14.55527],[34.50472,-14.55534],[34.50476,-14.55542],[34.50481,-14.55553],[34.50488,-14.55566],[34.50502,-14.55598],[34.50506,-14.55606],[34.50512,-14.55616],[34.50517,-14.55623],[34.50522,-14.55627],[34.50546,-14.55649],[34.50552,-14.55656],[34.50558,-14.55662],[34.50562,-14.55671],[34.50574,-14.55715],[34.50577,-14.55723],[34.50581,-14.55731],[34.50586,-14.55739],[34.50591,-14.55748],[34.50623,-14.55812],[34.50629,-14.55823],[34.50635,-14.55832],[34.50645,-14.55847],[34.50656,-14.55857],[34.50665,-14.55866],[34.50678,-14.55879],[34.50686,-14.55889],[34.50692,-14.55898],[34.50698,-14.55908],[34.50701,-14.55917],[34.5071,-14.55928],[34.50716,-14.55937],[34.50724,-14.55946],[34.50735,-14.55952],[34.50772,-14.55979]]},"properties":{"id":396574457,"cls":"unclassified","hw":"unclassified","tg":"na","name":"","ref":"","surface":"","sc":"unknown","speed":null,"lit":"unk","km":4.323}},
{"type":"Feature","geometry":{"type":"LineString","coordinates":[[34.48604,-14.55384],[34.48626,-14.55341],[34.48685,-14.55269],[34.48718,-14.55238],[34.48736,-14.55216],[34.48749,-14.55193],[34.48775,-14.55143],[34.48798,-14.55106],[34.48817,-14.55062],[34.48828,-14.55015],[34.4885,-14.54955],[34.48866,-14.54897],[34.48913,-14.54787],[34.48948,-14.54706],[34.48954,-14.54685],[34.48958,-14.54624],[34.48957,-14.54563],[34.48953,-14.54484],[34.48969,-14.54343],[34.48972,-14.54315],[34.49006,-14.54127],[34.49046,-14.54066],[34.49081,-14.54012],[34.49085,-14.53998],[34.49086,-14.53982],[34.49089,-14.53952],[34.4909,-14.53889],[34.49102,-14.53858],[34.49107,-14.53842],[34.49122,-14.5383]]},"properties":{"id":396583995,"cls":"unclassified","hw":"unclassified","tg":"na","name":"","ref":"","surface":"","sc":"unknown","speed":null,"lit":"unk","km":1.864}},
{"type":"Feature","geometry":{"type":"LineString","coordinates":[[34.45669,-14.50695],[34.45717,-14.5067],[34.45776,-14.50623],[34.45785,-14.50614],[34.45792,-14.50605],[34.45794,-14.50593],[34.45799,-14.50584],[34.45808,-14.50578],[34.45817,-14.50577],[34.45882,-14.50567],[34.4592,-14.50567],[34.45939,-14.50572],[34.45956,-14.50579],[34.45996,-14.50586],[34.46006,-14.50583],[34.46019,-14.50577],[34.46065,-14.50562]]},"properties":{"id":396586660,"cls":"residential","hw":"residential","tg":"na","name":"","ref":"","surface":"","sc":"unknown","speed":null,"lit":"unk","km":0.489}},
{"type":"Feature","geometry":{"type":"LineString","coordinates":[[34.45994,-14.51083],[34.46062,-14.51051],[34.46076,-14.51045],[34.46103,-14.51042],[34.46119,-14.51041],[34.46126,-14.5104],[34.46188,-14.51027],[34.46197,-14.51022],[34.46204,-14.51015],[34.46204,-14.51007],[34.46203,-14.50998],[34.46185,-14.50959],[34.46156,-14.50908],[34.461,-14.50816],[34.46081,-14.50771],[34.46076,-14.50705],[34.46056,-14.50638],[34.46043,-14.50618],[34.46027,-14.50594],[34.46019,-14.50577],[34.46005,-14.50529],[34.45993,-14.50478],[34.45993,-14.5037],[34.45992,-14.50327],[34.45996,-14.50283],[34.46001,-14.50272],[34.46034,-14.50221],[34.46076,-14.5016],[34.46086,-14.50152],[34.46095,-14.50148],[34.46116,-14.50141],[34.46128,-14.50139],[34.46135,-14.50136],[34.46142,-14.50131],[34.46205,-14.5006],[34.46235,-14.50026],[34.46263,-14.49987],[34.46268,-14.49978],[34.46273,-14.49967],[34.46276,-14.49955],[34.46281,-14.4994],[34.46283,-14.49925],[34.46283,-14.49913],[34.46281,-14.49902],[34.46278,-14.4989],[34.46274,-14.49872],[34.46266,-14.49855],[34.46256,-14.49832],[34.46242,-14.49801],[34.4623,-14.49771],[34.46227,-14.49757],[34.46224,-14.49735],[34.46223,-14.49717],[34.46223,-14.49706],[34.46224,-14.49679],[34.46226,-14.4966],[34.4623,-14.49642],[34.46235,-14.49628],[34.46245,-14.49606],[34.46248,-14.49598],[34.46254,-14.49581],[34.46259,-14.49565],[34.46261,-14.49555],[34.46264,-14.49544],[34.4627,-14.49532],[34.4628,-14.49519],[34.46287,-14.49509],[34.46295,-14.49489],[34.46305,-14.4947],[34.46308,-14.49464],[34.46319,-14.49446],[34.46328,-14.49431],[34.46334,-14.4942],[34.46337,-14.4941],[34.4634,-14.49396],[34.46341,-14.49381],[34.46344,-14.49358],[34.46347,-14.49329],[34.46347,-14.49286],[34.46342,-14.49233],[34.46339,-14.49204],[34.46335,-14.4918],[34.4633,-14.49162],[34.46328,-14.49142],[34.46326,-14.49114],[34.46322,-14.49081],[34.4632,-14.4905],[34.46321,-14.49031]]},"properties":{"id":396586666,"cls":"unclassified","hw":"unclassified","tg":"na","name":"","ref":"","surface":"","sc":"unknown","speed":null,"lit":"unk","km":2.662}},
{"type":"Feature","geometry":{"type":"LineString","coordinates":[[34.49523,-14.69485],[34.49533,-14.6949],[34.49545,-14.6949],[34.49578,-14.69469],[34.49587,-14.6947],[34.49594,-14.6948],[34.49621,-14.69473],[34.49649,-14.69447],[34.49666,-14.69439],[34.49701,-14.69401],[34.49768,-14.69357],[34.49804,-14.69318],[34.49871,-14.69316],[34.49911,-14.69301],[34.49918,-14.69291],[34.49926,-14.6926],[34.49933,-14.69249],[34.49954,-14.69236],[34.49997,-14.6922],[34.50136,-14.69203],[34.50316,-14.69161],[34.5038,-14.69155],[34.50464,-14.69131],[34.50928,-14.6898],[34.5096,-14.68962],[34.50995,-14.68941],[34.51143,-14.68898],[34.51187,-14.6888],[34.51209,-14.68868],[34.51226,-14.68858],[34.51318,-14.68806],[34.51344,-14.68798],[34.51371,-14.68794],[34.51443,-14.68788],[34.5148,-14.68786],[34.51507,-14.68784],[34.51577,-14.68767],[34.51638,-14.68752],[34.51679,-14.68742],[34.51707,-14.68734],[34.51729,-14.68725],[34.51751,-14.68711],[34.51799,-14.68673],[34.51832,-14.6863],[34.51871,-14.68581],[34.51906,-14.68526],[34.51927,-14.68473],[34.51946,-14.6845],[34.51972,-14.68437],[34.51989,-14.68424]]},"properties":{"id":399031297,"cls":"unclassified","hw":"unclassified","tg":"na","name":"","ref":"","surface":"unpaved","sc":"unpaved","speed":null,"lit":"unk","km":3.046}},
{"type":"Feature","geometry":{"type":"LineString","coordinates":[[34.46109,-14.51314],[34.45991,-14.51342],[34.45845,-14.51355],[34.45737,-14.51352],[34.45644,-14.51324],[34.45558,-14.51316],[34.45394,-14.51359],[34.45376,-14.5137],[34.45359,-14.51392],[34.4533,-14.51417],[34.45295,-14.51439],[34.45248,-14.51476],[34.45192,-14.51502],[34.45105,-14.51571],[34.45054,-14.51603],[34.45009,-14.51626],[34.44939,-14.51673],[34.44893,-14.51704],[34.44857,-14.51716],[34.44818,-14.51737],[34.44791,-14.51746],[34.44667,-14.51772],[34.44558,-14.51787],[34.44529,-14.51795],[34.44494,-14.51805],[34.44285,-14.51802],[34.44243,-14.51805],[34.44188,-14.518],[34.44133,-14.51801],[34.43981,-14.51794],[34.43909,-14.51784],[34.43868,-14.51786],[34.43762,-14.51782],[34.43608,-14.51795],[34.4349,-14.51795],[34.43339,-14.51759],[34.43305,-14.51762],[34.4326,-14.51755],[34.43172,-14.51755],[34.43048,-14.51758],[34.42939,-14.51767],[34.42882,-14.51782],[34.42777,-14.51793],[34.4275,-14.51792],[34.42715,-14.51793],[34.42663,-14.51781],[34.42638,-14.51782],[34.42599,-14.51771],[34.42482,-14.5175],[34.42427,-14.51735],[34.42344,-14.51756],[34.42175,-14.51767],[34.42141,-14.51777],[34.42059,-14.51827],[34.41969,-14.51866],[34.41831,-14.51908],[34.41798,-14.51909]]},"properties":{"id":399277232,"cls":"track","hw":"track","tg":"none","name":"","ref":"","surface":"","sc":"unknown","speed":null,"lit":"unk","km":4.856}},
{"type":"Feature","geometry":{"type":"LineString","coordinates":[[34.45086,-14.5051],[34.4509,-14.50477],[34.45099,-14.50458],[34.45102,-14.50425],[34.45114,-14.50372],[34.4513,-14.50343],[34.45132,-14.50326],[34.45124,-14.50308],[34.45094,-14.50279],[34.45079,-14.50257],[34.45047,-14.50204],[34.45054,-14.50191],[34.45065,-14.5018]]},"properties":{"id":399667066,"cls":"track","hw":"track","tg":"none","name":"","ref":"","surface":"","sc":"unknown","speed":null,"lit":"unk","km":0.411}},
{"type":"Feature","geometry":{"type":"LineString","coordinates":[[34.44096,-14.50042],[34.44136,-14.5004],[34.44188,-14.50032],[34.44311,-14.49978],[34.44378,-14.4996],[34.44417,-14.49942],[34.44474,-14.49939],[34.44513,-14.49928],[34.44581,-14.49882],[34.4464,-14.49858],[34.44657,-14.49849],[34.44681,-14.49827],[34.4469,-14.49817],[34.4472,-14.49804],[34.44814,-14.49773],[34.44848,-14.49762],[34.44879,-14.49747],[34.44914,-14.49723]]},"properties":{"id":399667079,"cls":"path","hw":"path","tg":"na","name":"","ref":"","surface":"","sc":"unknown","speed":null,"lit":"unk","km":0.965}},
{"type":"Feature","geometry":{"type":"LineString","coordinates":[[34.44975,-14.50508],[34.44997,-14.50498],[34.45002,-14.50497],[34.45007,-14.50498],[34.45024,-14.50502],[34.45046,-14.5051],[34.45061,-14.50512],[34.45073,-14.50512],[34.45086,-14.5051],[34.45124,-14.50499],[34.45156,-14.50474],[34.45168,-14.50464],[34.45183,-14.50452],[34.4519,-14.50448],[34.452,-14.50443],[34.45211,-14.50465],[34.4522,-14.50481],[34.45237,-14.50498],[34.45262,-14.50507],[34.45286,-14.50511],[34.45298,-14.50513],[34.45328,-14.50523]]},"properties":{"id":399667091,"cls":"unclassified","hw":"unclassified","tg":"na","name":"","ref":"","surface":"","sc":"unknown","speed":null,"lit":"unk","km":0.446}},
{"type":"Feature","geometry":{"type":"LineString","coordinates":[[34.45237,-14.50498],[34.45246,-14.50515],[34.45257,-14.50561],[34.45359,-14.50709],[34.4543,-14.50832],[34.45516,-14.50919],[34.45632,-14.50994],[34.45701,-14.51057],[34.45776,-14.51088],[34.45837,-14.51114],[34.45884,-14.51118],[34.45982,-14.51094]]},"properties":{"id":404711741,"cls":"track","hw":"track","tg":"none","name":"","ref":"","surface":"","sc":"unknown","speed":null,"lit":"unk","km":1.134}},
{"type":"Feature","geometry":{"type":"LineString","coordinates":[[34.48395,-14.53551],[34.48311,-14.53547],[34.48221,-14.53552],[34.48137,-14.53549],[34.48,-14.53518],[34.47934,-14.53506],[34.47861,-14.53478],[34.47784,-14.53447],[34.47665,-14.53393],[34.47454,-14.53266],[34.47426,-14.53242],[34.474,-14.53211],[34.47383,-14.53183],[34.47373,-14.53166],[34.47365,-14.53145],[34.4732,-14.52971],[34.47286,-14.52886],[34.47231,-14.52775],[34.47073,-14.52504],[34.4706,-14.52487],[34.47044,-14.52469],[34.47012,-14.52436],[34.46914,-14.5236],[34.46703,-14.52177],[34.46534,-14.52037],[34.46496,-14.52002]]},"properties":{"id":404711772,"cls":"unclassified","hw":"unclassified","tg":"na","name":"","ref":"","surface":"","sc":"unknown","speed":null,"lit":"unk","km":2.872}},
{"type":"Feature","geometry":{"type":"LineString","coordinates":[[34.46293,-14.52078],[34.46297,-14.51948]]},"properties":{"id":404767237,"cls":"residential","hw":"residential","tg":"na","name":"","ref":"","surface":"","sc":"unknown","speed":null,"lit":"unk","km":0.145}},
{"type":"Feature","geometry":{"type":"LineString","coordinates":[[34.46297,-14.51948],[34.46321,-14.51824],[34.46328,-14.51818],[34.46335,-14.51814],[34.46343,-14.51813],[34.46373,-14.5181]]},"properties":{"id":404767344,"cls":"residential","hw":"residential","tg":"na","name":"","ref":"","surface":"","sc":"unknown","speed":null,"lit":"unk","km":0.2}},
{"type":"Feature","geometry":{"type":"LineString","coordinates":[[34.46413,-14.51937],[34.46372,-14.51949],[34.46352,-14.51955],[34.46343,-14.51957],[34.46335,-14.51957],[34.46297,-14.51948]]},"properties":{"id":404767346,"cls":"residential","hw":"residential","tg":"na","name":"","ref":"","surface":"","sc":"unknown","speed":null,"lit":"unk","km":0.129}},
{"type":"Feature","geometry":{"type":"LineString","coordinates":[[34.4533,-14.50215],[34.45352,-14.50218],[34.45432,-14.50232],[34.45503,-14.50249],[34.45525,-14.5026],[34.45535,-14.50267],[34.45542,-14.50274],[34.45552,-14.50313],[34.45554,-14.50323]]},"properties":{"id":404767416,"cls":"residential","hw":"residential","tg":"na","name":"","ref":"","surface":"","sc":"unknown","speed":null,"lit":"unk","km":0.297}},
{"type":"Feature","geometry":{"type":"LineString","coordinates":[[34.46297,-14.51948],[34.46293,-14.51942],[34.46287,-14.51937],[34.46261,-14.51925],[34.46232,-14.51913],[34.46218,-14.5191],[34.46208,-14.51908],[34.46196,-14.51903],[34.4619,-14.519],[34.46184,-14.51895],[34.46176,-14.51888],[34.4617,-14.51881],[34.46159,-14.51872],[34.46141,-14.51859],[34.46126,-14.51843],[34.46115,-14.51832],[34.46103,-14.51825],[34.46092,-14.51815],[34.46049,-14.51737]]},"properties":{"id":404767424,"cls":"residential","hw":"residential","tg":"na","name":"","ref":"","surface":"","sc":"unknown","speed":null,"lit":"unk","km":0.37}},
{"type":"Feature","geometry":{"type":"LineString","coordinates":[[34.46023,-14.51872],[34.46092,-14.51815],[34.46131,-14.51796],[34.46136,-14.51791],[34.4614,-14.51785],[34.46142,-14.51769],[34.46143,-14.5176],[34.46145,-14.51754],[34.46151,-14.51747],[34.46159,-14.51742],[34.46177,-14.51732],[34.46192,-14.51725],[34.46211,-14.51719],[34.4625,-14.51707],[34.46265,-14.51698],[34.46287,-14.51681],[34.46299,-14.5167]]},"properties":{"id":404767425,"cls":"residential","hw":"residential","tg":"na","name":"","ref":"","surface":"","sc":"unknown","speed":null,"lit":"unk","km":0.389}},
{"type":"Feature","geometry":{"type":"LineString","coordinates":[[34.46157,-14.514],[34.46074,-14.51437]]},"properties":{"id":483319285,"cls":"residential","hw":"residential","tg":"na","name":"","ref":"","surface":"","sc":"unknown","speed":null,"lit":"unk","km":0.098}},
{"type":"Feature","geometry":{"type":"LineString","coordinates":[[34.46414,-14.51571],[34.46414,-14.51576],[34.46416,-14.51585],[34.46418,-14.51595],[34.46422,-14.51607],[34.4643,-14.51623],[34.46436,-14.5163],[34.46447,-14.51632],[34.46458,-14.51634],[34.46466,-14.51637],[34.46477,-14.51644],[34.465,-14.51659],[34.46526,-14.51687],[34.46547,-14.51713],[34.46552,-14.51728],[34.46559,-14.51738],[34.46566,-14.51743],[34.46585,-14.5175],[34.46598,-14.51752],[34.46606,-14.51753],[34.46616,-14.51754],[34.4662,-14.51753],[34.46623,-14.51751],[34.46628,-14.51747],[34.46635,-14.51744],[34.46642,-14.51744],[34.46648,-14.51745],[34.46655,-14.51745],[34.46664,-14.51745],[34.46674,-14.51745],[34.46685,-14.51745]]},"properties":{"id":658329856,"cls":"residential","hw":"residential","tg":"na","name":"","ref":"","surface":"","sc":"unknown","speed":null,"lit":"unk","km":0.4}},
{"type":"Feature","geometry":{"type":"LineString","coordinates":[[34.46414,-14.51571],[34.46456,-14.51569],[34.46508,-14.51562],[34.46528,-14.51562],[34.46549,-14.5156]]},"properties":{"id":658329857,"cls":"residential","hw":"residential","tg":"na","name":"","ref":"","surface":"","sc":"unknown","speed":null,"lit":"unk","km":0.146}},
{"type":"Feature","geometry":{"type":"LineString","coordinates":[[34.46307,-14.51324],[34.46308,-14.51313],[34.46307,-14.51307],[34.46305,-14.51303],[34.46282,-14.51269]]},"properties":{"id":658335695,"cls":"residential","hw":"residential","tg":"na","name":"","ref":"","surface":"","sc":"unknown","speed":null,"lit":"unk","km":0.069}},
{"type":"Feature","geometry":{"type":"LineString","coordinates":[[34.46186,-14.51405],[34.46307,-14.51324],[34.46411,-14.51252]]},"properties":{"id":658335696,"cls":"residential","hw":"residential","tg":"na","name":"","ref":"","surface":"","sc":"unknown","speed":null,"lit":"unk","km":0.296}},
{"type":"Feature","geometry":{"type":"LineString","coordinates":[[34.4606,-14.51172],[34.46092,-14.51157],[34.46102,-14.5115],[34.46112,-14.51135],[34.46131,-14.51117],[34.46146,-14.51108],[34.4615,-14.51105],[34.46151,-14.51101],[34.4615,-14.51097],[34.46139,-14.51071],[34.46119,-14.51041]]},"properties":{"id":658335697,"cls":"residential","hw":"residential","tg":"na","name":"","ref":"","surface":"","sc":"unknown","speed":null,"lit":"unk","km":0.205}},
{"type":"Feature","geometry":{"type":"LineString","coordinates":[[34.461,-14.50816],[34.46094,-14.50825],[34.46091,-14.50829],[34.46087,-14.50835],[34.46086,-14.50845],[34.46088,-14.50872],[34.4609,-14.50882],[34.46093,-14.50891],[34.46094,-14.50899],[34.46094,-14.50903],[34.46093,-14.50906],[34.4609,-14.50908],[34.46086,-14.50911],[34.46078,-14.50919],[34.46071,-14.50925],[34.46065,-14.50933],[34.46062,-14.50941],[34.4606,-14.50951],[34.46058,-14.5096],[34.46051,-14.50978],[34.46046,-14.50989],[34.46039,-14.50998],[34.46037,-14.51006],[34.46036,-14.51014],[34.46041,-14.51026],[34.46062,-14.51051]]},"properties":{"id":658335698,"cls":"residential","hw":"residential","tg":"na","name":"","ref":"","surface":"","sc":"unknown","speed":null,"lit":"unk","km":0.295}},
{"type":"Feature","geometry":{"type":"LineString","coordinates":[[34.48606,-14.53404],[34.48607,-14.53387],[34.48605,-14.53378],[34.486,-14.53369],[34.48596,-14.5336],[34.48594,-14.53346],[34.48596,-14.53316],[34.48596,-14.53297],[34.48599,-14.53286],[34.48604,-14.53272],[34.48608,-14.53264],[34.48615,-14.53258],[34.48624,-14.53256],[34.48637,-14.53255],[34.48652,-14.53256],[34.48664,-14.53258],[34.48673,-14.53261],[34.48685,-14.53262],[34.48718,-14.53255],[34.48732,-14.53247],[34.48756,-14.53221],[34.48772,-14.53194],[34.48778,-14.53181],[34.48783,-14.53161],[34.48787,-14.53132],[34.48789,-14.53112],[34.48791,-14.53094]]},"properties":{"id":658359858,"cls":"residential","hw":"residential","tg":"na","name":"","ref":"","surface":"","sc":"unknown","speed":null,"lit":"unk","km":0.488}},
{"type":"Feature","geometry":{"type":"LineString","coordinates":[[34.46549,-14.5156],[34.46551,-14.51402],[34.46549,-14.51364]]},"properties":{"id":658359859,"cls":"unclassified","hw":"unclassified","tg":"na","name":"","ref":"","surface":"","sc":"unknown","speed":null,"lit":"unk","km":0.218}},
{"type":"Feature","geometry":{"type":"LineString","coordinates":[[34.48631,-14.53557],[34.4862,-14.53538],[34.4862,-14.53523],[34.48627,-14.53499],[34.48647,-14.53454],[34.48649,-14.53439],[34.48655,-14.53427],[34.48663,-14.53419],[34.48667,-14.53413],[34.48669,-14.53404],[34.48667,-14.5339]]},"properties":{"id":658359860,"cls":"residential","hw":"residential","tg":"na","name":"","ref":"","surface":"","sc":"unknown","speed":null,"lit":"unk","km":0.201}},
{"type":"Feature","geometry":{"type":"LineString","coordinates":[[34.48465,-14.52914],[34.48475,-14.52907],[34.48497,-14.52901],[34.48512,-14.52897],[34.48527,-14.52896],[34.48537,-14.52899],[34.4855,-14.52903],[34.48559,-14.5291],[34.48566,-14.52922],[34.48571,-14.5293],[34.48577,-14.52934],[34.48587,-14.5294],[34.48597,-14.5295],[34.48615,-14.52975],[34.48634,-14.52986],[34.48646,-14.52993],[34.48657,-14.53001],[34.48662,-14.53004],[34.48672,-14.53015]]},"properties":{"id":658359861,"cls":"residential","hw":"residential","tg":"na","name":"","ref":"","surface":"","sc":"unknown","speed":null,"lit":"unk","km":0.281}},
{"type":"Feature","geometry":{"type":"LineString","coordinates":[[34.48668,-14.52724],[34.48688,-14.52731],[34.48709,-14.52734],[34.48729,-14.52733],[34.48746,-14.52728],[34.48755,-14.52719],[34.48762,-14.52705],[34.48767,-14.527],[34.48772,-14.52697]]},"properties":{"id":658359862,"cls":"residential","hw":"residential","tg":"na","name":"","ref":"","surface":"","sc":"unknown","speed":null,"lit":"unk","km":0.132}},
{"type":"Feature","geometry":{"type":"LineString","coordinates":[[34.48657,-14.53001],[34.48659,-14.52983],[34.4866,-14.52958],[34.48669,-14.52932],[34.48668,-14.52917],[34.48643,-14.52891],[34.48634,-14.52873],[34.48629,-14.52861],[34.48609,-14.52841]]},"properties":{"id":658359863,"cls":"residential","hw":"residential","tg":"na","name":"","ref":"","surface":"","sc":"unknown","speed":null,"lit":"unk","km":0.202}},
{"type":"Feature","geometry":{"type":"LineString","coordinates":[[34.48672,-14.53015],[34.48663,-14.53021],[34.48652,-14.53022],[34.48637,-14.53022],[34.48624,-14.53025],[34.48602,-14.53032],[34.48573,-14.53037],[34.48552,-14.53044],[34.48541,-14.53051],[34.48531,-14.53062],[34.48515,-14.53076],[34.48499,-14.53085],[34.48486,-14.53093],[34.48478,-14.53099],[34.48473,-14.53105],[34.48472,-14.53115],[34.48469,-14.5314],[34.48468,-14.5316],[34.48469,-14.53171],[34.48471,-14.53178],[34.48471,-14.53184],[34.48469,-14.53191],[34.48458,-14.53203],[34.48438,-14.53221],[34.48427,-14.53232],[34.48399,-14.5327],[34.48386,-14.53287],[34.48371,-14.533],[34.48353,-14.53317],[34.48336,-14.53331],[34.48332,-14.53336],[34.48328,-14.53343],[34.48325,-14.53366],[34.48322,-14.53373],[34.48318,-14.5338],[34.48307,-14.53387],[34.48294,-14.53389],[34.4828,-14.53387],[34.48257,-14.53381],[34.4823,-14.53378],[34.48193,-14.53374],[34.48156,-14.53363],[34.48126,-14.53357],[34.48096,-14.53353],[34.48079,-14.53354],[34.48063,-14.53354]]},"properties":{"id":658359864,"cls":"residential","hw":"residential","tg":"na","name":"","ref":"","surface":"","sc":"unknown","speed":null,"lit":"unk","km":0.894}},
{"type":"Feature","geometry":{"type":"LineString","coordinates":[[34.48438,-14.52907],[34.48443,-14.52898],[34.4845,-14.52892],[34.48469,-14.52885],[34.48495,-14.52876],[34.48517,-14.5287],[34.48555,-14.52867],[34.48583,-14.52865],[34.486,-14.52855],[34.48609,-14.52841],[34.48613,-14.52834],[34.48622,-14.52817],[34.4863,-14.528],[34.48637,-14.5279],[34.48648,-14.52776],[34.48653,-14.5276],[34.48657,-14.52736],[34.48668,-14.52724],[34.48679,-14.52712],[34.48689,-14.52697]]},"properties":{"id":658359865,"cls":"residential","hw":"residential","tg":"na","name":"","ref":"","surface":"","sc":"unknown","speed":null,"lit":"unk","km":0.394}},
{"type":"Feature","geometry":{"type":"LineString","coordinates":[[34.47051,-14.52315],[34.47084,-14.52359],[34.47118,-14.52399],[34.47154,-14.52429],[34.47166,-14.52441],[34.4717,-14.52452],[34.47156,-14.52611]]},"properties":{"id":658359866,"cls":"residential","hw":"residential","tg":"na","name":"","ref":"","surface":"","sc":"unknown","speed":null,"lit":"unk","km":0.378}},
{"type":"Feature","geometry":{"type":"LineString","coordinates":[[34.46906,-14.52906],[34.46931,-14.52897],[34.46955,-14.52891],[34.46977,-14.52888],[34.46986,-14.52885],[34.46995,-14.52885],[34.47002,-14.52888],[34.47012,-14.52896],[34.47024,-14.52902],[34.47036,-14.52907],[34.47043,-14.52907],[34.4706,-14.52906],[34.47069,-14.52903],[34.4708,-14.52902],[34.47097,-14.52904],[34.47113,-14.52906],[34.47144,-14.52909],[34.47163,-14.5291],[34.47187,-14.52909],[34.47214,-14.52906],[34.47239,-14.52903],[34.47259,-14.52898],[34.47271,-14.52894],[34.47286,-14.52886]]},"properties":{"id":659851205,"cls":"residential","hw":"residential","tg":"na","name":"","ref":"","surface":"","sc":"unknown","speed":null,"lit":"unk","km":0.424}},
{"type":"Feature","geometry":{"type":"LineString","coordinates":[[34.46915,-14.52955],[34.46938,-14.52953],[34.46946,-14.52953],[34.4695,-14.52954],[34.46961,-14.52958],[34.46974,-14.52959],[34.46986,-14.52961],[34.46993,-14.52964],[34.47,-14.52968],[34.47005,-14.5297],[34.4701,-14.52972],[34.47021,-14.52972],[34.4703,-14.52971],[34.47041,-14.52971],[34.47052,-14.52974],[34.47059,-14.52977],[34.47071,-14.52986],[34.47084,-14.52994],[34.47088,-14.53001],[34.47098,-14.53015],[34.47111,-14.53028],[34.47115,-14.53036],[34.47119,-14.53047],[34.47124,-14.53061],[34.47127,-14.53068],[34.47129,-14.53074],[34.47132,-14.53077],[34.47136,-14.5308],[34.47167,-14.53096],[34.472,-14.53107],[34.47208,-14.53111],[34.47212,-14.53115],[34.47217,-14.53121],[34.47228,-14.53131],[34.4725,-14.53147],[34.4726,-14.53153],[34.47267,-14.53156],[34.47275,-14.5316],[34.47288,-14.53164],[34.47306,-14.53168],[34.47327,-14.5317],[34.47342,-14.53167],[34.47351,-14.53165],[34.47357,-14.53164],[34.47365,-14.53165],[34.47373,-14.53166]]},"properties":{"id":659851206,"cls":"residential","hw":"residential","tg":"na","name":"","ref":"","surface":"","sc":"unknown","speed":null,"lit":"unk","km":0.59}},
{"type":"Feature","geometry":{"type":"LineString","coordinates":[[34.46708,-14.52409],[34.46711,-14.52403],[34.46717,-14.52385],[34.46724,-14.52366],[34.46728,-14.52345]]},"properties":{"id":659852273,"cls":"residential","hw":"residential","tg":"na","name":"","ref":"","surface":"","sc":"unknown","speed":null,"lit":"unk","km":0.075}},
{"type":"Feature","geometry":{"type":"LineString","coordinates":[[34.46708,-14.52409],[34.46691,-14.52458],[34.46683,-14.52477],[34.46673,-14.52498],[34.46666,-14.52521],[34.46662,-14.5254],[34.46661,-14.52562]]},"properties":{"id":659852274,"cls":"residential","hw":"residential","tg":"na","name":"","ref":"","surface":"","sc":"unknown","speed":null,"lit":"unk","km":0.179}},
{"type":"Feature","geometry":{"type":"LineString","coordinates":[[34.46148,-14.52577],[34.46179,-14.52576],[34.46197,-14.52574],[34.4621,-14.52572],[34.46221,-14.52565],[34.46234,-14.5256],[34.46252,-14.52555],[34.4628,-14.52553],[34.46293,-14.52552],[34.46312,-14.52547],[34.46331,-14.5254],[34.46356,-14.52534],[34.46386,-14.52527],[34.46406,-14.52518],[34.46424,-14.52507],[34.4644,-14.52497],[34.46469,-14.52478],[34.46489,-14.52464],[34.46526,-14.52447],[34.46557,-14.52431],[34.46572,-14.5242],[34.46591,-14.52412],[34.46605,-14.52407],[34.46617,-14.52405],[34.46629,-14.52405],[34.4664,-14.52407],[34.46662,-14.52406],[34.46667,-14.52404],[34.46673,-14.52404],[34.46681,-14.52405],[34.46687,-14.52408],[34.46689,-14.5241],[34.46692,-14.52411],[34.46696,-14.52411],[34.467,-14.5241],[34.46708,-14.52409]]},"properties":{"id":659852275,"cls":"residential","hw":"residential","tg":"na","name":"","ref":"","surface":"","sc":"unknown","speed":null,"lit":"unk","km":0.651}},
{"type":"Feature","geometry":{"type":"LineString","coordinates":[[34.46808,-14.52484],[34.4679,-14.52519],[34.46785,-14.52526],[34.4678,-14.52529],[34.4674,-14.5254],[34.46685,-14.52553],[34.46667,-14.52559],[34.46661,-14.52562],[34.46655,-14.52568],[34.46643,-14.52587],[34.4662,-14.5263],[34.46601,-14.52665],[34.4657,-14.52714],[34.46547,-14.52763],[34.4653,-14.5283],[34.46529,-14.52864],[34.4653,-14.52932],[34.46535,-14.52983],[34.46533,-14.52999],[34.46531,-14.53018],[34.46532,-14.53051],[34.46534,-14.53081]]},"properties":{"id":659852276,"cls":"residential","hw":"residential","tg":"na","name":"","ref":"","surface":"","sc":"unknown","speed":null,"lit":"unk","km":0.805}},
{"type":"Feature","geometry":{"type":"LineString","coordinates":[[34.46198,-14.52421],[34.46209,-14.52399],[34.46214,-14.52391],[34.46222,-14.52384],[34.46235,-14.52379],[34.46258,-14.52373],[34.46311,-14.52372],[34.46335,-14.52369],[34.46366,-14.5236],[34.46389,-14.52356],[34.46412,-14.52349],[34.46426,-14.52341],[34.46441,-14.52333],[34.46449,-14.52325],[34.46457,-14.52318],[34.46471,-14.5231],[34.46479,-14.52303],[34.46489,-14.5229],[34.46504,-14.52274],[34.46521,-14.52256],[34.46551,-14.52231],[34.46565,-14.52218],[34.46573,-14.52208],[34.46584,-14.52193],[34.46594,-14.52181],[34.46603,-14.52165]]},"properties":{"id":659852277,"cls":"residential","hw":"residential","tg":"na","name":"","ref":"","surface":"","sc":"unknown","speed":null,"lit":"unk","km":0.553}},
{"type":"Feature","geometry":{"type":"LineString","coordinates":[[34.46556,-14.51869],[34.46578,-14.5185],[34.46598,-14.51836],[34.46607,-14.51827],[34.46613,-14.51819],[34.46623,-14.51813],[34.46633,-14.51801],[34.46656,-14.51772],[34.46668,-14.51757],[34.46672,-14.51752],[34.46676,-14.51749],[34.46685,-14.51745],[34.46717,-14.51734],[34.46765,-14.51717],[34.46781,-14.51707]]},"properties":{"id":661067715,"cls":"residential","hw":"residential","tg":"na","name":"","ref":"","surface":"","sc":"unknown","speed":null,"lit":"unk","km":0.31}},
{"type":"Feature","geometry":{"type":"LineString","coordinates":[[34.07682,-14.50609],[34.07706,-14.50538],[34.07732,-14.50474],[34.07749,-14.50427],[34.07764,-14.50384],[34.07774,-14.50354],[34.07782,-14.50331],[34.07787,-14.50312],[34.07793,-14.50291],[34.07796,-14.50281],[34.078,-14.50277],[34.07811,-14.50274],[34.07824,-14.50272],[34.07834,-14.50268],[34.07841,-14.50262],[34.07851,-14.50248],[34.07862,-14.5023],[34.07874,-14.50194],[34.07893,-14.5014],[34.07911,-14.50082],[34.07922,-14.5005],[34.07935,-14.50019],[34.07949,-14.49978],[34.07959,-14.49946],[34.07969,-14.49912],[34.07983,-14.49875],[34.07995,-14.49835],[34.0801,-14.4979],[34.08023,-14.4974],[34.08035,-14.49697],[34.08044,-14.49663],[34.08067,-14.49572],[34.0808,-14.49527],[34.0809,-14.49498],[34.08097,-14.49477],[34.08109,-14.49437],[34.0814,-14.49337],[34.08163,-14.49276],[34.08184,-14.492],[34.08196,-14.49166],[34.08215,-14.49112],[34.08224,-14.49073],[34.08232,-14.49046],[34.0824,-14.49017],[34.08246,-14.48992],[34.08254,-14.48965],[34.08261,-14.48937],[34.08264,-14.48924],[34.08267,-14.4891],[34.0827,-14.48902],[34.0828,-14.48871],[34.08295,-14.48821],[34.08312,-14.4877],[34.08327,-14.48721],[34.08343,-14.48669],[34.08361,-14.48611],[34.08381,-14.48546],[34.08403,-14.48471],[34.08411,-14.48444],[34.08431,-14.48377],[34.08442,-14.48336],[34.08447,-14.48323],[34.08451,-14.48303],[34.08454,-14.48293],[34.08461,-14.48281],[34.08468,-14.48258],[34.0847,-14.48254],[34.08473,-14.48245],[34.08479,-14.48222],[34.08489,-14.48192],[34.0849,-14.48188],[34.08497,-14.48167],[34.08501,-14.48145],[34.08506,-14.48129],[34.08508,-14.48121],[34.08508,-14.48119],[34.08515,-14.48098],[34.08524,-14.48068],[34.08535,-14.48035],[34.08552,-14.47983],[34.08572,-14.47911],[34.0859,-14.47847],[34.08609,-14.47792],[34.08617,-14.47762],[34.08621,-14.47746],[34.08631,-14.47715],[34.08646,-14.47664],[34.08658,-14.47626],[34.08671,-14.47588],[34.08679,-14.4756],[34.08693,-14.47515],[34.08707,-14.47472],[34.08724,-14.47419],[34.08751,-14.47332],[34.08776,-14.47248],[34.08783,-14.47225],[34.08789,-14.47206],[34.08791,-14.47196],[34.08794,-14.47188],[34.08795,-14.47184],[34.08798,-14.47177],[34.08801,-14.4717],[34.08804,-14.47163],[34.08807,-14.47156],[34.0881,-14.4715],[34.08812,-14.47145],[34.08813,-14.4714],[34.08816,-14.47132],[34.08818,-14.47126],[34.08821,-14.47118],[34.08822,-14.47113],[34.08823,-14.47108],[34.08824,-14.47101],[34.08826,-14.47096],[34.08827,-14.47091],[34.08828,-14.47085],[34.0883,-14.47076],[34.08831,-14.47071],[34.08832,-14.47067],[34.08833,-14.47063],[34.08835,-14.47059],[34.08836,-14.47056],[34.08838,-14.47051],[34.08838,-14.47046],[34.0884,-14.47042],[34.08842,-14.47036],[34.08843,-14.47032],[34.08846,-14.47026],[34.08849,-14.4702],[34.08852,-14.47014],[34.08854,-14.47009],[34.08856,-14.47003],[34.08858,-14.46997],[34.08861,-14.46988],[34.08863,-14.46981],[34.08865,-14.46974],[34.08868,-14.46965],[34.0887,-14.46959],[34.08873,-14.46952],[34.08877,-14.46943],[34.0888,-14.46937],[34.08882,-14.46932],[34.08884,-14.46927],[34.08887,-14.46923],[34.08899,-14.469],[34.08918,-14.46871],[34.08931,-14.46851],[34.08935,-14.46845],[34.08943,-14.46831],[34.08954,-14.46813],[34.08968,-14.46796],[34.08985,-14.46777],[34.09,-14.46752],[34.09012,-14.46732],[34.0902,-14.46716],[34.09035,-14.46698],[34.09046,-14.46682],[34.09061,-14.46659],[34.0908,-14.46633],[34.09093,-14.46616],[34.09099,-14.46607],[34.09109,-14.46589],[34.0912,-14.4657],[34.09141,-14.46535],[34.09155,-14.46516],[34.0917,-14.46497],[34.09185,-14.46477],[34.09195,-14.46463],[34.09203,-14.46451],[34.09223,-14.46425],[34.09239,-14.46404],[34.09253,-14.46387],[34.09266,-14.4637],[34.0928,-14.46353],[34.0929,-14.46342],[34.09302,-14.46334],[34.09318,-14.46324],[34.09331,-14.46315],[34.09343,-14.46303],[34.09367,-14.46285],[34.09392,-14.46264],[34.09405,-14.46252],[34.09413,-14.46245],[34.09419,-14.46239],[34.09426,-14.46234],[34.09432,-14.46229],[34.09438,-14.46225],[34.09442,-14.46222],[34.09446,-14.46219],[34.09454,-14.46214],[34.0946,-14.46209],[34.09464,-14.46206],[34.09469,-14.46203],[34.09473,-14.46201],[34.09479,-14.46197],[34.09483,-14.46194],[34.09489,-14.46189],[34.09494,-14.46186],[34.09499,-14.46182],[34.09504,-14.46179],[34.09516,-14.46169],[34.09528,-14.4616],[34.09539,-14.4615],[34.09551,-14.46142],[34.09564,-14.46132],[34.09579,-14.46121],[34.09601,-14.46108],[34.09619,-14.46098],[34.09633,-14.4609],[34.09665,-14.46072],[34.09685,-14.46061],[34.09739,-14.4603],[34.0976,-14.46017],[34.09788,-14.46003],[34.09817,-14.45987],[34.09853,-14.45966],[34.09887,-14.45945],[34.09915,-14.45924],[34.09932,-14.45913],[34.09942,-14.45907],[34.09954,-14.45903],[34.09968,-14.45896],[34.09986,-14.45885],[34.10014,-14.45869],[34.10043,-14.45853],[34.10061,-14.45842],[34.10076,-14.45832],[34.10085,-14.45826],[34.10096,-14.4582],[34.1011,-14.45813],[34.10136,-14.45797],[34.10166,-14.45777],[34.1018,-14.45768],[34.10185,-14.45765],[34.10202,-14.45756],[34.10242,-14.45733],[34.10318,-14.45686],[34.10371,-14.45656],[34.104,-14.45637],[34.10425,-14.45623],[34.10448,-14.4561],[34.10467,-14.456],[34.1049,-14.45586],[34.10524,-14.45564],[34.10547,-14.4555],[34.1057,-14.45536],[34.10589,-14.45524],[34.10609,-14.45513],[34.10626,-14.455],[34.10639,-14.45492],[34.10656,-14.45482],[34.10671,-14.45473],[34.10688,-14.45463],[34.10705,-14.45451],[34.1072,-14.45445],[34.10738,-14.45436],[34.10754,-14.45426],[34.10765,-14.45414],[34.10777,-14.454],[34.10793,-14.45386],[34.10801,-14.45378],[34.10812,-14.4537],[34.10822,-14.45361],[34.10833,-14.45354],[34.10839,-14.4535],[34.10847,-14.45346],[34.1086,-14.45341],[34.1087,-14.45337],[34.1088,-14.45333],[34.10888,-14.45329],[34.10897,-14.45323],[34.10906,-14.45318],[34.10922,-14.45309],[34.10935,-14.45303],[34.10945,-14.45299],[34.10955,-14.45294],[34.1097,-14.45287],[34.10982,-14.45281],[34.10999,-14.45271],[34.11012,-14.45264],[34.11014,-14.45263],[34.11025,-14.45256],[34.1104,-14.45246],[34.11049,-14.45239]]},"properties":{"id":681549618,"cls":"tertiary","hw":"tertiary","tg":"na","name":"","ref":"","surface":"","sc":"unknown","speed":null,"lit":"unk","km":7.371}},
{"type":"Feature","geometry":{"type":"LineString","coordinates":[[34.03987,-14.50171],[34.03997,-14.50155],[34.04011,-14.50129],[34.04018,-14.50115],[34.04022,-14.50101],[34.04023,-14.50086],[34.04021,-14.50058],[34.04019,-14.50039],[34.04022,-14.50011],[34.04024,-14.49986],[34.04025,-14.4996],[34.04027,-14.49942],[34.04025,-14.49921],[34.04024,-14.49912],[34.04021,-14.49894],[34.0402,-14.49884],[34.04017,-14.4987],[34.04012,-14.49853],[34.04008,-14.49833],[34.04007,-14.49823],[34.04007,-14.49809],[34.04011,-14.49793],[34.04016,-14.49778],[34.04019,-14.49763],[34.04021,-14.49745],[34.0402,-14.49732],[34.04018,-14.49716],[34.04014,-14.49699],[34.04011,-14.49685],[34.04009,-14.49662],[34.04008,-14.49643],[34.04009,-14.49632],[34.04012,-14.49601],[34.04013,-14.49586],[34.04014,-14.49545],[34.04014,-14.49523],[34.04012,-14.495],[34.0401,-14.49488],[34.04006,-14.49475],[34.04003,-14.49464],[34.04002,-14.4945],[34.04,-14.49426],[34.03999,-14.49407],[34.03998,-14.49385],[34.03998,-14.49368],[34.04,-14.49349],[34.04001,-14.49326],[34.04003,-14.49294],[34.04003,-14.49282],[34.04002,-14.49275],[34.04,-14.49256],[34.04,-14.49243],[34.04001,-14.49226],[34.04006,-14.49209],[34.04008,-14.49201],[34.04012,-14.49184],[34.04012,-14.49169],[34.04013,-14.49156],[34.04014,-14.49145],[34.04018,-14.49121],[34.04024,-14.49096],[34.0403,-14.49071],[34.04032,-14.49061],[34.04034,-14.4905],[34.04036,-14.49011],[34.04041,-14.48972],[34.04047,-14.4894],[34.04051,-14.4891],[34.04052,-14.48907],[34.0405,-14.48903],[34.04044,-14.48893],[34.04036,-14.48868],[34.04028,-14.48847],[34.04021,-14.48834],[34.04011,-14.48823],[34.04004,-14.48817],[34.0399,-14.48806],[34.03977,-14.4879],[34.03973,-14.48784],[34.0397,-14.4878],[34.03967,-14.48769],[34.03965,-14.48754],[34.03966,-14.48745],[34.03968,-14.48739],[34.03976,-14.48729],[34.0398,-14.48718],[34.03983,-14.48708],[34.03981,-14.48697],[34.03979,-14.48687],[34.03976,-14.48676],[34.03978,-14.48667],[34.03979,-14.48657],[34.03983,-14.48645],[34.03991,-14.48628],[34.04,-14.48609],[34.04011,-14.48591],[34.04021,-14.48577],[34.04024,-14.48569],[34.04027,-14.48564],[34.04028,-14.4856],[34.04028,-14.48557],[34.04033,-14.48542],[34.0404,-14.4853],[34.0405,-14.48517],[34.04059,-14.48504],[34.04064,-14.48492],[34.0407,-14.48482],[34.04077,-14.48474],[34.04091,-14.48465]]},"properties":{"id":682592446,"cls":"unclassified","hw":"unclassified","tg":"na","name":"","ref":"","surface":"","sc":"unknown","speed":null,"lit":"unk","km":1.99}},
{"type":"Feature","geometry":{"type":"LineString","coordinates":[[34.4503,-14.50166],[34.45046,-14.50173],[34.45065,-14.5018],[34.45088,-14.50191],[34.45099,-14.50193],[34.45111,-14.50194],[34.45132,-14.50196],[34.4515,-14.50196],[34.452,-14.502],[34.45299,-14.502]]},"properties":{"id":685416961,"cls":"residential","hw":"residential","tg":"na","name":"","ref":"","surface":"","sc":"unknown","speed":null,"lit":"unk","km":0.296}},
{"type":"Feature","geometry":{"type":"LineString","coordinates":[[34.4864,-14.50831],[34.48641,-14.50803],[34.48644,-14.50788],[34.48647,-14.50776],[34.48652,-14.50763],[34.48656,-14.5075],[34.48659,-14.50739],[34.48664,-14.50719],[34.48666,-14.50713],[34.48667,-14.50709],[34.48667,-14.50705],[34.48664,-14.50702],[34.4866,-14.50698],[34.48652,-14.50693],[34.48642,-14.50684],[34.48633,-14.50676],[34.48627,-14.50669],[34.48613,-14.5066],[34.48602,-14.50651],[34.48595,-14.50644],[34.48591,-14.50636]]},"properties":{"id":685667960,"cls":"residential","hw":"residential","tg":"na","name":"","ref":"","surface":"","sc":"unknown","speed":null,"lit":"unk","km":0.257}}
]}