{"type":"FeatureCollection","features":[
{"type":"Feature","geometry":{"type":"LineString","coordinates":[[34.02521,-9.49508],[34.02563,-9.49496],[34.02626,-9.49478],[34.02691,-9.49455],[34.02761,-9.49431],[34.0282,-9.4941],[34.02863,-9.49398],[34.02875,-9.49393],[34.02917,-9.49374]]},"properties":{"id":179689417,"cls":"tertiary","hw":"tertiary","tg":"na","name":"","ref":"","surface":"unpaved","sc":"unpaved","speed":null,"lit":"unk","km":0.46}},
{"type":"Feature","geometry":{"type":"LineString","coordinates":[[34.02365,-9.49532],[34.02334,-9.49459],[34.02294,-9.4937],[34.02204,-9.49159],[34.02053,-9.48803],[34.02001,-9.48682],[34.01921,-9.48496],[34.01915,-9.48475],[34.01869,-9.48237],[34.01822,-9.47982],[34.0175,-9.47588],[34.01748,-9.4758],[34.01726,-9.47536],[34.01654,-9.47343],[34.01621,-9.47257],[34.0161,-9.47233],[34.01562,-9.47163],[34.01505,-9.47099],[34.01481,-9.4707],[34.01431,-9.47002],[34.01367,-9.46889],[34.01345,-9.46844],[34.01225,-9.46644],[34.01204,-9.46606],[34.01177,-9.46569],[34.01159,-9.46549],[34.0114,-9.46535],[34.01039,-9.46467],[34.00922,-9.46389],[34.00756,-9.46283],[34.00697,-9.46239],[34.00596,-9.46158],[34.0057,-9.4613],[34.00452,-9.45962],[34.00091,-9.45358],[34.00071,-9.45318],[34.0006,-9.4528],[34.00056,-9.45258],[34.0005,-9.45169],[34.00051,-9.45113],[34.00057,-9.45056],[34.0007,-9.44975]]},"properties":{"id":179694150,"cls":"secondary","hw":"secondary","tg":"na","name":"Matema Road","ref":"R602","surface":"paved","sc":"paved","speed":25,"lit":"unk","km":5.852}},
{"type":"Feature","geometry":{"type":"LineString","coordinates":[[34.02968,-9.49338],[34.02979,-9.49334],[34.03019,-9.49327],[34.03042,-9.49322],[34.03068,-9.49312],[34.03143,-9.49289],[34.03246,-9.49263],[34.03361,-9.4924],[34.03495,-9.49215],[34.03566,-9.49205],[34.03576,-9.49204],[34.03588,-9.49205],[34.03667,-9.49224],[34.03716,-9.49236],[34.03739,-9.4924],[34.0378,-9.49253],[34.03796,-9.49265],[34.03801,-9.49268],[34.03879,-9.49292]]},"properties":{"id":204988482,"cls":"tertiary","hw":"tertiary","tg":"na","name":"","ref":"","surface":"unpaved","sc":"unpaved","speed":null,"lit":"unk","km":1.033}},
{"type":"Feature","geometry":{"type":"LineString","coordinates":[[34.02917,-9.49374],[34.02932,-9.49364],[34.02947,-9.4935],[34.02955,-9.49344],[34.02968,-9.49338]]},"properties":{"id":204988484,"cls":"tertiary","hw":"tertiary","tg":"na","name":"","ref":"","surface":"unpaved","sc":"unpaved","speed":null,"lit":"unk","km":0.069}},
{"type":"Feature","geometry":{"type":"LineString","coordinates":[[34.02213,-9.49609],[34.02245,-9.49708]]},"properties":{"id":204988492,"cls":"service","hw":"service","tg":"na","name":"","ref":"","surface":"unpaved","sc":"unpaved","speed":null,"lit":"unk","km":0.116}},
{"type":"Feature","geometry":{"type":"LineString","coordinates":[[34.02323,-9.49568],[34.02325,-9.49575],[34.02338,-9.49626]]},"properties":{"id":204988494,"cls":"service","hw":"service","tg":"na","name":"","ref":"","surface":"unpaved","sc":"unpaved","speed":null,"lit":"unk","km":0.067}},
{"type":"Feature","geometry":{"type":"LineString","coordinates":[[34.01631,-9.49839],[34.01663,-9.49874],[34.0167,-9.49875],[34.01674,-9.49881],[34.01672,-9.49888],[34.01664,-9.49887],[34.01659,-9.49882],[34.01663,-9.49874]]},"properties":{"id":204988499,"cls":"service","hw":"service","tg":"na","name":"","ref":"","surface":"unpaved","sc":"unpaved","speed":null,"lit":"unk","km":0.103}},
{"type":"Feature","geometry":{"type":"LineString","coordinates":[[34.02213,-9.49609],[34.02165,-9.49643],[34.02136,-9.49657],[34.02104,-9.49665],[34.02055,-9.49674],[34.01941,-9.49721],[34.0192,-9.49731],[34.01895,-9.49737],[34.01858,-9.49745],[34.01798,-9.49764],[34.01786,-9.4977],[34.01765,-9.49784],[34.01707,-9.49807],[34.01631,-9.49839],[34.01603,-9.49847],[34.01537,-9.4987],[34.01473,-9.49894],[34.01465,-9.49899],[34.01461,-9.49906],[34.01457,-9.49918],[34.01455,-9.4994],[34.01456,-9.49967],[34.0146,-9.50003],[34.01458,-9.50011],[34.01452,-9.50018],[34.01381,-9.50062],[34.01314,-9.50093],[34.01217,-9.50125],[34.01178,-9.50139],[34.01133,-9.50161],[34.01007,-9.5022],[34.00938,-9.50242],[34.00908,-9.5025],[34.00889,-9.50264],[34.00857,-9.50281],[34.00834,-9.50297],[34.00816,-9.50315],[34.00807,-9.5034],[34.00804,-9.50347],[34.0076,-9.50372],[34.00719,-9.50394],[34.00653,-9.50439],[34.0061,-9.50466],[34.00575,-9.50484],[34.00516,-9.50516],[34.00468,-9.50552],[34.00384,-9.50603],[34.00284,-9.50662]]},"properties":{"id":227697761,"cls":"unclassified","hw":"unclassified","tg":"na","name":"","ref":"","surface":"","sc":"unknown","speed":null,"lit":"unk","km":2.509}},
{"type":"Feature","geometry":{"type":"LineString","coordinates":[[34.0378,-9.49253],[34.03846,-9.49235],[34.03917,-9.49252],[34.03968,-9.49266],[34.03982,-9.49269],[34.04093,-9.49339],[34.04128,-9.49381],[34.04151,-9.49425],[34.04224,-9.49491],[34.04275,-9.49544],[34.0432,-9.49529],[34.04385,-9.49555],[34.04454,-9.49599],[34.04549,-9.49648],[34.04573,-9.4968],[34.04584,-9.49681],[34.04603,-9.49712],[34.04623,-9.49718],[34.04637,-9.49758],[34.04647,-9.49809],[34.0471,-9.49836],[34.0474,-9.49792],[34.04756,-9.49796],[34.04753,-9.49842],[34.04766,-9.49864],[34.04763,-9.49899],[34.04791,-9.49926],[34.04819,-9.49978],[34.04874,-9.50041],[34.04907,-9.50081],[34.04935,-9.50094],[34.04953,-9.50125],[34.04971,-9.50138],[34.04988,-9.50176],[34.05051,-9.5021],[34.051,-9.50218],[34.05106,-9.50221],[34.05108,-9.50228],[34.05081,-9.50275],[34.05079,-9.50285],[34.05083,-9.50291],[34.0512,-9.50314],[34.05124,-9.50321],[34.05137,-9.5036],[34.05206,-9.50435],[34.05223,-9.50443],[34.05226,-9.50445],[34.05227,-9.50449],[34.05226,-9.50463],[34.05227,-9.5047],[34.0523,-9.50475],[34.05298,-9.50548],[34.05339,-9.50569],[34.05346,-9.50577],[34.05356,-9.5061],[34.05508,-9.50692],[34.05542,-9.50687],[34.05551,-9.50698],[34.05542,-9.50715],[34.05545,-9.5073],[34.05663,-9.50841],[34.0571,-9.50871],[34.0575,-9.50909],[34.05873,-9.5108],[34.05921,-9.51119],[34.05944,-9.51122],[34.05939,-9.51162],[34.05983,-9.51201],[34.06012,-9.51257],[34.06036,-9.51335],[34.06064,-9.51372],[34.06091,-9.51394],[34.06263,-9.51744]]},"properties":{"id":227697768,"cls":"path","hw":"path","tg":"na","name":"","ref":"","surface":"","sc":"unknown","speed":null,"lit":"unk","km":4.329}},
{"type":"Feature","geometry":{"type":"LineString","coordinates":[[34.02521,-9.49508],[34.0249,-9.4952],[34.02459,-9.49529],[34.02431,-9.49536],[34.02408,-9.49541],[34.02386,-9.49544]]},"properties":{"id":367626806,"cls":"tertiary","hw":"tertiary","tg":"na","name":"","ref":"","surface":"unpaved","sc":"unpaved","speed":null,"lit":"unk","km":0.154}},
{"type":"Feature","geometry":{"type":"LineString","coordinates":[[34.03968,-9.49266],[34.03982,-9.49244],[34.03985,-9.4923],[34.03972,-9.49217],[34.03964,-9.4921],[34.03959,-9.49199],[34.03962,-9.4919],[34.0396,-9.49176],[34.03949,-9.4916],[34.03958,-9.49143],[34.03957,-9.49126],[34.03943,-9.49117],[34.03931,-9.49101],[34.03937,-9.49085],[34.0395,-9.49071],[34.03982,-9.49064],[34.04004,-9.49053],[34.04019,-9.49048],[34.04048,-9.49044],[34.04058,-9.49038],[34.04073,-9.49035],[34.04081,-9.4901],[34.04094,-9.48986],[34.04107,-9.4898],[34.04106,-9.48966],[34.04099,-9.48952],[34.04094,-9.48938],[34.04101,-9.4892],[34.04117,-9.48907],[34.0414,-9.48904],[34.04158,-9.48913],[34.04175,-9.48918],[34.04181,-9.48912],[34.04182,-9.489],[34.04182,-9.48882],[34.0418,-9.48864],[34.04188,-9.48856],[34.04198,-9.48855],[34.04205,-9.48837],[34.04212,-9.48826],[34.04213,-9.4881],[34.0422,-9.48801],[34.04248,-9.48791],[34.04274,-9.48767],[34.04285,-9.48753],[34.04291,-9.48734],[34.04313,-9.48721],[34.04344,-9.48707],[34.04364,-9.48697],[34.04378,-9.4868],[34.04395,-9.48669],[34.04406,-9.48649],[34.04413,-9.48634],[34.04421,-9.48616],[34.04433,-9.48603],[34.04445,-9.48588],[34.04441,-9.48567],[34.04438,-9.48557],[34.04448,-9.48552],[34.0448,-9.48546],[34.045,-9.48544],[34.04524,-9.48546],[34.04539,-9.48553],[34.04559,-9.4855],[34.04574,-9.48545],[34.04593,-9.48534],[34.04609,-9.48527],[34.04623,-9.48512],[34.04629,-9.48495],[34.04649,-9.48485],[34.04659,-9.48471],[34.04683,-9.48468],[34.04701,-9.48454],[34.04715,-9.48433],[34.04733,-9.48416],[34.04751,-9.48397],[34.04768,-9.4839],[34.04789,-9.48369],[34.04813,-9.48344],[34.04834,-9.4831],[34.04866,-9.4829],[34.0489,-9.4826],[34.04914,-9.48246],[34.04931,-9.48219],[34.04946,-9.48195],[34.04965,-9.48165],[34.04976,-9.48126],[34.04975,-9.48108],[34.04984,-9.48091],[34.05009,-9.48062],[34.05024,-9.48041],[34.05046,-9.4803],[34.05074,-9.48017],[34.05082,-9.48013],[34.05086,-9.48017],[34.05098,-9.48015],[34.0511,-9.48002],[34.05122,-9.47988],[34.05156,-9.4796],[34.05187,-9.47957],[34.05242,-9.47942],[34.05312,-9.47918],[34.05338,-9.47887],[34.05357,-9.47854],[34.05383,-9.47849],[34.05402,-9.47813],[34.05422,-9.47777],[34.05454,-9.47736],[34.05479,-9.47705],[34.05513,-9.47679],[34.05547,-9.47672],[34.05601,-9.47655],[34.0563,-9.4763],[34.05654,-9.47603]]},"properties":{"id":524613410,"cls":"path","hw":"path","tg":"na","name":"","ref":"","surface":"","sc":"unknown","speed":null,"lit":"unk","km":3.01}},
{"type":"Feature","geometry":{"type":"LineString","coordinates":[[34.02213,-9.49609],[34.02323,-9.49568],[34.02341,-9.49561],[34.02358,-9.49552]]},"properties":{"id":637369626,"cls":"unclassified","hw":"unclassified","tg":"na","name":"","ref":"","surface":"unpaved","sc":"unpaved","speed":25,"lit":"unk","km":0.171}},
{"type":"Feature","geometry":{"type":"LineString","coordinates":[[34.03566,-9.49205],[34.03547,-9.4917],[34.03512,-9.49136],[34.03495,-9.49122],[34.0342,-9.49076],[34.03399,-9.49061],[34.03383,-9.49047],[34.03371,-9.49032],[34.0326,-9.48869],[34.0325,-9.48861],[34.03172,-9.48813],[34.03071,-9.48747],[34.03044,-9.48717],[34.02926,-9.48582],[34.02916,-9.4857],[34.02905,-9.48553],[34.02881,-9.48518],[34.02859,-9.48476],[34.02845,-9.48461],[34.02815,-9.48436],[34.028,-9.48431]]},"properties":{"id":654092342,"cls":"residential","hw":"residential","tg":"na","name":"","ref":"","surface":"","sc":"unknown","speed":null,"lit":"unk","km":1.224}},
{"type":"Feature","geometry":{"type":"LineString","coordinates":[[34.01337,-9.49944],[34.01325,-9.49947],[34.01313,-9.49951],[34.013,-9.49958],[34.01296,-9.49961],[34.01292,-9.49964],[34.01287,-9.49965],[34.01267,-9.4997],[34.01249,-9.49974],[34.01222,-9.49986],[34.01153,-9.50008],[34.01117,-9.50022],[34.0103,-9.50065],[34.00987,-9.50077],[34.00971,-9.50083],[34.00945,-9.50097],[34.00939,-9.50101],[34.00931,-9.50102],[34.00919,-9.50102],[34.00911,-9.50102],[34.00896,-9.50108],[34.00717,-9.50179],[34.00606,-9.50226],[34.00545,-9.50256],[34.00535,-9.50259],[34.00506,-9.50265],[34.00458,-9.50281],[34.00445,-9.5029],[34.00381,-9.50317],[34.00365,-9.50322],[34.00317,-9.50338],[34.00287,-9.5035],[34.00199,-9.50387],[34.0014,-9.50417],[34.00021,-9.50473],[33.99995,-9.50489],[33.9999,-9.50492],[33.99986,-9.50493],[33.99947,-9.50496],[33.99936,-9.505],[33.99908,-9.50515],[33.99879,-9.50527],[33.99872,-9.50533],[33.99854,-9.50551]]},"properties":{"id":654180207,"cls":"residential","hw":"residential","tg":"na","name":"","ref":"","surface":"","sc":"unknown","speed":null,"lit":"unk","km":1.773}},
{"type":"Feature","geometry":{"type":"LineString","coordinates":[[34.02376,-9.49559],[34.02373,-9.49559],[34.02369,-9.49559],[34.02366,-9.49559],[34.02362,-9.49557],[34.0236,-9.49555],[34.02358,-9.49552],[34.02356,-9.49548],[34.02356,-9.49545],[34.02356,-9.49542],[34.02358,-9.49538],[34.02359,-9.49536],[34.02362,-9.49533],[34.02365,-9.49532],[34.02368,-9.49531],[34.02372,-9.4953],[34.02375,-9.49531],[34.02378,-9.49532],[34.02381,-9.49534],[34.02383,-9.49537],[34.02385,-9.4954],[34.02386,-9.49544],[34.02385,-9.49548],[34.02384,-9.49551],[34.02382,-9.49554],[34.02379,-9.49557],[34.02376,-9.49559]]},"properties":{"id":810611799,"cls":"secondary","hw":"secondary","tg":"na","name":"","ref":"","surface":"paved","sc":"paved","speed":null,"lit":"unk","km":0.102}},
{"type":"Feature","geometry":{"type":"LineString","coordinates":[[34.02334,-9.49459],[34.02353,-9.49445],[34.02363,-9.49439],[34.02367,-9.49431],[34.02379,-9.49425],[34.02398,-9.49389],[34.02393,-9.49332],[34.02419,-9.4929],[34.02451,-9.49246],[34.0245,-9.49236],[34.02446,-9.49174],[34.02451,-9.49141],[34.02464,-9.491],[34.02487,-9.49049],[34.02517,-9.48999],[34.02533,-9.48978],[34.02583,-9.48932],[34.0261,-9.48907],[34.02624,-9.48894],[34.02648,-9.48858],[34.02677,-9.4882],[34.02693,-9.48797],[34.02729,-9.48762],[34.02745,-9.48727],[34.02724,-9.48699],[34.02729,-9.48669],[34.02709,-9.4863],[34.0274,-9.48593],[34.02764,-9.48564],[34.02766,-9.48524],[34.02825,-9.4848],[34.02845,-9.48461],[34.02858,-9.48449],[34.02896,-9.4844],[34.02939,-9.48445],[34.02995,-9.48462]]},"properties":{"id":1381188545,"cls":"residential","hw":"residential","tg":"na","name":"","ref":"","surface":"","sc":"unknown","speed":null,"lit":"unk","km":1.521}}
]}