{"type":"FeatureCollection","features":[
{"type":"Feature","geometry":{"type":"LineString","coordinates":[[34.09309,-9.54392],[34.09302,-9.54388],[34.09281,-9.54381],[34.09257,-9.54371],[34.09231,-9.54353],[34.0915,-9.54246],[34.09081,-9.54158],[34.0902,-9.54101],[34.09019,-9.54097],[34.09021,-9.54089],[34.09019,-9.54087],[34.09011,-9.54086],[34.09005,-9.54085],[34.08968,-9.54046],[34.08969,-9.54039],[34.08976,-9.54026],[34.08974,-9.54021],[34.08968,-9.54017],[34.08942,-9.5402],[34.08936,-9.54019],[34.08855,-9.53905],[34.08853,-9.5388],[34.08848,-9.53875],[34.08832,-9.53875],[34.08819,-9.53868],[34.0879,-9.53819],[34.08784,-9.5381],[34.08764,-9.53789],[34.08742,-9.53769],[34.08737,-9.53732],[34.08701,-9.53706],[34.08691,-9.53693],[34.08687,-9.53642],[34.08687,-9.53635],[34.08629,-9.53568],[34.08594,-9.53509],[34.08586,-9.53505],[34.08537,-9.53496],[34.08463,-9.53404],[34.08455,-9.53362],[34.08332,-9.53249],[34.08268,-9.53176],[34.08157,-9.53068],[34.08091,-9.52973],[34.08029,-9.52928],[34.07982,-9.52922],[34.07949,-9.529],[34.07918,-9.52849],[34.07816,-9.52792],[34.07711,-9.52697],[34.07571,-9.52667],[34.07484,-9.52599],[34.07388,-9.52528],[34.07287,-9.52485],[34.07191,-9.52452],[34.07152,-9.52466],[34.07027,-9.5246],[34.06788,-9.52296],[34.06618,-9.52236],[34.06572,-9.5219],[34.06486,-9.52136],[34.06407,-9.52081],[34.06355,-9.51981],[34.06327,-9.51906],[34.06304,-9.51867],[34.06295,-9.51766],[34.06263,-9.51744],[34.06201,-9.51723],[34.06152,-9.5173]]},"properties":{"id":227697762,"cls":"path","hw":"path","tg":"na","name":"","ref":"","surface":"","sc":"unknown","speed":null,"lit":"unk","km":4.88}},
{"type":"Feature","geometry":{"type":"LineString","coordinates":[[34.14667,-9.58823],[34.14688,-9.58834],[34.14726,-9.58852],[34.14728,-9.58864],[34.1473,-9.58893],[34.14749,-9.58906],[34.14757,-9.58916],[34.14734,-9.58952],[34.14737,-9.5898],[34.14748,-9.58992],[34.14736,-9.59025],[34.1474,-9.59035],[34.14756,-9.59018],[34.14769,-9.58997],[34.14773,-9.58976],[34.14781,-9.58976],[34.14786,-9.59032],[34.14803,-9.59036],[34.14823,-9.59026],[34.14847,-9.59016],[34.14862,-9.59027],[34.14866,-9.59042],[34.1488,-9.59038],[34.14899,-9.59026],[34.14918,-9.59023],[34.14926,-9.5904],[34.14938,-9.59035],[34.14948,-9.59],[34.15024,-9.58954],[34.15036,-9.58934],[34.15057,-9.58918],[34.15111,-9.58922],[34.15162,-9.58913],[34.15195,-9.58917],[34.15222,-9.58917],[34.15239,-9.58933],[34.15255,-9.58923],[34.15291,-9.58878],[34.15314,-9.58866],[34.1533,-9.58888],[34.15339,-9.58885],[34.15352,-9.58869],[34.15389,-9.58881],[34.15402,-9.58863],[34.15422,-9.58868],[34.15427,-9.58835],[34.15493,-9.58808],[34.15496,-9.58823],[34.1548,-9.58841],[34.15484,-9.58848],[34.15502,-9.58862],[34.15504,-9.58876],[34.15518,-9.58889],[34.15515,-9.58906],[34.15522,-9.5892],[34.15531,-9.58917],[34.15545,-9.589],[34.15541,-9.58872],[34.15557,-9.58847],[34.15546,-9.58811],[34.15563,-9.5878],[34.15588,-9.5876],[34.156,-9.58745],[34.15624,-9.58735],[34.15624,-9.5872],[34.15674,-9.58694],[34.15716,-9.58692],[34.15723,-9.58673],[34.15798,-9.58633],[34.15879,-9.58608],[34.15892,-9.58598],[34.15912,-9.58597],[34.15978,-9.58576],[34.15988,-9.58578],[34.15996,-9.58589],[34.16017,-9.58584],[34.16023,-9.58552],[34.16059,-9.58543],[34.16068,-9.58563],[34.16083,-9.58564],[34.16094,-9.58544],[34.16104,-9.5853],[34.16132,-9.58527],[34.16147,-9.58515],[34.16165,-9.58521],[34.1617,-9.58543],[34.16185,-9.58542],[34.16203,-9.58557],[34.16214,-9.58549],[34.16214,-9.58519],[34.16226,-9.58499],[34.16243,-9.58493],[34.16261,-9.58482],[34.16274,-9.58499],[34.16285,-9.58498],[34.16302,-9.58478],[34.16335,-9.58475],[34.16346,-9.58463],[34.16403,-9.58461],[34.16457,-9.58472],[34.16481,-9.58492],[34.16502,-9.58489],[34.16563,-9.58466],[34.16637,-9.58494],[34.16653,-9.58509],[34.16684,-9.58539],[34.1673,-9.5856],[34.16754,-9.58555],[34.16786,-9.58571],[34.16815,-9.58568],[34.16874,-9.58526],[34.16893,-9.58502],[34.16907,-9.58501],[34.16927,-9.5848],[34.16989,-9.58475],[34.17015,-9.58493],[34.17011,-9.58535],[34.17028,-9.58545],[34.17049,-9.58507],[34.17051,-9.58481],[34.17074,-9.5847],[34.17118,-9.58458],[34.17142,-9.58478],[34.17167,-9.5846],[34.172,-9.58456],[34.1722,-9.58476],[34.17272,-9.58461],[34.17351,-9.5847],[34.17374,-9.58481],[34.17408,-9.58473],[34.17444,-9.58506],[34.17501,-9.5848],[34.17546,-9.58488],[34.17562,-9.58477],[34.17595,-9.58492],[34.17617,-9.58479],[34.17643,-9.58489],[34.17659,-9.58471],[34.17657,-9.58444],[34.17699,-9.58451],[34.17704,-9.5846],[34.1775,-9.58477],[34.17751,-9.5846],[34.17742,-9.58432],[34.17748,-9.58406],[34.17761,-9.58396],[34.17758,-9.58381],[34.17733,-9.58355],[34.17715,-9.58349],[34.17716,-9.58336],[34.17734,-9.58309],[34.17748,-9.58284],[34.17738,-9.58267],[34.17752,-9.58249],[34.17796,-9.58229],[34.17796,-9.58209],[34.17777,-9.58191],[34.17765,-9.58175],[34.17742,-9.58173],[34.17729,-9.5818],[34.17713,-9.58179],[34.1771,-9.58169],[34.17708,-9.58144],[34.17696,-9.58141],[34.17679,-9.58141],[34.17668,-9.58131],[34.17674,-9.58115],[34.17685,-9.58097],[34.17678,-9.58069],[34.17659,-9.58057],[34.17654,-9.58032],[34.17686,-9.58031],[34.17708,-9.58016],[34.17706,-9.57993],[34.17668,-9.57965],[34.17658,-9.57932],[34.1763,-9.57886],[34.1765,-9.57861],[34.17671,-9.57827],[34.17605,-9.5781],[34.17584,-9.57757],[34.17614,-9.57737],[34.17627,-9.57722],[34.17659,-9.57715],[34.17689,-9.57672],[34.17645,-9.57675],[34.17621,-9.57657],[34.17646,-9.57642],[34.1767,-9.57637],[34.17679,-9.57609],[34.17724,-9.57582],[34.1769,-9.57529],[34.17647,-9.57501],[34.17621,-9.575],[34.17613,-9.57468],[34.177,-9.57457],[34.17715,-9.57431],[34.17742,-9.57443],[34.17764,-9.5749],[34.17783,-9.5749],[34.17826,-9.57522],[34.17883,-9.57534],[34.17881,-9.57573],[34.17906,-9.57596],[34.17928,-9.57603],[34.17945,-9.5763],[34.18075,-9.57611],[34.18078,-9.57592],[34.18074,-9.57578],[34.18089,-9.57565],[34.18113,-9.57547],[34.18128,-9.57543],[34.18132,-9.57549],[34.18133,-9.57568],[34.18127,-9.57585],[34.18123,-9.57605],[34.18126,-9.57639],[34.18142,-9.57662],[34.18169,-9.57693],[34.18179,-9.57703],[34.18186,-9.577],[34.18193,-9.57696],[34.18222,-9.57689],[34.18272,-9.57705],[34.18293,-9.5773],[34.18327,-9.57753],[34.18335,-9.57753],[34.18339,-9.57746],[34.18319,-9.57697],[34.18314,-9.57669],[34.18293,-9.57636],[34.18269,-9.57613],[34.18274,-9.57581],[34.18279,-9.57568],[34.18275,-9.57552],[34.18281,-9.57531],[34.18311,-9.57529],[34.18342,-9.5754],[34.18351,-9.57527],[34.18383,-9.57529],[34.18395,-9.57537],[34.18422,-9.57534],[34.18426,-9.57524],[34.18404,-9.57504],[34.18408,-9.57486],[34.1842,-9.57466],[34.18403,-9.57461],[34.18398,-9.57445],[34.18406,-9.57427],[34.18389,-9.57408],[34.18393,-9.57375],[34.18351,-9.57368],[34.18338,-9.57358],[34.18301,-9.57354],[34.18281,-9.57348],[34.18262,-9.57346],[34.18259,-9.57332],[34.18313,-9.57295],[34.18331,-9.57283],[34.18383,-9.57262],[34.18395,-9.57281],[34.18408,-9.57296],[34.1843,-9.57301],[34.1844,-9.57315],[34.18459,-9.57325],[34.18469,-9.57324],[34.18499,-9.57335],[34.18508,-9.57331],[34.18524,-9.57357],[34.18551,-9.57357],[34.18569,-9.57364],[34.18562,-9.57403],[34.18558,-9.5742],[34.18566,-9.57434],[34.18571,-9.57438],[34.18562,-9.57454],[34.18567,-9.57471],[34.1859,-9.57475],[34.18604,-9.57451],[34.18638,-9.57421],[34.18728,-9.57417],[34.18736,-9.57434],[34.18727,-9.57458],[34.18736,-9.57464],[34.1877,-9.57458],[34.18792,-9.57443],[34.18809,-9.5745],[34.18803,-9.57482],[34.18817,-9.57488],[34.18838,-9.57478],[34.1885,-9.5746],[34.18861,-9.57458],[34.18885,-9.57491],[34.18874,-9.57546],[34.18882,-9.5757],[34.18895,-9.57578],[34.18907,-9.57542],[34.18943,-9.57494],[34.18959,-9.57501],[34.18982,-9.57513],[34.18998,-9.57514],[34.19006,-9.57506],[34.18993,-9.57491],[34.18983,-9.57461],[34.18989,-9.57361],[34.18983,-9.57316],[34.18991,-9.57314],[34.19024,-9.57347],[34.19054,-9.57357],[34.19092,-9.57349],[34.19101,-9.57331],[34.19118,-9.57331],[34.19136,-9.57345],[34.19173,-9.57337],[34.19179,-9.57348],[34.19181,-9.5737],[34.19197,-9.57374],[34.19211,-9.57377],[34.19212,-9.5739],[34.19228,-9.57443],[34.19249,-9.57457],[34.19286,-9.57449],[34.19307,-9.57482],[34.19321,-9.57532],[34.19383,-9.57514],[34.19384,-9.57484],[34.194,-9.57442],[34.19424,-9.57425],[34.1941,-9.57406],[34.19415,-9.5739],[34.19468,-9.57373],[34.19491,-9.5738],[34.19492,-9.57355],[34.19455,-9.57325],[34.19462,-9.57301],[34.19456,-9.5728],[34.19447,-9.57261],[34.19452,-9.57255],[34.19492,-9.57287],[34.19533,-9.573],[34.19551,-9.57315],[34.19561,-9.57291],[34.19571,-9.57287],[34.19565,-9.57267],[34.19617,-9.57251],[34.19641,-9.57247],[34.19657,-9.57217],[34.19591,-9.57176],[34.19584,-9.57113],[34.19705,-9.57109],[34.19711,-9.57093],[34.19699,-9.57058],[34.1969,-9.57032],[34.19713,-9.56981],[34.19692,-9.56918],[34.1967,-9.56898],[34.19678,-9.56886],[34.19713,-9.56895],[34.19733,-9.56955],[34.19749,-9.56969],[34.19761,-9.57011],[34.19841,-9.56986],[34.19851,-9.56954],[34.19859,-9.56939],[34.19892,-9.56923],[34.19933,-9.56948],[34.1995,-9.56944],[34.19966,-9.56953],[34.19968,-9.56965],[34.20014,-9.56988],[34.20039,-9.56981],[34.20091,-9.56979],[34.20086,-9.57045],[34.19992,-9.57127],[34.19978,-9.57155],[34.19988,-9.57199],[34.19978,-9.57216],[34.19985,-9.57274],[34.20006,-9.57241],[34.20031,-9.57259],[34.20046,-9.57253],[34.20032,-9.57215],[34.20045,-9.57172],[34.2009,-9.57163],[34.20159,-9.57185],[34.20164,-9.57138],[34.20205,-9.57123],[34.20256,-9.57077],[34.20279,-9.57071],[34.20306,-9.57038],[34.20349,-9.57064],[34.20375,-9.57067],[34.20387,-9.57111],[34.20369,-9.57158],[34.2043,-9.57149],[34.20441,-9.57183],[34.20447,-9.57236],[34.20473,-9.5726],[34.20442,-9.57306],[34.20459,-9.5733],[34.20418,-9.57379],[34.20308,-9.57454],[34.2021,-9.57533],[34.20062,-9.57686],[34.19962,-9.57749],[34.19925,-9.57777],[34.19912,-9.57792],[34.1992,-9.5781],[34.1994,-9.57815],[34.19976,-9.57804],[34.20006,-9.57831],[34.2002,-9.57789],[34.20073,-9.57783],[34.20097,-9.57805],[34.2013,-9.57772],[34.20172,-9.57777],[34.20181,-9.57762],[34.20211,-9.5776],[34.20226,-9.57747],[34.20272,-9.57749],[34.20263,-9.57806],[34.20322,-9.57793],[34.20341,-9.57825],[34.20386,-9.57813],[34.20407,-9.57769],[34.20421,-9.57775],[34.20436,-9.57804],[34.20515,-9.57833],[34.20513,-9.57847],[34.2048,-9.57897],[34.20498,-9.57941],[34.20537,-9.57914],[34.20575,-9.57922],[34.20591,-9.57907],[34.2063,-9.57911],[34.20669,-9.57925],[34.20694,-9.579],[34.20755,-9.57892],[34.20768,-9.57898],[34.20852,-9.57835],[34.20858,-9.57807],[34.20901,-9.57793],[34.20916,-9.57773],[34.20953,-9.5778],[34.20999,-9.578],[34.21032,-9.57806],[34.21038,-9.57794],[34.21029,-9.57752],[34.21041,-9.5768],[34.21078,-9.57636],[34.21138,-9.57622],[34.21159,-9.57599],[34.2116,-9.57519],[34.21184,-9.57499],[34.21209,-9.57506],[34.2128,-9.57561],[34.21328,-9.57559],[34.21345,-9.57569],[34.21356,-9.57598],[34.2137,-9.57605],[34.2146,-9.57472],[34.21475,-9.57466],[34.21509,-9.57418],[34.21565,-9.57405],[34.21674,-9.57464],[34.21687,-9.57449],[34.21717,-9.57448],[34.21765,-9.57477],[34.21822,-9.57488],[34.21938,-9.57372],[34.21947,-9.57352],[34.21966,-9.57359],[34.22011,-9.57408],[34.22054,-9.57521],[34.22094,-9.57542],[34.22189,-9.57521],[34.222,-9.57547],[34.22238,-9.57504],[34.22268,-9.57497],[34.22298,-9.57541],[34.22291,-9.57571],[34.223,-9.57613],[34.22317,-9.57641],[34.22369,-9.57687],[34.22445,-9.57675],[34.22503,-9.57652],[34.22513,-9.57655],[34.22524,-9.57741],[34.2248,-9.57834],[34.225,-9.57889],[34.22536,-9.57943],[34.22641,-9.57985],[34.22624,-9.58037],[34.22593,-9.58063],[34.22508,-9.58082],[34.22505,-9.58093],[34.2255,-9.58134],[34.22627,-9.58146],[34.22679,-9.58172],[34.22707,-9.58151],[34.2277,-9.58141],[34.22803,-9.58168],[34.22827,-9.58236],[34.2285,-9.58183],[34.22941,-9.58214],[34.22977,-9.5824],[34.22986,-9.58228],[34.23008,-9.58242],[34.23035,-9.58228],[34.23171,-9.58188],[34.23192,-9.58202],[34.23226,-9.58362],[34.2324,-9.58382],[34.23266,-9.58338],[34.23295,-9.58375],[34.23315,-9.58349],[34.23342,-9.58397],[34.23377,-9.58415],[34.23419,-9.58402],[34.23613,-9.5849],[34.23658,-9.58537],[34.23718,-9.58632],[34.23722,-9.58654],[34.23691,-9.58674],[34.23661,-9.58695],[34.23675,-9.5874],[34.23733,-9.58735],[34.23787,-9.58702],[34.23824,-9.58653],[34.23832,-9.58604],[34.2388,-9.58501],[34.23858,-9.58469],[34.23879,-9.58435],[34.23855,-9.58393],[34.23812,-9.58344],[34.23741,-9.583],[34.23705,-9.58268],[34.23692,-9.58232],[34.23677,-9.58213],[34.23712,-9.5821],[34.238,-9.58209],[34.23869,-9.58214],[34.23978,-9.58229],[34.24016,-9.58314],[34.24072,-9.58372],[34.24107,-9.58388],[34.2422,-9.58508],[34.24256,-9.58552],[34.2433,-9.58587],[34.24382,-9.58665],[34.24449,-9.58786],[34.24491,-9.58835],[34.24482,-9.58852],[34.24518,-9.58908],[34.24571,-9.58885],[34.2462,-9.58874],[34.24631,-9.58936],[34.2469,-9.58945],[34.24688,-9.59002],[34.24727,-9.59035],[34.24743,-9.59102],[34.24779,-9.59133],[34.2476,-9.59178],[34.24759,-9.59224],[34.24736,-9.59263],[34.24745,-9.59293],[34.24825,-9.59301],[34.24847,-9.59375],[34.24889,-9.59389],[34.24948,-9.59384],[34.24968,-9.59393],[34.2497,-9.59419],[34.25059,-9.59443],[34.25223,-9.59553],[34.25334,-9.59635],[34.25383,-9.59687],[34.25497,-9.59704],[34.25545,-9.59699],[34.25693,-9.59811],[34.25717,-9.5987],[34.25807,-9.59883],[34.25845,-9.59915],[34.25862,-9.59945],[34.26073,-9.6],[34.26232,-9.60042],[34.26284,-9.60032],[34.26296,-9.60053],[34.26349,-9.60074],[34.26379,-9.60119],[34.26376,-9.60152],[34.2643,-9.60207],[34.26435,-9.60244],[34.26385,-9.60337],[34.26328,-9.604],[34.26272,-9.60422],[34.26262,-9.6044],[34.26277,-9.60466],[34.26432,-9.60567],[34.26456,-9.60616],[34.26453,-9.60665],[34.26486,-9.60719],[34.26517,-9.60732],[34.26557,-9.60764],[34.26707,-9.60857],[34.26826,-9.60836],[34.26914,-9.60858],[34.26952,-9.60855],[34.27032,-9.60817],[34.27046,-9.60788],[34.27039,-9.6074],[34.27057,-9.60666],[34.27031,-9.60637],[34.26991,-9.6063],[34.26987,-9.60618],[34.26997,-9.60613],[34.27077,-9.60637],[34.27106,-9.60627],[34.27186,-9.60657],[34.27185,-9.60701],[34.27217,-9.60725],[34.27242,-9.60718],[34.27264,-9.60704],[34.27294,-9.60734],[34.27335,-9.60752],[34.27444,-9.60888],[34.27451,-9.60919],[34.27542,-9.61041],[34.27665,-9.61167],[34.27698,-9.61173],[34.27726,-9.61152],[34.27752,-9.61096],[34.27783,-9.61101],[34.27791,-9.61097],[34.27811,-9.61112],[34.27813,-9.61138],[34.27857,-9.61145],[34.27864,-9.61154],[34.27846,-9.6119],[34.27886,-9.61197],[34.2791,-9.61232],[34.27903,-9.61312],[34.27878,-9.61382],[34.27876,-9.61426],[34.27868,-9.6146],[34.27906,-9.61499],[34.27915,-9.61528],[34.27937,-9.61543],[34.27958,-9.61517],[34.28024,-9.61379],[34.28043,-9.61375],[34.28061,-9.61397],[34.28085,-9.61396],[34.28122,-9.61437],[34.28151,-9.61453],[34.28166,-9.61477],[34.28167,-9.61514],[34.28182,-9.61523],[34.28238,-9.61506],[34.28236,-9.61619],[34.28248,-9.61637],[34.28283,-9.61627],[34.2833,-9.61541],[34.28374,-9.61539],[34.28426,-9.61571],[34.28443,-9.61568],[34.28467,-9.61547],[34.28497,-9.61533],[34.28558,-9.61524],[34.2857,-9.61527],[34.28606,-9.61574],[34.28667,-9.61628],[34.28691,-9.61668],[34.28681,-9.61695],[34.28684,-9.61714],[34.287,-9.61739],[34.28726,-9.61764]]},"properties":{"id":241142344,"cls":"track","hw":"track","tg":"none","name":"","ref":"","surface":"","sc":"unknown","speed":null,"lit":"unk","km":31.919}},
{"type":"Feature","geometry":{"type":"LineString","coordinates":[[34.14045,-9.58466],[34.14034,-9.58473],[34.14037,-9.58484],[34.1403,-9.58497],[34.14027,-9.58516],[34.14034,-9.58536],[34.14051,-9.5855],[34.1408,-9.58565],[34.14099,-9.58567],[34.14107,-9.58564],[34.14115,-9.58566],[34.14117,-9.58579],[34.14112,-9.58593],[34.14097,-9.58602],[34.14097,-9.58612],[34.14133,-9.58638],[34.14156,-9.58649],[34.14162,-9.58642],[34.14167,-9.58643],[34.14168,-9.58655],[34.14165,-9.58665],[34.14194,-9.58687],[34.14194,-9.58696],[34.14204,-9.58701],[34.14226,-9.58709],[34.14247,-9.5873],[34.14259,-9.58749],[34.14277,-9.58761],[34.14306,-9.58773],[34.14354,-9.58769],[34.14383,-9.58762],[34.14423,-9.58721],[34.14432,-9.58716],[34.14474,-9.58711],[34.14484,-9.58716],[34.14502,-9.58765],[34.14509,-9.58789]]},"properties":{"id":241151119,"cls":"track","hw":"track","tg":"none","name":"","ref":"","surface":"","sc":"unknown","speed":null,"lit":"unk","km":0.876}},
{"type":"Feature","geometry":{"type":"LineString","coordinates":[[34.14892,-9.58634],[34.14892,-9.58629],[34.14887,-9.58617],[34.14887,-9.58614],[34.14888,-9.58609],[34.14891,-9.58602],[34.14894,-9.58598],[34.14912,-9.58575],[34.14916,-9.58573],[34.14921,-9.58571],[34.14928,-9.5857],[34.14935,-9.5857],[34.14942,-9.58569]]},"properties":{"id":241151120,"cls":"residential","hw":"residential","tg":"na","name":"","ref":"","surface":"","sc":"unknown","speed":null,"lit":"unk","km":0.109}},
{"type":"Feature","geometry":{"type":"LineString","coordinates":[[34.14509,-9.58789],[34.14512,-9.58809]]},"properties":{"id":241151124,"cls":"track","hw":"track","tg":"none","name":"","ref":"","surface":"","sc":"unknown","speed":null,"lit":"unk","km":0.022}},
{"type":"Feature","geometry":{"type":"LineString","coordinates":[[34.14834,-9.58726],[34.1488,-9.58691],[34.14915,-9.58669],[34.14959,-9.58638],[34.14966,-9.58636],[34.14973,-9.58626],[34.14975,-9.58617],[34.14983,-9.58592],[34.14951,-9.58581]]},"properties":{"id":241151127,"cls":"path","hw":"path","tg":"na","name":"","ref":"","surface":"","sc":"unknown","speed":null,"lit":"unk","km":0.267}},
{"type":"Feature","geometry":{"type":"LineString","coordinates":[[34.18316,-9.62166],[34.18297,-9.62142],[34.18282,-9.6213],[34.18259,-9.62117],[34.18246,-9.62087],[34.18228,-9.62055],[34.18231,-9.62038],[34.18224,-9.62015],[34.18211,-9.62014],[34.18196,-9.62007],[34.18183,-9.61991],[34.18162,-9.61971],[34.18151,-9.61953],[34.18127,-9.61936],[34.18125,-9.61929],[34.18152,-9.61906],[34.18151,-9.61899],[34.18134,-9.61895],[34.18113,-9.61886],[34.18091,-9.61883],[34.18073,-9.61885],[34.1804,-9.61846],[34.18032,-9.61796],[34.18008,-9.61766],[34.17983,-9.61722],[34.17957,-9.61674],[34.17924,-9.61657],[34.17905,-9.61635],[34.17902,-9.61614],[34.17901,-9.61576],[34.17896,-9.61548],[34.17891,-9.61522],[34.1788,-9.61508],[34.17871,-9.61493],[34.17856,-9.61469],[34.17847,-9.61451],[34.17848,-9.61433],[34.17852,-9.61414],[34.17858,-9.61396],[34.1784,-9.61386],[34.17819,-9.61378],[34.17786,-9.61359],[34.17772,-9.61359],[34.17759,-9.61356],[34.17755,-9.61355],[34.17732,-9.61351],[34.17718,-9.61343],[34.17708,-9.61333],[34.1771,-9.61321],[34.17704,-9.61315],[34.1769,-9.6132],[34.17652,-9.61316],[34.17638,-9.61315]]},"properties":{"id":355263241,"cls":"tertiary","hw":"tertiary","tg":"na","name":"","ref":"","surface":"","sc":"unknown","speed":null,"lit":"unk","km":1.4}},
{"type":"Feature","geometry":{"type":"LineString","coordinates":[[34.09436,-9.54408],[34.09443,-9.54413],[34.09453,-9.5442],[34.09469,-9.54436],[34.09478,-9.54462],[34.0951,-9.54488],[34.09535,-9.54506],[34.09552,-9.54511],[34.09568,-9.54509],[34.09573,-9.54495],[34.09573,-9.54476],[34.09577,-9.54464],[34.0958,-9.54453],[34.09578,-9.54441],[34.09578,-9.54438],[34.09592,-9.5444],[34.09608,-9.5444],[34.09633,-9.54447],[34.09654,-9.54457],[34.09672,-9.54465],[34.09688,-9.54467],[34.09703,-9.54467],[34.09719,-9.54465],[34.09726,-9.54463],[34.09731,-9.54465],[34.09732,-9.54468],[34.09728,-9.54478],[34.0972,-9.54485],[34.09718,-9.54492],[34.09726,-9.54507],[34.09731,-9.54522],[34.09745,-9.54551],[34.09749,-9.54556],[34.09762,-9.54558],[34.09784,-9.54556],[34.09805,-9.5455],[34.09818,-9.54549],[34.09825,-9.54556],[34.09831,-9.54569],[34.09837,-9.54578],[34.09846,-9.54599],[34.0985,-9.54603],[34.09855,-9.54603],[34.09863,-9.546],[34.09873,-9.54596],[34.09881,-9.54596],[34.09889,-9.546],[34.0989,-9.54604],[34.09888,-9.54609],[34.09882,-9.54613],[34.09879,-9.54617],[34.09879,-9.54626],[34.09888,-9.54636],[34.09905,-9.54642],[34.09913,-9.54654],[34.09919,-9.54673],[34.0993,-9.54686],[34.09944,-9.54695],[34.09955,-9.54696],[34.09962,-9.54702],[34.09969,-9.54715],[34.09986,-9.54722],[34.09998,-9.54724],[34.10013,-9.54729],[34.10055,-9.54771],[34.10079,-9.54775],[34.10105,-9.54767],[34.10112,-9.54769],[34.1011,-9.54774],[34.10098,-9.54783],[34.10083,-9.54792],[34.10081,-9.54799],[34.10079,-9.54813],[34.10083,-9.5483],[34.10086,-9.54842],[34.10086,-9.54846]]},"properties":{"id":441102142,"cls":"path","hw":"path","tg":"na","name":"","ref":"","surface":"","sc":"unknown","speed":null,"lit":"unk","km":1.225}},
{"type":"Feature","geometry":{"type":"LineString","coordinates":[[34.09513,-9.54371],[34.09535,-9.54375],[34.09553,-9.54387],[34.09561,-9.54388],[34.09569,-9.54393],[34.09576,-9.54403],[34.09584,-9.54409],[34.09593,-9.54413],[34.09602,-9.54415],[34.09606,-9.54413],[34.09616,-9.54412]]},"properties":{"id":441102412,"cls":"path","hw":"path","tg":"na","name":"","ref":"","surface":"","sc":"unknown","speed":null,"lit":"unk","km":0.129}},
{"type":"Feature","geometry":{"type":"LineString","coordinates":[[34.10159,-9.54638],[34.10153,-9.54644],[34.10149,-9.54647],[34.10145,-9.54655],[34.10142,-9.54659],[34.10139,-9.54667],[34.10139,-9.54673],[34.1014,-9.54677],[34.10137,-9.54684],[34.1013,-9.54697]]},"properties":{"id":441102413,"cls":"path","hw":"path","tg":"na","name":"","ref":"","surface":"","sc":"unknown","speed":null,"lit":"unk","km":0.076}},
{"type":"Feature","geometry":{"type":"LineString","coordinates":[[34.09281,-9.54381],[34.09291,-9.54373],[34.09304,-9.54364],[34.09313,-9.54357],[34.0932,-9.54348],[34.09332,-9.5434],[34.0934,-9.54336],[34.09353,-9.54337],[34.09361,-9.54339],[34.09369,-9.54343],[34.09375,-9.54344]]},"properties":{"id":441102414,"cls":"path","hw":"path","tg":"na","name":"","ref":"","surface":"","sc":"unknown","speed":null,"lit":"unk","km":0.122}},
{"type":"Feature","geometry":{"type":"LineString","coordinates":[[34.0948,-9.54219],[34.0949,-9.54214],[34.09499,-9.54211],[34.0952,-9.54195],[34.09526,-9.54177],[34.09536,-9.54142],[34.09544,-9.54127],[34.09551,-9.54115],[34.09554,-9.54095],[34.09561,-9.54074],[34.0957,-9.54056],[34.09586,-9.54033],[34.09592,-9.54017],[34.09597,-9.53996]]},"properties":{"id":441102415,"cls":"path","hw":"path","tg":"na","name":"","ref":"","surface":"","sc":"unknown","speed":null,"lit":"unk","km":0.291}},
{"type":"Feature","geometry":{"type":"LineString","coordinates":[[34.09428,-9.54471],[34.09423,-9.54468],[34.09416,-9.54464],[34.09405,-9.54457],[34.09388,-9.54446],[34.09381,-9.54437],[34.09379,-9.54428],[34.09384,-9.54419],[34.0941,-9.54412],[34.09436,-9.54408],[34.09432,-9.54403],[34.0942,-9.54389],[34.094,-9.54377],[34.09392,-9.54375],[34.09374,-9.54377],[34.0937,-9.54379],[34.0935,-9.54397],[34.09341,-9.54401],[34.09327,-9.54401],[34.09309,-9.54392]]},"properties":{"id":441102416,"cls":"path","hw":"path","tg":"na","name":"","ref":"","surface":"","sc":"unknown","speed":null,"lit":"unk","km":0.31}},
{"type":"Feature","geometry":{"type":"LineString","coordinates":[[34.09478,-9.54462],[34.0947,-9.54467],[34.0946,-9.5447],[34.09449,-9.5447]]},"properties":{"id":441102418,"cls":"path","hw":"path","tg":"na","name":"","ref":"","surface":"","sc":"unknown","speed":null,"lit":"unk","km":0.034}},
{"type":"Feature","geometry":{"type":"LineString","coordinates":[[34.09341,-9.54401],[34.09346,-9.54404],[34.09349,-9.54407],[34.09352,-9.5441],[34.09353,-9.54414]]},"properties":{"id":441102419,"cls":"path","hw":"path","tg":"na","name":"","ref":"","surface":"","sc":"unknown","speed":null,"lit":"unk","km":0.02}},
{"type":"Feature","geometry":{"type":"LineString","coordinates":[[34.09302,-9.54388],[34.09292,-9.544],[34.09286,-9.54409],[34.09278,-9.54419],[34.09271,-9.54424],[34.09254,-9.54451]]},"properties":{"id":441102420,"cls":"path","hw":"path","tg":"na","name":"","ref":"","surface":"","sc":"unknown","speed":null,"lit":"unk","km":0.088}},
{"type":"Feature","geometry":{"type":"LineString","coordinates":[[34.09578,-9.54438],[34.09565,-9.54439],[34.09546,-9.5444],[34.09532,-9.54435],[34.09519,-9.54442],[34.09505,-9.54454],[34.09489,-9.54454]]},"properties":{"id":441102421,"cls":"path","hw":"path","tg":"na","name":"","ref":"","surface":"","sc":"unknown","speed":null,"lit":"unk","km":0.106}},
{"type":"Feature","geometry":{"type":"LineString","coordinates":[[34.09455,-9.54287],[34.09455,-9.54286],[34.09453,-9.54282],[34.09453,-9.54278],[34.09455,-9.54265],[34.09454,-9.54251],[34.09454,-9.54242],[34.09455,-9.54228]]},"properties":{"id":441102422,"cls":"path","hw":"path","tg":"na","name":"","ref":"","surface":"","sc":"unknown","speed":null,"lit":"unk","km":0.066}},
{"type":"Feature","geometry":{"type":"LineString","coordinates":[[34.09485,-9.54252],[34.09486,-9.54231],[34.0948,-9.54219],[34.09474,-9.54215],[34.09462,-9.54213],[34.09453,-9.54215],[34.09433,-9.54217],[34.09424,-9.5422]]},"properties":{"id":441102423,"cls":"path","hw":"path","tg":"na","name":"","ref":"","surface":"","sc":"unknown","speed":null,"lit":"unk","km":0.102}},
{"type":"Feature","geometry":{"type":"LineString","coordinates":[[34.0946,-9.5447],[34.09455,-9.54489],[34.09457,-9.54498],[34.09461,-9.54506],[34.0946,-9.54514],[34.0946,-9.5452],[34.09458,-9.54527],[34.09455,-9.54535],[34.09454,-9.54542]]},"properties":{"id":441102424,"cls":"path","hw":"path","tg":"na","name":"","ref":"","surface":"","sc":"unknown","speed":null,"lit":"unk","km":0.083}},
{"type":"Feature","geometry":{"type":"LineString","coordinates":[[34.09428,-9.54303],[34.09423,-9.54307],[34.0942,-9.5431],[34.09417,-9.54315],[34.09411,-9.54322],[34.09406,-9.5433],[34.09401,-9.54334],[34.09392,-9.54339],[34.09384,-9.54344],[34.09375,-9.54344]]},"properties":{"id":441102425,"cls":"path","hw":"path","tg":"na","name":"","ref":"","surface":"","sc":"unknown","speed":null,"lit":"unk","km":0.077}},
{"type":"Feature","geometry":{"type":"LineString","coordinates":[[34.09438,-9.54301],[34.09453,-9.5429],[34.09455,-9.54287],[34.09461,-9.54281],[34.09464,-9.54277],[34.09467,-9.54273],[34.09484,-9.54254],[34.09485,-9.54252],[34.09486,-9.5429]]},"properties":{"id":441102426,"cls":"path","hw":"path","tg":"na","name":"","ref":"","surface":"","sc":"unknown","speed":null,"lit":"unk","km":0.118}},
{"type":"Feature","geometry":{"type":"LineString","coordinates":[[34.40268,-9.86937],[34.40395,-9.86837],[34.40431,-9.8679],[34.40467,-9.86744],[34.40566,-9.86677],[34.40725,-9.8657],[34.40738,-9.86565],[34.40759,-9.8656],[34.40783,-9.86563],[34.40831,-9.86578],[34.40874,-9.86584],[34.40934,-9.86602],[34.41056,-9.86633],[34.41079,-9.86633],[34.41115,-9.86631],[34.41132,-9.86634],[34.41153,-9.86646],[34.41195,-9.86665],[34.41234,-9.86684],[34.41278,-9.86693],[34.41342,-9.86716],[34.41394,-9.86727],[34.41404,-9.86726],[34.41414,-9.86723],[34.41425,-9.86716],[34.4143,-9.86702],[34.41435,-9.86695],[34.41442,-9.86692],[34.41454,-9.86696],[34.41464,-9.86708],[34.41484,-9.86734],[34.41497,-9.8674],[34.41516,-9.86745],[34.41522,-9.8675],[34.41537,-9.86763],[34.41551,-9.86767],[34.41565,-9.86765],[34.41575,-9.86767],[34.41597,-9.86772],[34.41606,-9.86772],[34.41614,-9.86772],[34.41629,-9.86781],[34.41638,-9.86783],[34.41676,-9.86801],[34.41716,-9.86813],[34.4176,-9.8684],[34.41815,-9.8688],[34.41889,-9.86943],[34.41957,-9.87012],[34.41964,-9.87015],[34.41973,-9.87015],[34.42051,-9.87021],[34.42062,-9.87022],[34.42155,-9.87053],[34.4219,-9.87068],[34.42221,-9.87084],[34.42245,-9.87089],[34.42258,-9.87094],[34.42268,-9.87102],[34.42279,-9.87109],[34.42318,-9.87123],[34.42327,-9.87123],[34.42333,-9.87118],[34.42357,-9.87093],[34.42367,-9.87089],[34.42464,-9.87053],[34.42472,-9.87053],[34.42491,-9.87059],[34.42497,-9.87059],[34.42504,-9.87054],[34.42524,-9.87027],[34.42559,-9.8699],[34.42563,-9.86988],[34.42568,-9.86988],[34.42626,-9.87012],[34.42646,-9.87022],[34.42665,-9.87027],[34.42714,-9.87032],[34.42775,-9.87034],[34.42782,-9.87036],[34.42814,-9.87051],[34.42836,-9.87061],[34.42843,-9.87065],[34.42846,-9.8707],[34.42853,-9.87089],[34.42856,-9.87092],[34.42863,-9.87095],[34.42882,-9.87096],[34.42886,-9.87097],[34.42892,-9.87104],[34.42894,-9.87107],[34.42897,-9.87108],[34.42909,-9.8711],[34.42912,-9.87111],[34.42929,-9.87123],[34.42967,-9.87186],[34.42996,-9.87219],[34.43001,-9.87223],[34.43009,-9.87225],[34.43041,-9.87224],[34.43048,-9.87225],[34.43056,-9.87228],[34.43084,-9.87245],[34.43093,-9.87255],[34.43096,-9.8726],[34.43105,-9.87262],[34.43129,-9.87264],[34.4315,-9.87268],[34.43179,-9.87279],[34.43202,-9.87281],[34.43206,-9.87283],[34.43213,-9.87287],[34.43221,-9.87288],[34.43233,-9.87282],[34.43237,-9.87281],[34.43242,-9.87282],[34.43247,-9.87285],[34.43259,-9.87304],[34.43276,-9.87321],[34.43288,-9.87332],[34.43296,-9.87335],[34.43317,-9.87338],[34.43324,-9.87341],[34.43332,-9.87349],[34.43336,-9.87351],[34.43343,-9.87352],[34.43363,-9.87355],[34.43411,-9.87366],[34.4348,-9.87371],[34.43504,-9.87368],[34.43514,-9.87369],[34.43558,-9.87385],[34.43608,-9.87399],[34.43631,-9.87401],[34.43647,-9.87402],[34.43651,-9.87401],[34.43657,-9.87395],[34.43661,-9.87394],[34.4369,-9.87391],[34.437,-9.8739],[34.43723,-9.87393],[34.43734,-9.87397],[34.4377,-9.87407],[34.43788,-9.87414],[34.43797,-9.87416],[34.4382,-9.87412],[34.43848,-9.87411],[34.43868,-9.87403],[34.43872,-9.874],[34.43876,-9.87399],[34.43878,-9.874],[34.43882,-9.87404],[34.43886,-9.87406],[34.4389,-9.87405],[34.43894,-9.87403],[34.43897,-9.87402],[34.439,-9.87401],[34.43901,-9.87398],[34.43904,-9.87395],[34.43909,-9.87392],[34.43914,-9.87391],[34.43919,-9.87391],[34.4394,-9.87394],[34.43957,-9.87403],[34.43971,-9.87412],[34.43979,-9.87416],[34.43986,-9.87416],[34.43996,-9.87418],[34.4402,-9.87426],[34.44023,-9.87424],[34.44035,-9.87408],[34.4404,-9.87404],[34.44048,-9.87403],[34.44077,-9.87404],[34.44084,-9.87402],[34.44124,-9.87378],[34.4413,-9.87364],[34.44132,-9.87346],[34.44146,-9.87316],[34.4415,-9.87312],[34.44156,-9.87305],[34.44159,-9.87309],[34.4416,-9.87315],[34.44159,-9.87322],[34.44156,-9.87331],[34.44157,-9.8734],[34.44164,-9.87353],[34.44173,-9.87365],[34.44175,-9.87372],[34.44175,-9.87395],[34.44177,-9.87399],[34.4418,-9.874],[34.44219,-9.87403],[34.44224,-9.87405],[34.44245,-9.87415],[34.44252,-9.87416],[34.44281,-9.87415],[34.44285,-9.87413],[34.44289,-9.87407],[34.44293,-9.87388],[34.44298,-9.87384],[34.44309,-9.87378],[34.44319,-9.87377],[34.44325,-9.87379],[34.44342,-9.87389],[34.44353,-9.87393],[34.44368,-9.87393],[34.44377,-9.87391],[34.44385,-9.8738],[34.44392,-9.87363],[34.44396,-9.87358],[34.44404,-9.87356],[34.44427,-9.87358],[34.44434,-9.87359],[34.44441,-9.87366],[34.44446,-9.87368],[34.44455,-9.87368],[34.44487,-9.87382],[34.44491,-9.87387],[34.44492,-9.87393],[34.44493,-9.87453],[34.44504,-9.87484],[34.44508,-9.87488],[34.44511,-9.8749],[34.44519,-9.87491],[34.44568,-9.87483],[34.44596,-9.87485],[34.44619,-9.87494],[34.44623,-9.87495],[34.44641,-9.87495],[34.44644,-9.87496],[34.44654,-9.87504],[34.44662,-9.87517],[34.44666,-9.87526],[34.4468,-9.87532],[34.44685,-9.87535],[34.44706,-9.87557],[34.44708,-9.87564],[34.44706,-9.87593],[34.44705,-9.87624],[34.4471,-9.87642],[34.44711,-9.87659],[34.44712,-9.87661],[34.44714,-9.87662],[34.44734,-9.87658],[34.44766,-9.87655],[34.44787,-9.87658],[34.4483,-9.87669],[34.44837,-9.8767],[34.44843,-9.87666],[34.44864,-9.87647],[34.44868,-9.87644],[34.44872,-9.87644],[34.44888,-9.87668],[34.44892,-9.8767],[34.44898,-9.87667],[34.44923,-9.87645],[34.4495,-9.87636],[34.4496,-9.87636],[34.44966,-9.87639],[34.44967,-9.87646],[34.44965,-9.87653],[34.44958,-9.8766],[34.44956,-9.87666],[34.44957,-9.8767],[34.44963,-9.87683],[34.44963,-9.87688],[34.4496,-9.87693],[34.44958,-9.87695],[34.44957,-9.87699],[34.4496,-9.8771],[34.44962,-9.87714],[34.44965,-9.87716],[34.45005,-9.87742],[34.45019,-9.8776],[34.4502,-9.87764],[34.4502,-9.87767],[34.45018,-9.87773],[34.45019,-9.87777],[34.45023,-9.87783],[34.45032,-9.87799],[34.45034,-9.87811],[34.45033,-9.87827],[34.45027,-9.87851],[34.45027,-9.87854],[34.45029,-9.87856],[34.45056,-9.87877],[34.45058,-9.87881],[34.4506,-9.87887],[34.45064,-9.87914],[34.45067,-9.8792],[34.4509,-9.87951],[34.45096,-9.87954],[34.45101,-9.87953],[34.45109,-9.87943],[34.45114,-9.87941],[34.45119,-9.87939],[34.45156,-9.87933],[34.45182,-9.87934],[34.45186,-9.87932],[34.452,-9.87922],[34.45207,-9.87919],[34.45213,-9.8792],[34.45227,-9.87926],[34.45233,-9.87928],[34.45238,-9.87927],[34.45252,-9.87914],[34.45262,-9.87911],[34.45305,-9.87894],[34.45314,-9.87886],[34.45331,-9.87858],[34.45347,-9.87825],[34.4535,-9.87823],[34.45356,-9.87823],[34.45362,-9.87826],[34.45366,-9.87834],[34.45371,-9.87912],[34.4537,-9.87916],[34.45361,-9.87926],[34.45353,-9.87941],[34.45339,-9.87955],[34.45337,-9.87958],[34.45335,-9.87981],[34.45335,-9.88005],[34.45337,-9.88013],[34.45371,-9.88052],[34.45397,-9.88085],[34.45416,-9.88096],[34.4544,-9.88112],[34.45462,-9.88144],[34.45478,-9.88174],[34.45496,-9.88194],[34.455,-9.88211],[34.45503,-9.88218],[34.45511,-9.88224],[34.45524,-9.8823],[34.45533,-9.8824],[34.45538,-9.88262],[34.45533,-9.88305],[34.45537,-9.88316],[34.45541,-9.88323],[34.45545,-9.88329],[34.4555,-9.88336]]},"properties":{"id":442933121,"cls":"unclassified","hw":"unclassified","tg":"na","name":"","ref":"","surface":"unpaved","sc":"unpaved","speed":null,"lit":"unk","km":7.72}},
{"type":"Feature","geometry":{"type":"LineString","coordinates":[[34.14666,-9.58972],[34.14658,-9.5898],[34.14648,-9.58989],[34.14644,-9.58995],[34.14639,-9.59],[34.14632,-9.59006],[34.14625,-9.59009],[34.14616,-9.59012],[34.14612,-9.59013],[34.14599,-9.59019],[34.14593,-9.59024],[34.14588,-9.59027],[34.14581,-9.59031],[34.14572,-9.59034],[34.14562,-9.59039],[34.14557,-9.59042],[34.1455,-9.59047],[34.14538,-9.59055]]},"properties":{"id":457323745,"cls":"track","hw":"track","tg":"none","name":"","ref":"","surface":"","sc":"unknown","speed":null,"lit":"unk","km":0.171}},
{"type":"Feature","geometry":{"type":"LineString","coordinates":[[34.16596,-9.60239],[34.16584,-9.60238],[34.16577,-9.60237],[34.16572,-9.60236],[34.16568,-9.60234],[34.16561,-9.60232],[34.16557,-9.60231],[34.16549,-9.60229],[34.16541,-9.60228],[34.16528,-9.60226],[34.16517,-9.60226],[34.16509,-9.60225],[34.16495,-9.60224],[34.16489,-9.60226],[34.16472,-9.60231],[34.16461,-9.60231],[34.16452,-9.60227],[34.16443,-9.60226],[34.16434,-9.6023],[34.16427,-9.60233],[34.16418,-9.60235],[34.16407,-9.60234],[34.16399,-9.60239],[34.16389,-9.60246],[34.16377,-9.60247],[34.16371,-9.60251],[34.16365,-9.60256],[34.16355,-9.6026],[34.1634,-9.60262],[34.1633,-9.60262],[34.16323,-9.60259],[34.1631,-9.60264],[34.163,-9.60269],[34.1629,-9.60272],[34.1628,-9.60275],[34.16275,-9.60274],[34.16265,-9.60275],[34.16257,-9.60274],[34.16244,-9.60276],[34.16242,-9.60275],[34.16241,-9.60273],[34.16242,-9.60271],[34.16253,-9.60265],[34.1626,-9.60263],[34.16264,-9.60257],[34.16266,-9.60253],[34.16266,-9.60248],[34.16263,-9.60242],[34.1626,-9.60239],[34.16258,-9.60237],[34.16254,-9.60235],[34.16252,-9.60231],[34.1625,-9.60228],[34.16245,-9.60225],[34.16242,-9.60221],[34.16232,-9.60219],[34.1622,-9.60214],[34.16208,-9.60207],[34.16197,-9.6021],[34.16175,-9.60209],[34.16152,-9.60206],[34.16139,-9.60202],[34.16124,-9.60196],[34.16115,-9.60188],[34.16094,-9.60174],[34.16073,-9.60161],[34.16053,-9.60156],[34.16025,-9.60135],[34.16013,-9.60122],[34.16007,-9.60113],[34.16002,-9.60101],[34.15997,-9.60091],[34.15988,-9.60078],[34.1597,-9.60064],[34.15947,-9.60044],[34.15934,-9.60036],[34.1593,-9.6003],[34.15926,-9.60018],[34.15925,-9.60012],[34.159,-9.59989],[34.15896,-9.59984],[34.15894,-9.59977],[34.15895,-9.59971],[34.15894,-9.59967],[34.1589,-9.59965],[34.15884,-9.59962],[34.15881,-9.59958],[34.15875,-9.59943],[34.15861,-9.59904],[34.15851,-9.59887],[34.15843,-9.59872],[34.15833,-9.59859],[34.15824,-9.5985],[34.15813,-9.59838],[34.15808,-9.59835],[34.15801,-9.59833],[34.15797,-9.59829],[34.15778,-9.59805],[34.15769,-9.59793],[34.15762,-9.59782],[34.1576,-9.59776],[34.15762,-9.5977],[34.15765,-9.59763],[34.15764,-9.59759],[34.15761,-9.59756],[34.15754,-9.59752],[34.15743,-9.59753],[34.15736,-9.59751],[34.15731,-9.59744],[34.15729,-9.59734],[34.15731,-9.59721],[34.15733,-9.59714],[34.15735,-9.5971],[34.15735,-9.59708],[34.15734,-9.59707],[34.15732,-9.59706],[34.15729,-9.59707],[34.15717,-9.59709],[34.15698,-9.59716],[34.15693,-9.59719],[34.1569,-9.59718],[34.15684,-9.59708],[34.15675,-9.59696],[34.15668,-9.59692],[34.15653,-9.5969],[34.15643,-9.5969],[34.15634,-9.59689],[34.15628,-9.59689],[34.15625,-9.59687],[34.15623,-9.59684],[34.15622,-9.59673],[34.15622,-9.59666],[34.15622,-9.59656],[34.1562,-9.59652],[34.15618,-9.5965],[34.15613,-9.5965],[34.15608,-9.59652],[34.15602,-9.59658],[34.15598,-9.59665],[34.15594,-9.59675],[34.15586,-9.59687],[34.15582,-9.5969],[34.15578,-9.5969],[34.15575,-9.59688],[34.15565,-9.59672],[34.15558,-9.59665],[34.15553,-9.59655],[34.15548,-9.59645],[34.15544,-9.59643],[34.15539,-9.59643],[34.15528,-9.59646],[34.15514,-9.59648],[34.15501,-9.59647],[34.15491,-9.59646],[34.15474,-9.5964],[34.15449,-9.59632],[34.15434,-9.59624],[34.15424,-9.59616],[34.15419,-9.59608],[34.15415,-9.59594],[34.15413,-9.59587],[34.15407,-9.59579],[34.15403,-9.59573],[34.15403,-9.5957],[34.15404,-9.59568],[34.15419,-9.59549],[34.15423,-9.59542],[34.15432,-9.59526],[34.15433,-9.59518],[34.15433,-9.59507],[34.15431,-9.59502],[34.15431,-9.59501],[34.15429,-9.59501],[34.15422,-9.59511],[34.15377,-9.59552],[34.15369,-9.59559],[34.15363,-9.59562],[34.15356,-9.59565],[34.15337,-9.59565],[34.15314,-9.59563],[34.15304,-9.59559],[34.15299,-9.59557],[34.15295,-9.59554],[34.15292,-9.59546],[34.1529,-9.59542],[34.15288,-9.59541],[34.15287,-9.59542],[34.15286,-9.59546],[34.15283,-9.59549],[34.1528,-9.59554],[34.15276,-9.59563],[34.15273,-9.59565],[34.15268,-9.59566],[34.15251,-9.59557],[34.15248,-9.59557],[34.15245,-9.59558],[34.15243,-9.59561],[34.15242,-9.59566],[34.15241,-9.59576],[34.1524,-9.59586],[34.15235,-9.59593],[34.15219,-9.59608],[34.15211,-9.59614],[34.15205,-9.59619],[34.15198,-9.59631],[34.15196,-9.5964],[34.15194,-9.59649],[34.15188,-9.59653],[34.15176,-9.59652],[34.15162,-9.59643],[34.15135,-9.59623],[34.15117,-9.59601],[34.15115,-9.5959],[34.15118,-9.59578],[34.15122,-9.59567],[34.15126,-9.59554],[34.15127,-9.59547],[34.15121,-9.59524],[34.15113,-9.59506],[34.15109,-9.59498],[34.15108,-9.59494],[34.15108,-9.59491],[34.1511,-9.59483],[34.1511,-9.59479],[34.15109,-9.59476],[34.15106,-9.59474],[34.15099,-9.59475],[34.15089,-9.59473],[34.15077,-9.59467],[34.15061,-9.59452],[34.1505,-9.59439],[34.15044,-9.5943],[34.15041,-9.59417],[34.15041,-9.59407],[34.15043,-9.59401],[34.15048,-9.59393],[34.15058,-9.59376],[34.15063,-9.59363],[34.1507,-9.59353],[34.15076,-9.59345],[34.15084,-9.59341],[34.15093,-9.59337],[34.15097,-9.59335],[34.15098,-9.59331],[34.15098,-9.59328],[34.15096,-9.59323],[34.1509,-9.5932],[34.15082,-9.5932],[34.15066,-9.59319],[34.15014,-9.59316],[34.15007,-9.59314],[34.15004,-9.59311],[34.14966,-9.59258],[34.14958,-9.59252],[34.14944,-9.59243],[34.14938,-9.59236],[34.14934,-9.5923],[34.14927,-9.59202],[34.14925,-9.59202],[34.14923,-9.59204],[34.1491,-9.59234],[34.14908,-9.59236],[34.14903,-9.59235],[34.14894,-9.59233],[34.14887,-9.59232],[34.14882,-9.59234],[34.14875,-9.59239],[34.14871,-9.5924],[34.14862,-9.59233],[34.14856,-9.59227],[34.14852,-9.59224],[34.14837,-9.59202],[34.14832,-9.59198],[34.14829,-9.59196],[34.14813,-9.59193],[34.14807,-9.5919],[34.14776,-9.59158],[34.14771,-9.59155],[34.14759,-9.59151],[34.14755,-9.59148],[34.14751,-9.59143],[34.14746,-9.59132],[34.14742,-9.59125],[34.14738,-9.5912],[34.14734,-9.59118],[34.14729,-9.59118],[34.14726,-9.59114],[34.1472,-9.59096],[34.14716,-9.59091],[34.14704,-9.59087],[34.14695,-9.59079],[34.14688,-9.59075],[34.1468,-9.59074],[34.14674,-9.59074],[34.14662,-9.59071],[34.14655,-9.59067],[34.14648,-9.59061],[34.14645,-9.59056],[34.14643,-9.59048],[34.14644,-9.59042],[34.14647,-9.59037],[34.14653,-9.59026],[34.14656,-9.5902],[34.14658,-9.59009],[34.1466,-9.59002],[34.14663,-9.58993],[34.14665,-9.58985],[34.14666,-9.58972],[34.14665,-9.58962],[34.14664,-9.5895],[34.1466,-9.58924],[34.14659,-9.58909],[34.14661,-9.58901],[34.14666,-9.58887],[34.14669,-9.58874],[34.14672,-9.5886],[34.14673,-9.5885],[34.14671,-9.58845],[34.14661,-9.58835]]},"properties":{"id":457323746,"cls":"residential","hw":"residential","tg":"na","name":"","ref":"","surface":"","sc":"unknown","speed":null,"lit":"unk","km":3.787}},
{"type":"Feature","geometry":{"type":"LineString","coordinates":[[34.33688,-9.78069],[34.33686,-9.78065],[34.33682,-9.78063],[34.33679,-9.78059],[34.33677,-9.78054],[34.33676,-9.78049],[34.33675,-9.78041],[34.33672,-9.78033],[34.33668,-9.78028],[34.3366,-9.78021],[34.33651,-9.78016],[34.33647,-9.78014],[34.33645,-9.78013],[34.33641,-9.78007],[34.3364,-9.78005],[34.33639,-9.78003],[34.33639,-9.78],[34.33646,-9.7799],[34.33653,-9.7798],[34.33655,-9.77972],[34.33656,-9.77962],[34.33653,-9.77956],[34.3365,-9.77951],[34.3365,-9.77944],[34.33649,-9.77939],[34.33648,-9.77934],[34.33646,-9.77924],[34.33645,-9.77917],[34.33645,-9.77906],[34.33646,-9.77897],[34.33646,-9.77893],[34.33648,-9.77885],[34.33647,-9.7788]]},"properties":{"id":457324382,"cls":"track","hw":"track","tg":"none","name":"","ref":"","surface":"","sc":"unknown","speed":null,"lit":"unk","km":0.24}},
{"type":"Feature","geometry":{"type":"LineString","coordinates":[[34.01174,-9.50066],[34.01258,-9.50038],[34.01279,-9.50031],[34.01329,-9.50008],[34.01332,-9.50004],[34.01333,-9.49998],[34.01334,-9.49956],[34.01336,-9.4995],[34.01337,-9.49944],[34.01343,-9.49941],[34.01381,-9.49923],[34.01424,-9.49905],[34.01433,-9.49903],[34.01443,-9.49902],[34.01461,-9.49906]]},"properties":{"id":654096988,"cls":"residential","hw":"residential","tg":"na","name":"","ref":"","surface":"","sc":"unknown","speed":null,"lit":"unk","km":0.401}},
{"type":"Feature","geometry":{"type":"LineString","coordinates":[[34.14685,-9.58782],[34.14676,-9.58801],[34.14667,-9.58823],[34.14661,-9.58835]]},"properties":{"id":656449419,"cls":"residential","hw":"residential","tg":"na","name":"","ref":"","surface":"","sc":"unknown","speed":null,"lit":"unk","km":0.065}},
{"type":"Feature","geometry":{"type":"LineString","coordinates":[[34.1465,-9.58804],[34.14651,-9.58813],[34.14654,-9.58824],[34.14661,-9.58835]]},"properties":{"id":656449420,"cls":"residential","hw":"residential","tg":"na","name":"","ref":"","surface":"","sc":"unknown","speed":null,"lit":"unk","km":0.037}},
{"type":"Feature","geometry":{"type":"LineString","coordinates":[[34.14512,-9.58809],[34.14549,-9.58824],[34.14611,-9.58812],[34.1465,-9.58804]]},"properties":{"id":656449421,"cls":"track","hw":"track","tg":"none","name":"","ref":"","surface":"","sc":"unknown","speed":null,"lit":"unk","km":0.157}},
{"type":"Feature","geometry":{"type":"LineString","coordinates":[[34.14942,-9.58569],[34.14967,-9.58544],[34.14983,-9.58532],[34.15004,-9.58523],[34.15014,-9.5852],[34.15024,-9.58518]]},"properties":{"id":656449422,"cls":"residential","hw":"residential","tg":"na","name":"","ref":"","surface":"","sc":"unknown","speed":null,"lit":"unk","km":0.109}},
{"type":"Feature","geometry":{"type":"LineString","coordinates":[[34.14834,-9.58726],[34.1483,-9.58687],[34.14831,-9.58681],[34.14836,-9.58676],[34.14881,-9.58645],[34.14891,-9.58638],[34.14892,-9.58634]]},"properties":{"id":656449423,"cls":"residential","hw":"residential","tg":"na","name":"","ref":"","surface":"","sc":"unknown","speed":null,"lit":"unk","km":0.136}},
{"type":"Feature","geometry":{"type":"LineString","coordinates":[[34.1465,-9.58804],[34.14685,-9.58782],[34.14722,-9.58758],[34.14777,-9.58735],[34.1479,-9.58732],[34.14803,-9.58731],[34.14819,-9.5873],[34.1483,-9.58729],[34.14832,-9.58729],[34.14833,-9.58728],[34.14834,-9.58726]]},"properties":{"id":656449424,"cls":"residential","hw":"residential","tg":"na","name":"","ref":"","surface":"","sc":"unknown","speed":null,"lit":"unk","km":0.224}},
{"type":"Feature","geometry":{"type":"LineString","coordinates":[[34.46648,-9.92379],[34.46624,-9.92382],[34.46608,-9.92384],[34.46593,-9.9239],[34.46583,-9.92394],[34.46573,-9.92398],[34.46563,-9.924],[34.46554,-9.92405],[34.46551,-9.92413],[34.46546,-9.92418],[34.46537,-9.9243],[34.46529,-9.92439],[34.46521,-9.92454],[34.46513,-9.92465],[34.4651,-9.92468],[34.46502,-9.92472],[34.46496,-9.92473],[34.46489,-9.9247],[34.46486,-9.92467],[34.46481,-9.92463],[34.46477,-9.92458],[34.46474,-9.92453],[34.46472,-9.92448],[34.46471,-9.92445],[34.4647,-9.92442],[34.46469,-9.92439],[34.46468,-9.92436],[34.46465,-9.92432],[34.46462,-9.92429],[34.46459,-9.92426],[34.46457,-9.92425],[34.46454,-9.92423],[34.4645,-9.9242],[34.46446,-9.92418],[34.4644,-9.92415],[34.46435,-9.9241],[34.46428,-9.92409],[34.46422,-9.92409],[34.46415,-9.92409],[34.46408,-9.9241],[34.46402,-9.92411],[34.46396,-9.9241],[34.4639,-9.92409],[34.46383,-9.92406],[34.46374,-9.92398],[34.46366,-9.92394],[34.46354,-9.92392],[34.46345,-9.92392],[34.46337,-9.92393],[34.46324,-9.92395],[34.46307,-9.92397],[34.46296,-9.92399],[34.46282,-9.92402],[34.46272,-9.92402],[34.46258,-9.92406],[34.46248,-9.92408],[34.46235,-9.92414],[34.4622,-9.92421],[34.46208,-9.92429],[34.462,-9.92438],[34.46192,-9.92448],[34.46187,-9.92454],[34.46183,-9.92462],[34.46178,-9.92473],[34.46177,-9.92486],[34.46178,-9.92494],[34.46179,-9.92502],[34.46181,-9.92511],[34.46181,-9.92516],[34.46182,-9.92521],[34.46182,-9.92526],[34.46182,-9.9253],[34.4618,-9.92534],[34.46176,-9.92539],[34.46167,-9.92545],[34.46156,-9.9255],[34.46146,-9.92555],[34.46134,-9.92558],[34.46125,-9.92561],[34.46118,-9.92565],[34.4611,-9.92574],[34.46099,-9.92588],[34.46088,-9.92603],[34.46084,-9.9261],[34.4608,-9.92617],[34.46077,-9.92624],[34.46073,-9.92629],[34.46068,-9.92636],[34.46065,-9.92641],[34.4606,-9.92647],[34.46054,-9.92651],[34.46047,-9.92661],[34.46038,-9.9267],[34.46033,-9.92675],[34.46029,-9.92681],[34.46023,-9.92688],[34.46019,-9.92692],[34.46014,-9.92698],[34.46011,-9.92701],[34.46006,-9.92703],[34.46002,-9.92705],[34.45997,-9.92709],[34.45993,-9.92712],[34.45988,-9.92714],[34.45984,-9.92717],[34.45979,-9.9272],[34.45974,-9.92723],[34.45968,-9.92726],[34.45963,-9.92727],[34.45957,-9.92731],[34.45951,-9.92733],[34.45944,-9.92736],[34.45936,-9.92735],[34.45929,-9.92736],[34.4592,-9.92738],[34.45912,-9.92743],[34.45906,-9.92749],[34.45901,-9.92751],[34.45895,-9.92757],[34.45888,-9.92764],[34.45882,-9.92769],[34.45875,-9.92777],[34.45871,-9.92782],[34.45865,-9.92788],[34.45859,-9.92793],[34.45852,-9.92797],[34.45844,-9.928],[34.45837,-9.92805],[34.45832,-9.92808],[34.45828,-9.92812],[34.45824,-9.92813],[34.45817,-9.92814],[34.4581,-9.92814],[34.45803,-9.92814],[34.45793,-9.92813],[34.45785,-9.92814],[34.4578,-9.92815],[34.45776,-9.92818],[34.45772,-9.92823],[34.45771,-9.92827],[34.45771,-9.92832],[34.45773,-9.92837],[34.45777,-9.92842],[34.45785,-9.92845],[34.4579,-9.92849],[34.45794,-9.92851],[34.45798,-9.92854],[34.45801,-9.92855],[34.45803,-9.92857],[34.45805,-9.92858],[34.45806,-9.92859],[34.45807,-9.9286],[34.45809,-9.92861],[34.4581,-9.92862],[34.45811,-9.92864],[34.45813,-9.92866],[34.45813,-9.92868],[34.45814,-9.9287],[34.45815,-9.92872],[34.45815,-9.92874],[34.45816,-9.92876],[34.45816,-9.92878],[34.45818,-9.9288],[34.45821,-9.92882],[34.45824,-9.92883],[34.45827,-9.92886],[34.4583,-9.92887],[34.45831,-9.92888],[34.45835,-9.92889],[34.45838,-9.9289],[34.45841,-9.9289],[34.45842,-9.92891],[34.45844,-9.92891],[34.45846,-9.92892],[34.45848,-9.92893],[34.45851,-9.92895],[34.45852,-9.92896],[34.45855,-9.92898],[34.45857,-9.929],[34.45858,-9.92902],[34.45859,-9.92905],[34.45859,-9.92908],[34.45861,-9.92913],[34.45862,-9.92918],[34.45865,-9.92923],[34.45871,-9.92924],[34.45881,-9.92925],[34.4589,-9.92922],[34.459,-9.9292],[34.45906,-9.9292],[34.45913,-9.92921],[34.45918,-9.92923],[34.45922,-9.92926],[34.45926,-9.9293],[34.45932,-9.92935],[34.45937,-9.92937],[34.45941,-9.92938],[34.45947,-9.92939],[34.45951,-9.92944],[34.45951,-9.92948],[34.45952,-9.92954],[34.45951,-9.92959],[34.45949,-9.92964],[34.45945,-9.92967],[34.45943,-9.92969],[34.45939,-9.92971],[34.45937,-9.92972],[34.45934,-9.92973],[34.45931,-9.92975],[34.45929,-9.92977],[34.45926,-9.9298],[34.45922,-9.92984],[34.4592,-9.92988],[34.45919,-9.92992],[34.45918,-9.92996],[34.45918,-9.93],[34.45919,-9.93002],[34.4592,-9.93006],[34.45921,-9.93008],[34.45924,-9.9301],[34.45929,-9.93012],[34.4594,-9.93013],[34.45966,-9.93018],[34.45982,-9.93021],[34.45992,-9.93025],[34.46,-9.93032],[34.46005,-9.93037],[34.46009,-9.93046],[34.46009,-9.9305],[34.46009,-9.93052],[34.46008,-9.93053],[34.46007,-9.93055],[34.46005,-9.93057],[34.46002,-9.9306],[34.45999,-9.93062],[34.45996,-9.93066],[34.45994,-9.93071],[34.45992,-9.93074],[34.4599,-9.9308],[34.45988,-9.93087],[34.45984,-9.93093],[34.45984,-9.93099],[34.45981,-9.93105],[34.45977,-9.9311],[34.4597,-9.93116],[34.45965,-9.93119],[34.45962,-9.93121],[34.45958,-9.93123],[34.45955,-9.93127],[34.45953,-9.93129],[34.45949,-9.93131],[34.45948,-9.93135],[34.45949,-9.93138],[34.45952,-9.9314],[34.45955,-9.93142],[34.45956,-9.93144],[34.45958,-9.93147],[34.45962,-9.9315],[34.45965,-9.93154],[34.45967,-9.93156],[34.45968,-9.93157],[34.45969,-9.93158],[34.4597,-9.93159],[34.45971,-9.93162],[34.45972,-9.93164],[34.45973,-9.93167],[34.45974,-9.9317],[34.45972,-9.93173],[34.4597,-9.93177],[34.45966,-9.9318],[34.45964,-9.93182],[34.45962,-9.93183],[34.45961,-9.93184],[34.4596,-9.93186],[34.45958,-9.93188],[34.45958,-9.9319],[34.45957,-9.93192],[34.45956,-9.93194],[34.45956,-9.93196],[34.45955,-9.93199],[34.45955,-9.93201],[34.45954,-9.93202],[34.45954,-9.93204],[34.45954,-9.93205],[34.45953,-9.93207],[34.45953,-9.93209],[34.45953,-9.93211],[34.45954,-9.93215],[34.45954,-9.93219],[34.45955,-9.93224],[34.45959,-9.93233],[34.45961,-9.9324],[34.45961,-9.93245],[34.45961,-9.93249],[34.45958,-9.93254],[34.45951,-9.93258],[34.45946,-9.9326],[34.45941,-9.93262],[34.45937,-9.93261],[34.45934,-9.9326],[34.45929,-9.93259],[34.45926,-9.93255],[34.45924,-9.93253],[34.45921,-9.93251],[34.45916,-9.9325],[34.45913,-9.9325],[34.45908,-9.9325],[34.45905,-9.9325],[34.45902,-9.93251],[34.459,-9.93255],[34.45898,-9.93257],[34.45895,-9.9326],[34.45892,-9.93264],[34.4589,-9.93266],[34.45888,-9.93268],[34.45884,-9.93271],[34.45882,-9.93273],[34.45879,-9.93276],[34.45873,-9.9328],[34.45868,-9.93284],[34.45867,-9.93286],[34.45863,-9.93287],[34.4586,-9.93289],[34.45857,-9.93289],[34.45854,-9.93287],[34.4585,-9.93286],[34.45845,-9.93285],[34.45839,-9.93284],[34.45831,-9.93285],[34.45826,-9.93286],[34.45822,-9.93285],[34.45819,-9.93285],[34.45818,-9.93284],[34.45816,-9.93284],[34.45815,-9.93284],[34.45813,-9.93283],[34.45812,-9.93284],[34.45811,-9.93283],[34.4581,-9.93284],[34.45809,-9.93284],[34.45807,-9.93284],[34.45806,-9.93285],[34.45804,-9.93285],[34.45803,-9.93286],[34.45801,-9.93286],[34.458,-9.93287],[34.45798,-9.93287],[34.45796,-9.93288],[34.45795,-9.93288],[34.45794,-9.93288],[34.45794,-9.93287],[34.45793,-9.93287],[34.45793,-9.93287],[34.45792,-9.93288],[34.45792,-9.93289],[34.45791,-9.93289],[34.4579,-9.93291],[34.4579,-9.93292],[34.4579,-9.93293],[34.45788,-9.93296],[34.45789,-9.93297],[34.45788,-9.93299],[34.45788,-9.933],[34.45789,-9.93302],[34.45791,-9.93302],[34.4579,-9.93303],[34.4579,-9.93303],[34.4579,-9.93304],[34.4579,-9.93305],[34.45791,-9.93305],[34.45791,-9.93306],[34.45791,-9.93307],[34.45791,-9.93309],[34.45791,-9.93311],[34.45795,-9.93314],[34.45799,-9.93317],[34.45801,-9.9332],[34.45801,-9.93324],[34.45804,-9.93326],[34.45806,-9.93328],[34.45808,-9.93331],[34.45808,-9.93333],[34.45808,-9.93335],[34.45808,-9.93337],[34.45808,-9.93339],[34.45808,-9.93342],[34.45808,-9.93345],[34.45806,-9.93356],[34.45801,-9.93373],[34.45796,-9.93381],[34.45793,-9.93384],[34.4579,-9.93389],[34.4579,-9.93397],[34.4579,-9.93401],[34.4579,-9.93406],[34.4579,-9.93409],[34.45789,-9.93418],[34.45788,-9.93421],[34.45788,-9.93425],[34.4579,-9.93428],[34.4579,-9.93432],[34.45789,-9.93435],[34.45785,-9.93439],[34.45784,-9.93441],[34.45783,-9.93445],[34.45781,-9.93446],[34.45777,-9.93446],[34.45775,-9.93448],[34.45774,-9.93451],[34.45774,-9.93454],[34.45772,-9.93455],[34.45768,-9.93456],[34.45766,-9.93457],[34.45766,-9.9346],[34.45765,-9.93463],[34.45763,-9.93468],[34.45761,-9.93471],[34.45759,-9.93475],[34.45758,-9.93479],[34.45758,-9.93482],[34.45757,-9.93484],[34.45756,-9.93487],[34.45754,-9.93489],[34.45751,-9.93493],[34.45747,-9.93497],[34.45743,-9.93501],[34.45739,-9.93505],[34.45736,-9.93509],[34.45735,-9.93513],[34.45735,-9.93519],[34.45731,-9.93523],[34.4573,-9.93527],[34.4573,-9.9353],[34.45728,-9.93533],[34.45727,-9.93536],[34.45727,-9.93539],[34.4573,-9.93544],[34.45729,-9.93546],[34.45729,-9.93551],[34.45729,-9.93553],[34.45729,-9.93555],[34.45727,-9.93557],[34.45726,-9.9356],[34.45726,-9.93565],[34.45723,-9.93566],[34.4572,-9.93569],[34.45716,-9.93572],[34.45712,-9.93577],[34.45709,-9.93581],[34.45707,-9.93588],[34.45706,-9.93595],[34.45707,-9.93604],[34.45708,-9.93605]]},"properties":{"id":661223744,"cls":"tertiary","hw":"tertiary","tg":"na","name":"","ref":"","surface":"","sc":"unknown","speed":null,"lit":"unk","km":2.655}},
{"type":"Feature","geometry":{"type":"LineString","coordinates":[[34.45708,-9.93605],[34.45709,-9.93607],[34.4571,-9.93608],[34.45711,-9.93609],[34.45712,-9.9361],[34.45711,-9.93612],[34.45711,-9.93613],[34.45709,-9.93614],[34.45708,-9.93614],[34.45708,-9.93615],[34.45707,-9.93617],[34.45707,-9.93618],[34.45707,-9.9362],[34.45709,-9.93624],[34.4571,-9.93625],[34.45712,-9.93627],[34.45714,-9.93627],[34.45715,-9.93631],[34.45713,-9.93633],[34.45712,-9.93635],[34.4571,-9.93636],[34.45707,-9.93639],[34.45706,-9.9364],[34.45703,-9.93642],[34.457,-9.93643],[34.457,-9.93644],[34.45699,-9.93645],[34.45699,-9.93646],[34.457,-9.93647],[34.45703,-9.93647],[34.45704,-9.93647],[34.45705,-9.93648],[34.45705,-9.9365],[34.45704,-9.93651],[34.45702,-9.93653],[34.45699,-9.93655],[34.45695,-9.93658],[34.45691,-9.93658],[34.45688,-9.9366],[34.45687,-9.93662],[34.45687,-9.93665],[34.45684,-9.93667],[34.45681,-9.9367],[34.4568,-9.93675],[34.4568,-9.93678],[34.4568,-9.93683],[34.45678,-9.93685],[34.45677,-9.93687],[34.45676,-9.93692],[34.45676,-9.93697],[34.45677,-9.93703],[34.45677,-9.93709],[34.45677,-9.93711],[34.45676,-9.93714],[34.45674,-9.93716],[34.45676,-9.9372],[34.45676,-9.93723],[34.45671,-9.93727],[34.45669,-9.93729],[34.45668,-9.93732],[34.45669,-9.93735],[34.45671,-9.93737],[34.45673,-9.9374],[34.45672,-9.93742],[34.4567,-9.93743],[34.45666,-9.93742],[34.45661,-9.93743],[34.45656,-9.93742],[34.45648,-9.93742],[34.45647,-9.93742],[34.45646,-9.93744],[34.45646,-9.93747],[34.45646,-9.93751],[34.45647,-9.93752]]},"properties":{"id":661223756,"cls":"path","hw":"path","tg":"na","name":"","ref":"","surface":"","sc":"unknown","speed":null,"lit":"unk","km":0.238}},
{"type":"Feature","geometry":{"type":"LineString","coordinates":[[34.45647,-9.93752],[34.45649,-9.93758],[34.4565,-9.93761],[34.45651,-9.93764],[34.45654,-9.93769],[34.45658,-9.93772],[34.45659,-9.93774],[34.4566,-9.93776],[34.45659,-9.93779],[34.45657,-9.93783],[34.45656,-9.93786],[34.45656,-9.9379],[34.45657,-9.93792],[34.45661,-9.93794],[34.45665,-9.93796],[34.45669,-9.93797],[34.4567,-9.93801],[34.45671,-9.93803],[34.4567,-9.93805],[34.45665,-9.9381],[34.45662,-9.93817],[34.45659,-9.93822],[34.45657,-9.93826],[34.45655,-9.9383],[34.45651,-9.93834],[34.45646,-9.93839]]},"properties":{"id":661223757,"cls":"path","hw":"path","tg":"na","name":"","ref":"","surface":"","sc":"unknown","speed":null,"lit":"unk","km":0.12}},
{"type":"Feature","geometry":{"type":"LineString","coordinates":[[34.45646,-9.93839],[34.45642,-9.93845],[34.45637,-9.93851],[34.45634,-9.93859],[34.45634,-9.9387],[34.45638,-9.93879],[34.45639,-9.93891],[34.45638,-9.93908],[34.45635,-9.93922],[34.45631,-9.93933],[34.45631,-9.93944],[34.45631,-9.93952],[34.45638,-9.93962],[34.45646,-9.93967],[34.45652,-9.93972],[34.45658,-9.93978],[34.45664,-9.93983],[34.45681,-9.93989],[34.45693,-9.93992],[34.45707,-9.94],[34.45714,-9.94003]]},"properties":{"id":661223758,"cls":"path","hw":"path","tg":"na","name":"","ref":"","surface":"","sc":"unknown","speed":null,"lit":"unk","km":0.241}},
{"type":"Feature","geometry":{"type":"LineString","coordinates":[[34.45714,-9.94003],[34.4573,-9.94008],[34.45737,-9.94012],[34.4574,-9.94016],[34.45742,-9.94021],[34.45741,-9.94026],[34.45717,-9.94049],[34.457,-9.94058],[34.45685,-9.94062],[34.45676,-9.94065],[34.45672,-9.94072],[34.45672,-9.94087],[34.45661,-9.94103],[34.45648,-9.94121],[34.45637,-9.94133],[34.45635,-9.94138],[34.45636,-9.94146],[34.45636,-9.94157],[34.4564,-9.94168],[34.45641,-9.94177],[34.45646,-9.94192],[34.45652,-9.94199],[34.45658,-9.94202],[34.45664,-9.94202],[34.4567,-9.94203],[34.45679,-9.94211],[34.4569,-9.94221],[34.45705,-9.94229],[34.45713,-9.94228],[34.45718,-9.94227],[34.45722,-9.94227],[34.45729,-9.94227],[34.45733,-9.94231],[34.45736,-9.94237],[34.4575,-9.94245],[34.45763,-9.94252],[34.45775,-9.94259],[34.45786,-9.94266],[34.45795,-9.94275],[34.458,-9.94281],[34.458,-9.94293],[34.45804,-9.94304],[34.45809,-9.94313],[34.45817,-9.94317],[34.45827,-9.94318]]},"properties":{"id":661223759,"cls":"path","hw":"path","tg":"na","name":"","ref":"","surface":"","sc":"unknown","speed":null,"lit":"unk","km":0.551}},
{"type":"Feature","geometry":{"type":"LineString","coordinates":[[34.16774,-9.6011],[34.16772,-9.6011],[34.16767,-9.60111],[34.16733,-9.60142],[34.1673,-9.60147],[34.16729,-9.60151],[34.16728,-9.60157],[34.16726,-9.6016],[34.16722,-9.60161],[34.16718,-9.60162],[34.16715,-9.60164],[34.16713,-9.60168],[34.16705,-9.60181],[34.16702,-9.60189],[34.16699,-9.60197],[34.16693,-9.60203],[34.16681,-9.60209],[34.16672,-9.60211],[34.16655,-9.60217],[34.16637,-9.60223],[34.16629,-9.60223],[34.1662,-9.60225],[34.16612,-9.6023],[34.16606,-9.60234],[34.16596,-9.60239],[34.16584,-9.60246],[34.16579,-9.60252],[34.16573,-9.60257],[34.1657,-9.60264],[34.16565,-9.60272],[34.16554,-9.60281],[34.16552,-9.60289],[34.16546,-9.60297],[34.16538,-9.60304],[34.16537,-9.6031],[34.16532,-9.60318],[34.16523,-9.60329],[34.16523,-9.60334],[34.16525,-9.60344],[34.16524,-9.60347],[34.16522,-9.60348],[34.16515,-9.60348],[34.1651,-9.60349],[34.16503,-9.60351],[34.16486,-9.60373],[34.16475,-9.60387],[34.16465,-9.6039],[34.16455,-9.60395],[34.16451,-9.604],[34.16449,-9.60407],[34.16438,-9.6042],[34.16425,-9.60427],[34.1642,-9.60432],[34.16419,-9.60434],[34.1642,-9.60437],[34.16422,-9.60441],[34.16424,-9.60451],[34.16421,-9.60466],[34.1642,-9.60471],[34.16418,-9.60474],[34.16415,-9.60477],[34.16412,-9.60479],[34.16396,-9.60481],[34.1639,-9.60488],[34.16387,-9.60498],[34.16387,-9.60516],[34.16385,-9.60526],[34.16374,-9.60537]]},"properties":{"id":1117226483,"cls":"tertiary","hw":"tertiary","tg":"na","name":"","ref":"","surface":"","sc":"unknown","speed":null,"lit":"unk","km":0.713}},
{"type":"Feature","geometry":{"type":"LineString","coordinates":[[34.16774,-9.6011],[34.16776,-9.60112],[34.16777,-9.60116],[34.16777,-9.60147],[34.16773,-9.60164],[34.16772,-9.60171],[34.1677,-9.60188],[34.16773,-9.60197],[34.16773,-9.60205],[34.16771,-9.60221],[34.16772,-9.6023],[34.16774,-9.60238],[34.16775,-9.60247],[34.16778,-9.60258],[34.16781,-9.60267]]},"properties":{"id":1117226484,"cls":"tertiary","hw":"tertiary","tg":"na","name":"","ref":"","surface":"","sc":"unknown","speed":null,"lit":"unk","km":0.178}},
{"type":"Feature","geometry":{"type":"LineString","coordinates":[[34.16781,-9.60267],[34.16776,-9.60272],[34.16771,-9.60276],[34.16765,-9.60283],[34.16758,-9.60292],[34.16749,-9.60299],[34.16743,-9.603],[34.16722,-9.60312],[34.16713,-9.60319],[34.16705,-9.60328],[34.16694,-9.60332],[34.16675,-9.60345],[34.16665,-9.60346],[34.16656,-9.60351],[34.16632,-9.60362],[34.16628,-9.60366],[34.16626,-9.6037],[34.16625,-9.60377],[34.16624,-9.60383],[34.16619,-9.6039],[34.1661,-9.604],[34.16599,-9.6041],[34.16596,-9.60416],[34.16582,-9.60429],[34.16576,-9.60449],[34.16575,-9.60459],[34.16571,-9.60467],[34.16564,-9.60484],[34.16559,-9.60491],[34.16557,-9.60501],[34.16558,-9.60507],[34.16553,-9.60521],[34.16536,-9.60532],[34.1653,-9.60536],[34.16514,-9.60539],[34.16504,-9.60543],[34.16499,-9.60546],[34.1649,-9.60552],[34.16487,-9.60558],[34.16487,-9.60565],[34.16489,-9.6057],[34.16496,-9.6058],[34.16496,-9.60587],[34.16489,-9.60593]]},"properties":{"id":1117226485,"cls":"tertiary","hw":"tertiary","tg":"na","name":"","ref":"","surface":"","sc":"unknown","speed":null,"lit":"unk","km":0.534}},
{"type":"Feature","geometry":{"type":"LineString","coordinates":[[34.16781,-9.60267],[34.16787,-9.60278],[34.16793,-9.60286],[34.16797,-9.60297],[34.16802,-9.60306],[34.16803,-9.60322],[34.168,-9.6034],[34.16792,-9.60348],[34.16785,-9.60354],[34.16779,-9.60357],[34.16775,-9.60363],[34.16773,-9.60372],[34.16769,-9.60377],[34.16767,-9.60384],[34.16762,-9.6039],[34.16757,-9.60394],[34.16749,-9.60407],[34.16742,-9.60424],[34.16738,-9.60435],[34.16734,-9.60443],[34.1673,-9.60456],[34.16729,-9.60464],[34.16731,-9.60467],[34.16728,-9.60479],[34.16728,-9.60489],[34.16728,-9.60495],[34.16727,-9.60501],[34.16728,-9.60509],[34.16721,-9.60514],[34.16723,-9.60527],[34.16723,-9.60537],[34.16722,-9.60545],[34.16717,-9.60558],[34.16712,-9.60563],[34.16705,-9.60566],[34.16704,-9.60574],[34.16705,-9.60579],[34.16703,-9.60585],[34.16696,-9.60598],[34.16694,-9.60601],[34.16694,-9.60606],[34.16696,-9.60609],[34.16696,-9.60616],[34.16697,-9.60618],[34.16694,-9.60622],[34.16695,-9.60628],[34.16692,-9.60632],[34.16687,-9.60638],[34.16688,-9.60645],[34.1669,-9.60645],[34.16689,-9.6065],[34.16685,-9.60654],[34.16689,-9.60663],[34.16687,-9.6067],[34.16686,-9.60673],[34.16686,-9.60679],[34.16682,-9.60689],[34.16681,-9.60696],[34.16677,-9.60703],[34.16673,-9.60709],[34.16672,-9.60715],[34.16679,-9.60721]]},"properties":{"id":1117226486,"cls":"tertiary","hw":"tertiary","tg":"na","name":"","ref":"","surface":"","sc":"unknown","speed":null,"lit":"unk","km":0.571}},
{"type":"Feature","geometry":{"type":"LineString","coordinates":[[34.16242,-9.60275],[34.16238,-9.60297],[34.1623,-9.60315],[34.16227,-9.60336],[34.16243,-9.60353],[34.16254,-9.60358],[34.16278,-9.60377],[34.16311,-9.60398],[34.1632,-9.60403],[34.16323,-9.6042],[34.16324,-9.6043],[34.16329,-9.60435],[34.16329,-9.60448],[34.16334,-9.60465],[34.16341,-9.60478],[34.16347,-9.60487],[34.16353,-9.60495],[34.16352,-9.6051],[34.16357,-9.60519],[34.16365,-9.60529],[34.16374,-9.60537],[34.16377,-9.6054],[34.16387,-9.60543],[34.16394,-9.60544],[34.16407,-9.60544],[34.16434,-9.6054],[34.16443,-9.60539],[34.16445,-9.6054],[34.16447,-9.60543],[34.16447,-9.60546],[34.16443,-9.60556],[34.16442,-9.6056],[34.16445,-9.60563],[34.16468,-9.60579],[34.16489,-9.60593],[34.16512,-9.6061],[34.1653,-9.60624],[34.16549,-9.60635],[34.16563,-9.60642],[34.16574,-9.60639],[34.1658,-9.60634],[34.1659,-9.60632],[34.16591,-9.60637],[34.1659,-9.60647],[34.16593,-9.60653],[34.16603,-9.60664],[34.16621,-9.60677],[34.16623,-9.60684],[34.16628,-9.60688],[34.16636,-9.60699],[34.16643,-9.60705],[34.16649,-9.60713],[34.16652,-9.60723],[34.16657,-9.60733],[34.16662,-9.60734],[34.1667,-9.60731],[34.16674,-9.60725],[34.16679,-9.60721],[34.16681,-9.60719],[34.16686,-9.60713],[34.16696,-9.6071],[34.16699,-9.60714],[34.16698,-9.60725],[34.16695,-9.60731],[34.16696,-9.60738],[34.16703,-9.60739],[34.16726,-9.6074],[34.16741,-9.60742],[34.16751,-9.60741],[34.16764,-9.6074],[34.16773,-9.60742],[34.16777,-9.60744],[34.16777,-9.60745],[34.16777,-9.60746],[34.16776,-9.6075],[34.16774,-9.60753],[34.16753,-9.60766],[34.16751,-9.60769],[34.16751,-9.60773],[34.16755,-9.60786]]},"properties":{"id":1117226489,"cls":"tertiary","hw":"tertiary","tg":"na","name":"","ref":"","surface":"","sc":"unknown","speed":null,"lit":"unk","km":1.041}},
{"type":"Feature","geometry":{"type":"LineString","coordinates":[[34.16755,-9.60786],[34.16769,-9.60796],[34.16776,-9.60805],[34.16783,-9.60818],[34.16788,-9.60822],[34.16798,-9.60827],[34.16795,-9.60835],[34.16796,-9.60844],[34.16799,-9.60855],[34.168,-9.60862],[34.16813,-9.60878],[34.16821,-9.60888],[34.16827,-9.60898],[34.1683,-9.60907],[34.16834,-9.60914],[34.16844,-9.60932],[34.16851,-9.60943],[34.16861,-9.60949],[34.16876,-9.60951],[34.16891,-9.60951],[34.16912,-9.60952],[34.16928,-9.60955],[34.16939,-9.60957],[34.16949,-9.6096],[34.16959,-9.60964],[34.16979,-9.60966],[34.16978,-9.60972],[34.16973,-9.60978],[34.16968,-9.60989],[34.16969,-9.60996],[34.16975,-9.61003],[34.16989,-9.61014],[34.17003,-9.61022],[34.1702,-9.61019],[34.17026,-9.61024],[34.17026,-9.61031],[34.17029,-9.61038],[34.17047,-9.61056],[34.17056,-9.61071],[34.1707,-9.61079],[34.17081,-9.6108],[34.17091,-9.61089],[34.17104,-9.61092],[34.17122,-9.61098],[34.17132,-9.61104],[34.17131,-9.61113],[34.17134,-9.61121],[34.17155,-9.61136],[34.17173,-9.61143],[34.17181,-9.61149],[34.17191,-9.61151],[34.17198,-9.61166],[34.17206,-9.6117],[34.17213,-9.61175],[34.17218,-9.61185],[34.17224,-9.61192],[34.17236,-9.612],[34.17245,-9.61201],[34.17254,-9.612],[34.1726,-9.61201],[34.17268,-9.6121],[34.17281,-9.61217],[34.17291,-9.61223],[34.17298,-9.61234],[34.1731,-9.61243],[34.17346,-9.61256],[34.17366,-9.61268],[34.17383,-9.61279],[34.17401,-9.6129],[34.17422,-9.61308],[34.17433,-9.61317],[34.17443,-9.61313],[34.17454,-9.6131],[34.17475,-9.61303],[34.17491,-9.61308],[34.17491,-9.61318],[34.17493,-9.61328],[34.175,-9.61339],[34.17513,-9.61343],[34.1754,-9.61345],[34.17548,-9.61343],[34.17567,-9.61333],[34.17579,-9.61325],[34.17597,-9.61323],[34.17617,-9.61321],[34.17629,-9.61317],[34.17638,-9.61315]]},"properties":{"id":1117226496,"cls":"tertiary","hw":"tertiary","tg":"na","name":"","ref":"","surface":"","sc":"unknown","speed":null,"lit":"unk","km":1.317}},
{"type":"Feature","geometry":{"type":"LineString","coordinates":[[34.17755,-9.61355],[34.17767,-9.61364],[34.17778,-9.6137],[34.17782,-9.61374],[34.17784,-9.61378],[34.17784,-9.61388],[34.17784,-9.61394],[34.1779,-9.614]]},"properties":{"id":1117226508,"cls":"residential","hw":"residential","tg":"na","name":"","ref":"","surface":"","sc":"unknown","speed":null,"lit":"unk","km":0.069}},
{"type":"Feature","geometry":{"type":"LineString","coordinates":[[34.18316,-9.62166],[34.18337,-9.62183],[34.18362,-9.62194],[34.18381,-9.62207],[34.18394,-9.62218],[34.18383,-9.62227],[34.18371,-9.62243],[34.18382,-9.62256],[34.184,-9.62255],[34.18408,-9.62265],[34.1842,-9.62273],[34.18438,-9.62279],[34.18434,-9.62293],[34.18423,-9.62306],[34.18411,-9.62324],[34.18417,-9.62333],[34.18443,-9.62342],[34.18464,-9.62354],[34.18482,-9.62373],[34.18512,-9.62388],[34.18532,-9.62398],[34.18551,-9.62408],[34.1856,-9.62421],[34.18571,-9.62431],[34.18588,-9.62432],[34.18598,-9.62432],[34.186,-9.62443],[34.18614,-9.62451],[34.18626,-9.62447],[34.18638,-9.62445],[34.18653,-9.62449],[34.18665,-9.62452],[34.18666,-9.62456],[34.18651,-9.62457],[34.18644,-9.62458],[34.1864,-9.62465],[34.18625,-9.6247],[34.18618,-9.62482],[34.18602,-9.62484],[34.18609,-9.62504],[34.1862,-9.62521],[34.18635,-9.62539],[34.18645,-9.62553],[34.18657,-9.62576],[34.18678,-9.62586],[34.187,-9.62588],[34.18715,-9.6259],[34.18728,-9.62599],[34.18737,-9.6262],[34.18753,-9.62648],[34.18754,-9.62662],[34.1877,-9.62683],[34.18808,-9.62719],[34.18818,-9.6274],[34.18828,-9.62755],[34.18841,-9.62764],[34.18854,-9.62763],[34.18866,-9.62753],[34.18873,-9.62744],[34.18879,-9.62738],[34.18885,-9.62734],[34.18891,-9.6274],[34.1889,-9.62749],[34.18889,-9.62761],[34.18884,-9.62769],[34.18878,-9.62781],[34.18873,-9.6279],[34.18875,-9.62806],[34.18895,-9.62815],[34.18905,-9.62827],[34.18916,-9.62842],[34.18916,-9.62857],[34.18924,-9.62869],[34.18935,-9.62872],[34.18965,-9.62883],[34.18979,-9.62896],[34.18986,-9.62906],[34.19005,-9.62913],[34.19018,-9.62916],[34.19041,-9.62935],[34.19061,-9.62971],[34.19074,-9.62995],[34.1908,-9.62998],[34.19108,-9.63024],[34.19128,-9.6304],[34.19159,-9.6306],[34.19179,-9.63072],[34.19206,-9.63074],[34.19224,-9.63078],[34.19243,-9.63084],[34.19252,-9.63087],[34.19273,-9.63084],[34.19283,-9.63083],[34.19285,-9.63081],[34.19286,-9.63079],[34.1929,-9.6307],[34.19296,-9.63064],[34.19298,-9.63064],[34.193,-9.63066],[34.19302,-9.6307],[34.19304,-9.63074],[34.19306,-9.63086],[34.19305,-9.63092],[34.19294,-9.63104],[34.19294,-9.63105],[34.19294,-9.63107],[34.19304,-9.63114],[34.19316,-9.63126],[34.19329,-9.63121],[34.19343,-9.63119],[34.19365,-9.63124],[34.19366,-9.63126],[34.19367,-9.63128],[34.19365,-9.63132],[34.19362,-9.63135],[34.19357,-9.63141],[34.19344,-9.63145],[34.19339,-9.63149],[34.19333,-9.63161],[34.19334,-9.6317],[34.19345,-9.6318],[34.19362,-9.63183],[34.19364,-9.63187],[34.19375,-9.63201],[34.19396,-9.632],[34.19408,-9.63211],[34.19421,-9.63228],[34.19428,-9.63235],[34.19469,-9.63252],[34.19487,-9.6326],[34.19497,-9.63274],[34.1951,-9.6329],[34.19524,-9.63304],[34.19535,-9.63318],[34.19557,-9.63346],[34.19564,-9.63357],[34.19564,-9.63367],[34.19574,-9.63371],[34.19587,-9.63371],[34.19591,-9.63374],[34.19596,-9.63387],[34.19603,-9.63404],[34.19623,-9.634],[34.19634,-9.63397],[34.19646,-9.63396],[34.19671,-9.634],[34.19695,-9.6341]]},"properties":{"id":1117233390,"cls":"unclassified","hw":"unclassified","tg":"na","name":"","ref":"","surface":"","sc":"unknown","speed":null,"lit":"unk","km":2.642}},
{"type":"Feature","geometry":{"type":"LineString","coordinates":[[34.19603,-9.63404],[34.19603,-9.63416],[34.19607,-9.63426],[34.19602,-9.63435],[34.19603,-9.6344],[34.19604,-9.63452],[34.19604,-9.63461],[34.19604,-9.63466],[34.1962,-9.63481],[34.19637,-9.63508],[34.19651,-9.63531],[34.19657,-9.63538],[34.19672,-9.63545],[34.19684,-9.63554],[34.19706,-9.63559],[34.19707,-9.63566],[34.19726,-9.63581],[34.19733,-9.63586],[34.19739,-9.63587],[34.19759,-9.63599],[34.19775,-9.63614],[34.19776,-9.63628],[34.19792,-9.63644],[34.19816,-9.63658],[34.19835,-9.63661],[34.19856,-9.63665],[34.19864,-9.6367],[34.1987,-9.63692],[34.19877,-9.637],[34.19904,-9.63707],[34.1992,-9.63725],[34.19942,-9.63736],[34.19954,-9.63768],[34.1997,-9.63791],[34.19995,-9.63807],[34.20016,-9.63814],[34.20033,-9.63822],[34.20035,-9.63838],[34.20057,-9.63856],[34.20079,-9.63872],[34.2009,-9.63895],[34.20105,-9.63911],[34.20103,-9.63922],[34.20122,-9.63937],[34.20136,-9.63955],[34.20149,-9.63961],[34.20174,-9.63991],[34.2019,-9.64005],[34.20214,-9.64015],[34.2024,-9.64025],[34.20253,-9.64043],[34.20281,-9.64059],[34.20294,-9.6406],[34.20316,-9.64072],[34.20331,-9.64094],[34.20345,-9.64111],[34.20347,-9.64119],[34.20364,-9.64123],[34.20378,-9.64131],[34.20397,-9.64133],[34.20416,-9.64146],[34.2042,-9.64153],[34.2043,-9.64153],[34.20441,-9.64154],[34.20443,-9.64159],[34.20459,-9.64163],[34.20477,-9.6417],[34.20498,-9.64185],[34.20524,-9.64192],[34.20538,-9.64189],[34.20545,-9.64176],[34.2055,-9.64167],[34.20555,-9.6416],[34.20565,-9.64149],[34.20577,-9.64136],[34.20597,-9.64116],[34.2061,-9.64106],[34.20591,-9.64098],[34.20581,-9.64095],[34.20567,-9.64089],[34.20547,-9.64084],[34.20532,-9.64079],[34.20507,-9.64071],[34.20492,-9.64072],[34.20479,-9.64076],[34.20466,-9.64064],[34.20455,-9.64059],[34.20439,-9.6405],[34.20425,-9.64052],[34.20413,-9.64052],[34.20406,-9.64061],[34.20392,-9.64071],[34.20382,-9.64086],[34.20378,-9.64087],[34.20362,-9.64076],[34.20345,-9.64046],[34.20334,-9.64043],[34.20326,-9.64032],[34.20321,-9.64023],[34.20314,-9.64005],[34.20307,-9.63985],[34.203,-9.63971],[34.20294,-9.63954],[34.20292,-9.63943],[34.20293,-9.63922],[34.20301,-9.63911],[34.20306,-9.63908],[34.20302,-9.63901]]},"properties":{"id":1117233391,"cls":"unclassified","hw":"unclassified","tg":"na","name":"","ref":"","surface":"","sc":"unknown","speed":null,"lit":"unk","km":2.12}},
{"type":"Feature","geometry":{"type":"LineString","coordinates":[[34.19604,-9.63461],[34.19617,-9.63453],[34.19623,-9.6345],[34.19628,-9.63451],[34.19635,-9.63449],[34.19636,-9.63445],[34.19634,-9.63439],[34.19637,-9.63434],[34.19655,-9.6343],[34.19671,-9.63422],[34.19682,-9.63417],[34.19695,-9.6341],[34.19709,-9.634],[34.19714,-9.63385],[34.19731,-9.63367],[34.19741,-9.63348],[34.19749,-9.63341],[34.19759,-9.63342],[34.19774,-9.63337],[34.19786,-9.63338],[34.19796,-9.63336],[34.19809,-9.63336],[34.19817,-9.63332],[34.19833,-9.63337],[34.19842,-9.63341],[34.19856,-9.63334],[34.19875,-9.63326],[34.19888,-9.63328],[34.19892,-9.63326],[34.19895,-9.63323],[34.19901,-9.63324],[34.19909,-9.63319],[34.19918,-9.63313],[34.19926,-9.63306],[34.19936,-9.6331],[34.19949,-9.63328],[34.19972,-9.63318],[34.20004,-9.63299],[34.2003,-9.63282],[34.20062,-9.63266],[34.20068,-9.63256],[34.20088,-9.63244],[34.20107,-9.6323],[34.20124,-9.63213],[34.20173,-9.63185],[34.20192,-9.63173],[34.20202,-9.6315],[34.20212,-9.63121],[34.20222,-9.63109],[34.20234,-9.63088],[34.2025,-9.63075],[34.20264,-9.63055],[34.2028,-9.6304],[34.20298,-9.63032],[34.20336,-9.63008],[34.20343,-9.62985],[34.20345,-9.62975],[34.20281,-9.62971],[34.20242,-9.62959],[34.20214,-9.62936],[34.20192,-9.62921],[34.20144,-9.6289],[34.20119,-9.6289],[34.2009,-9.62879],[34.20055,-9.6286],[34.20022,-9.62867],[34.19999,-9.62845],[34.19984,-9.62824],[34.19973,-9.62801],[34.19952,-9.6277],[34.19898,-9.62752],[34.19863,-9.62762],[34.1985,-9.62778],[34.19825,-9.62796],[34.19804,-9.62812],[34.19764,-9.62837],[34.19717,-9.62872],[34.19702,-9.62889],[34.1966,-9.629],[34.19638,-9.62925],[34.19626,-9.62946],[34.19615,-9.62958],[34.19603,-9.62968],[34.19597,-9.62978],[34.19588,-9.62992],[34.19591,-9.63],[34.19583,-9.63005],[34.19576,-9.6301],[34.19573,-9.63016],[34.19565,-9.63021],[34.1956,-9.63031],[34.19551,-9.63038],[34.19546,-9.6305],[34.19542,-9.63057],[34.19534,-9.63056],[34.19525,-9.63058],[34.19514,-9.63065],[34.19503,-9.63082],[34.1949,-9.63085],[34.19476,-9.6309],[34.19464,-9.63104],[34.19453,-9.63122],[34.19443,-9.63139],[34.19431,-9.6315],[34.19416,-9.63153],[34.19392,-9.63157],[34.19365,-9.63154],[34.19363,-9.63146],[34.19368,-9.63135],[34.19365,-9.63132]]},"properties":{"id":1117233392,"cls":"unclassified","hw":"unclassified","tg":"na","name":"","ref":"","surface":"","sc":"unknown","speed":null,"lit":"unk","km":2.478}},
{"type":"Feature","geometry":{"type":"LineString","coordinates":[[34.19949,-9.63328],[34.19952,-9.63335],[34.19963,-9.63338],[34.19973,-9.63345],[34.19987,-9.63341],[34.19997,-9.63342],[34.20008,-9.63342],[34.2002,-9.6334],[34.20038,-9.63331],[34.2005,-9.63323],[34.2006,-9.63316],[34.20082,-9.63307],[34.20088,-9.63306]]},"properties":{"id":1117233393,"cls":"tertiary","hw":"tertiary","tg":"na","name":"","ref":"","surface":"","sc":"unknown","speed":null,"lit":"unk","km":0.171}},
{"type":"Feature","geometry":{"type":"LineString","coordinates":[[34.20088,-9.63306],[34.2011,-9.63315],[34.20128,-9.6332],[34.20141,-9.63329],[34.20158,-9.63338],[34.20172,-9.63342],[34.20193,-9.63346],[34.20214,-9.6335],[34.20223,-9.6334],[34.20235,-9.63334],[34.20251,-9.63326],[34.20268,-9.63314],[34.20279,-9.63309],[34.20304,-9.63298],[34.20321,-9.63269],[34.20337,-9.63248],[34.2035,-9.63243],[34.20366,-9.63222],[34.20379,-9.63208],[34.20436,-9.63192],[34.20497,-9.63185],[34.20535,-9.63137],[34.20529,-9.63089],[34.20543,-9.63044],[34.20559,-9.62998],[34.20608,-9.62985],[34.2065,-9.63004],[34.20694,-9.63001],[34.20777,-9.62993],[34.2078,-9.6299],[34.20781,-9.62986],[34.20773,-9.6294],[34.20744,-9.62888],[34.20755,-9.62849],[34.20795,-9.62825],[34.20885,-9.62796]]},"properties":{"id":1117233394,"cls":"tertiary","hw":"tertiary","tg":"na","name":"","ref":"","surface":"","sc":"unknown","speed":null,"lit":"unk","km":1.329}},
{"type":"Feature","geometry":{"type":"LineString","coordinates":[[34.20214,-9.6335],[34.20214,-9.63377],[34.20225,-9.63393],[34.20225,-9.63401],[34.20231,-9.63409],[34.20248,-9.63427],[34.20257,-9.63434],[34.20265,-9.63445],[34.20268,-9.63456],[34.20271,-9.63461],[34.20279,-9.6348],[34.20294,-9.63496],[34.20321,-9.63514],[34.2033,-9.63519],[34.2034,-9.63543],[34.20346,-9.63557],[34.20343,-9.63573],[34.20343,-9.63586],[34.20346,-9.63603],[34.20351,-9.63623],[34.20355,-9.63633],[34.20352,-9.63645],[34.20352,-9.6366],[34.20351,-9.63677],[34.20354,-9.63699],[34.20357,-9.63707],[34.20362,-9.63711],[34.20358,-9.63737],[34.20355,-9.63757],[34.20363,-9.63772],[34.2036,-9.63784],[34.20354,-9.63789],[34.20355,-9.63808],[34.20353,-9.6382],[34.2035,-9.63829],[34.20346,-9.63831],[34.20337,-9.63849],[34.20332,-9.63869],[34.20325,-9.63876],[34.20316,-9.63884],[34.2031,-9.63891],[34.20302,-9.63901],[34.20295,-9.63903],[34.20286,-9.63917],[34.20261,-9.63929],[34.2024,-9.63941],[34.20228,-9.63945],[34.20219,-9.63946],[34.20208,-9.63957],[34.20202,-9.63961],[34.20195,-9.63958],[34.20183,-9.63962],[34.20174,-9.63958],[34.20162,-9.63958],[34.20149,-9.63961]]},"properties":{"id":1117233395,"cls":"tertiary","hw":"tertiary","tg":"na","name":"","ref":"","surface":"","sc":"unknown","speed":null,"lit":"unk","km":0.893}},
{"type":"Feature","geometry":{"type":"LineString","coordinates":[[34.14951,-9.58581],[34.14942,-9.58569]]},"properties":{"id":1293813821,"cls":"residential","hw":"residential","tg":"na","name":"","ref":"","surface":"","sc":"unknown","speed":null,"lit":"unk","km":0.017}},
{"type":"Feature","geometry":{"type":"LineString","coordinates":[[34.14881,-9.58645],[34.149,-9.58642],[34.1491,-9.5864],[34.14917,-9.58638],[34.14922,-9.58635],[34.14944,-9.58609],[34.14951,-9.58598],[34.14952,-9.58594],[34.14952,-9.58587],[34.14951,-9.58581]]},"properties":{"id":1293813822,"cls":"residential","hw":"residential","tg":"na","name":"","ref":"","surface":"","sc":"unknown","speed":null,"lit":"unk","km":0.118}}
]}