{"type":"FeatureCollection","features":[
{"type":"Feature","geometry":{"type":"LineString","coordinates":[[34.96484,-11.57526],[34.96444,-11.57541],[34.96417,-11.57552],[34.96402,-11.57558],[34.96381,-11.57567],[34.96362,-11.57578],[34.96337,-11.57581],[34.96319,-11.57584],[34.96307,-11.57594],[34.96303,-11.576],[34.9629,-11.57609],[34.96275,-11.57617],[34.96258,-11.57627],[34.96239,-11.57635],[34.96224,-11.57643],[34.96191,-11.57622]]},"properties":{"id":365428858,"cls":"path","hw":"path","tg":"na","name":"","ref":"","surface":"unpaved","sc":"unpaved","speed":null,"lit":"unk","km":0.359}},
{"type":"Feature","geometry":{"type":"LineString","coordinates":[[34.96581,-11.57681],[34.96565,-11.57684],[34.96564,-11.57675],[34.9656,-11.5767],[34.96553,-11.57659],[34.96542,-11.57638],[34.96533,-11.57623],[34.96523,-11.57605],[34.96513,-11.57587],[34.96504,-11.57576],[34.96499,-11.57565],[34.9649,-11.57538],[34.96484,-11.57526],[34.96477,-11.57515],[34.96468,-11.57491],[34.96465,-11.57476],[34.96448,-11.5741],[34.96434,-11.57387],[34.96427,-11.57375],[34.96423,-11.57364],[34.9642,-11.57355],[34.96416,-11.57345],[34.96413,-11.57331],[34.96412,-11.5732]]},"properties":{"id":365428859,"cls":"path","hw":"path","tg":"na","name":"","ref":"","surface":"unpaved","sc":"unpaved","speed":null,"lit":"unk","km":0.46}},
{"type":"Feature","geometry":{"type":"LineString","coordinates":[[34.96412,-11.5732],[34.96412,-11.57306],[34.96409,-11.57293],[34.96405,-11.57284]]},"properties":{"id":365428861,"cls":"path","hw":"path","tg":"na","name":"","ref":"","surface":"unpaved","sc":"unpaved","speed":null,"lit":"unk","km":0.041}},
{"type":"Feature","geometry":{"type":"LineString","coordinates":[[34.96742,-11.57306],[34.96745,-11.57287],[34.96737,-11.57264],[34.96735,-11.57248],[34.96742,-11.57232],[34.96752,-11.57218],[34.96756,-11.57203]]},"properties":{"id":365428862,"cls":"path","hw":"path","tg":"na","name":"","ref":"","surface":"unpaved","sc":"unpaved","speed":null,"lit":"unk","km":0.122}},
{"type":"Feature","geometry":{"type":"LineString","coordinates":[[34.96742,-11.57306],[34.96726,-11.57299],[34.96701,-11.57296],[34.96678,-11.57297],[34.96653,-11.5729],[34.96632,-11.57278],[34.96614,-11.57272],[34.96581,-11.57264]]},"properties":{"id":365428864,"cls":"path","hw":"path","tg":"na","name":"","ref":"","surface":"unpaved","sc":"unpaved","speed":null,"lit":"unk","km":0.184}},
{"type":"Feature","geometry":{"type":"LineString","coordinates":[[34.95984,-11.50607],[34.95987,-11.50642],[34.95984,-11.5069],[34.95985,-11.50707],[34.95986,-11.50716],[34.96004,-11.50784],[34.96009,-11.5085],[34.9602,-11.50875],[34.9603,-11.50904],[34.96041,-11.50945],[34.96045,-11.51041],[34.96051,-11.51079],[34.96079,-11.51166],[34.96089,-11.51197],[34.96123,-11.51277],[34.96143,-11.51351],[34.96151,-11.51402],[34.96151,-11.5142],[34.96139,-11.51488],[34.96141,-11.51529],[34.96143,-11.51543],[34.96149,-11.5158],[34.96151,-11.51658],[34.96147,-11.51713],[34.96148,-11.51767],[34.96151,-11.51794],[34.96159,-11.51818],[34.96176,-11.51851],[34.96218,-11.51918],[34.96228,-11.51933],[34.96245,-11.51975],[34.96252,-11.51987],[34.96259,-11.51996],[34.96294,-11.52025],[34.96301,-11.5204],[34.9632,-11.52103],[34.96327,-11.52124],[34.96332,-11.52138],[34.96351,-11.52159],[34.96377,-11.52189],[34.96383,-11.52219],[34.96376,-11.52238],[34.96322,-11.52325],[34.96305,-11.5236],[34.96305,-11.52379],[34.96323,-11.52419],[34.9634,-11.52486],[34.9637,-11.52572],[34.96388,-11.52681],[34.9639,-11.52701],[34.96405,-11.52829],[34.96413,-11.52872],[34.96416,-11.52921],[34.9641,-11.5297],[34.96352,-11.53112],[34.9634,-11.53134],[34.96295,-11.53203],[34.96281,-11.53228],[34.96208,-11.53504],[34.96185,-11.5356],[34.96181,-11.53573],[34.96183,-11.53586],[34.96207,-11.53631],[34.96226,-11.53676],[34.96233,-11.53687],[34.96296,-11.53744],[34.96308,-11.53763],[34.96321,-11.5382],[34.96328,-11.53923],[34.96334,-11.53941],[34.96347,-11.5396],[34.9635,-11.53975],[34.96338,-11.54153],[34.96342,-11.54279],[34.96342,-11.54283],[34.96344,-11.54296],[34.96344,-11.54298],[34.96344,-11.54301],[34.96344,-11.54307],[34.96342,-11.54324],[34.96336,-11.54341],[34.96305,-11.54392],[34.96298,-11.54415],[34.96287,-11.54494],[34.96285,-11.54564],[34.96288,-11.5458],[34.96315,-11.54624],[34.96325,-11.5464],[34.96336,-11.54673],[34.96342,-11.54686],[34.96359,-11.54713],[34.96368,-11.54728],[34.96399,-11.54806],[34.96405,-11.54817],[34.96444,-11.54869],[34.96475,-11.54942],[34.96481,-11.5498],[34.96488,-11.55011],[34.96494,-11.55037],[34.96504,-11.55088],[34.96503,-11.55132],[34.96501,-11.55189],[34.96494,-11.55212],[34.9649,-11.55228],[34.96463,-11.55275],[34.96433,-11.55324],[34.96427,-11.55355],[34.96425,-11.55421],[34.96442,-11.55508],[34.96443,-11.55543],[34.96445,-11.55584],[34.96445,-11.55653],[34.96449,-11.55708],[34.96453,-11.55745],[34.96453,-11.55784],[34.96456,-11.55815],[34.9645,-11.5585],[34.96438,-11.55894],[34.96421,-11.55941],[34.9641,-11.5597],[34.96404,-11.56007],[34.96401,-11.56097],[34.96404,-11.5613],[34.96412,-11.56166],[34.96413,-11.56229],[34.96409,-11.56281],[34.96407,-11.56291],[34.96404,-11.56323],[34.96405,-11.56346],[34.96413,-11.56384],[34.96418,-11.5643],[34.96422,-11.56468],[34.96413,-11.56494],[34.96396,-11.56531],[34.96392,-11.56551],[34.96393,-11.56564],[34.96409,-11.56597],[34.96451,-11.56663],[34.96514,-11.56735],[34.96572,-11.56801],[34.9661,-11.56846],[34.96647,-11.56888],[34.9667,-11.56909],[34.96708,-11.56958],[34.96736,-11.56992],[34.96745,-11.5701],[34.96754,-11.57037],[34.96756,-11.57043]]},"properties":{"id":375767440,"cls":"tertiary","hw":"tertiary","tg":"na","name":"","ref":"","surface":"unpaved","sc":"unpaved","speed":null,"lit":"unk","km":7.642}},
{"type":"Feature","geometry":{"type":"LineString","coordinates":[[34.95799,-11.50307],[34.95807,-11.50316]]},"properties":{"id":383414190,"cls":"tertiary","hw":"tertiary","tg":"na","name":"","ref":"","surface":"unpaved","sc":"unpaved","speed":null,"lit":"unk","km":0.013}},
{"type":"Feature","geometry":{"type":"LineString","coordinates":[[34.95807,-11.50316],[34.95827,-11.50337],[34.95838,-11.50355],[34.95847,-11.5039],[34.95854,-11.50414],[34.95862,-11.50425],[34.959,-11.50458],[34.95923,-11.50489],[34.9595,-11.50532],[34.95984,-11.50607]]},"properties":{"id":383414209,"cls":"tertiary","hw":"tertiary","tg":"na","name":"","ref":"","surface":"unpaved","sc":"unpaved","speed":null,"lit":"unk","km":0.384}},
{"type":"Feature","geometry":{"type":"LineString","coordinates":[[34.96756,-11.57043],[34.96758,-11.57053],[34.9676,-11.57063],[34.96755,-11.57084],[34.9675,-11.571],[34.96743,-11.57111],[34.96732,-11.57117],[34.96715,-11.57134],[34.96706,-11.57152],[34.96701,-11.57166],[34.96694,-11.57181],[34.96686,-11.57192],[34.96673,-11.57209],[34.9666,-11.57222],[34.9665,-11.57231],[34.96636,-11.57239],[34.96618,-11.57248],[34.96596,-11.57259],[34.96581,-11.57264],[34.96566,-11.57278],[34.96557,-11.5728],[34.96544,-11.57277],[34.9653,-11.57278],[34.96504,-11.57294],[34.96495,-11.57296],[34.96477,-11.57304],[34.96463,-11.57308],[34.9644,-11.57318],[34.96412,-11.5732]]},"properties":{"id":463935974,"cls":"path","hw":"path","tg":"na","name":"","ref":"","surface":"unpaved","sc":"unpaved","speed":null,"lit":"unk","km":0.536}},
{"type":"Feature","geometry":{"type":"LineString","coordinates":[[34.96407,-11.56291],[34.96338,-11.56284],[34.96311,-11.56278]]},"properties":{"id":731922483,"cls":"path","hw":"path","tg":"na","name":"","ref":"","surface":"","sc":"unknown","speed":null,"lit":"unk","km":0.106}},
{"type":"Feature","geometry":{"type":"LineString","coordinates":[[34.96413,-11.5431],[34.964,-11.54302],[34.96381,-11.54286],[34.96379,-11.54284],[34.96377,-11.54284],[34.96372,-11.54283],[34.96362,-11.54284],[34.9635,-11.54282],[34.96349,-11.54281],[34.96342,-11.54279]]},"properties":{"id":731924941,"cls":"path","hw":"path","tg":"na","name":"","ref":"","surface":"","sc":"unknown","speed":null,"lit":"unk","km":0.089}},
{"type":"Feature","geometry":{"type":"LineString","coordinates":[[34.96413,-11.5431],[34.96408,-11.54301],[34.9639,-11.54278],[34.96386,-11.54272],[34.96382,-11.54272],[34.96375,-11.54274],[34.9635,-11.54282],[34.96344,-11.54296]]},"properties":{"id":731924942,"cls":"path","hw":"path","tg":"na","name":"","ref":"","surface":"","sc":"unknown","speed":null,"lit":"unk","km":0.109}},
{"type":"Feature","geometry":{"type":"LineString","coordinates":[[34.96413,-11.5431],[34.96416,-11.54315],[34.9642,-11.54322],[34.96425,-11.54338]]},"properties":{"id":731924943,"cls":"path","hw":"path","tg":"na","name":"","ref":"","surface":"","sc":"unknown","speed":null,"lit":"unk","km":0.034}},
{"type":"Feature","geometry":{"type":"LineString","coordinates":[[34.96009,-11.5085],[34.96063,-11.50842],[34.9611,-11.5085],[34.9614,-11.50842],[34.96154,-11.50842],[34.96199,-11.5085]]},"properties":{"id":731942718,"cls":"path","hw":"path","tg":"na","name":"","ref":"","surface":"","sc":"unknown","speed":null,"lit":"unk","km":0.21}},
{"type":"Feature","geometry":{"type":"LineString","coordinates":[[34.95984,-11.50607],[34.9603,-11.50601],[34.96074,-11.50586],[34.96116,-11.50579]]},"properties":{"id":731942719,"cls":"path","hw":"path","tg":"na","name":"","ref":"","surface":"","sc":"unknown","speed":null,"lit":"unk","km":0.148}}
]}