{"type":"FeatureCollection","features":[
{"type":"Feature","geometry":{"type":"LineString","coordinates":[[34.56733,-10.09509],[34.56734,-10.09504],[34.56732,-10.09501],[34.56727,-10.09501],[34.56706,-10.09509],[34.56691,-10.0951],[34.56671,-10.09493],[34.56638,-10.0946],[34.56637,-10.09456],[34.56638,-10.09452],[34.56659,-10.09376],[34.56673,-10.09351],[34.56675,-10.09343],[34.56675,-10.09333],[34.56675,-10.09323],[34.56676,-10.09313],[34.56687,-10.09283],[34.56687,-10.0925],[34.56681,-10.09228],[34.56677,-10.09214],[34.56655,-10.0918],[34.5663,-10.09148],[34.56611,-10.09127],[34.56604,-10.09118],[34.56588,-10.09108],[34.56571,-10.09103],[34.56533,-10.09104],[34.56459,-10.0911],[34.56438,-10.09108],[34.56429,-10.091],[34.56423,-10.09089],[34.56422,-10.09072],[34.56417,-10.09053],[34.56406,-10.09036],[34.56401,-10.09022],[34.56398,-10.09004],[34.56398,-10.08963],[34.56392,-10.08933],[34.56379,-10.08917],[34.56356,-10.08896],[34.56338,-10.0887],[34.56316,-10.08837],[34.56309,-10.08834],[34.56303,-10.08835],[34.56297,-10.08836],[34.56286,-10.08839],[34.56262,-10.08842],[34.56234,-10.08845],[34.56184,-10.08853],[34.56163,-10.08857],[34.56151,-10.08857],[34.56145,-10.08855],[34.56143,-10.08849],[34.56141,-10.08827],[34.56122,-10.08809],[34.56098,-10.08791],[34.56058,-10.08758],[34.56045,-10.08754],[34.5602,-10.08746],[34.55979,-10.08725],[34.55962,-10.08713],[34.55939,-10.08691],[34.559,-10.08664],[34.55869,-10.08646],[34.55856,-10.08643],[34.55848,-10.08644],[34.55815,-10.08667],[34.55797,-10.08683],[34.55789,-10.08688],[34.55778,-10.08689],[34.55769,-10.08686],[34.55762,-10.08678],[34.55754,-10.08663],[34.5575,-10.0866],[34.55744,-10.08661],[34.55741,-10.08673],[34.55732,-10.08683],[34.55724,-10.08687],[34.55712,-10.08689],[34.55691,-10.08681],[34.55685,-10.08681],[34.55682,-10.08684],[34.55676,-10.08697],[34.55669,-10.08705],[34.55663,-10.08706],[34.55658,-10.08702],[34.55645,-10.08691],[34.55637,-10.08689],[34.5563,-10.08691],[34.55623,-10.08698],[34.55618,-10.08711],[34.55609,-10.08723],[34.55596,-10.08731],[34.55579,-10.08731],[34.55564,-10.08726],[34.55543,-10.08717],[34.55509,-10.08711],[34.55492,-10.08702],[34.55473,-10.08684],[34.55448,-10.08663],[34.55399,-10.08639],[34.55391,-10.08633],[34.55384,-10.08616],[34.5536,-10.08569],[34.55345,-10.08546],[34.55336,-10.08535],[34.55332,-10.08521],[34.55329,-10.08477],[34.55319,-10.08433],[34.55291,-10.08376],[34.55288,-10.08352],[34.55292,-10.08339],[34.55299,-10.08317],[34.553,-10.08306],[34.55296,-10.08298],[34.55281,-10.08282],[34.55255,-10.08248],[34.55234,-10.0821],[34.55221,-10.08172],[34.55213,-10.08162],[34.55202,-10.08159],[34.55189,-10.08161],[34.5518,-10.08162],[34.5517,-10.08161],[34.55143,-10.08149],[34.55128,-10.08145],[34.55112,-10.08145],[34.55106,-10.08146],[34.551,-10.08152],[34.55092,-10.08191],[34.55087,-10.08212],[34.55087,-10.08229],[34.55088,-10.08249],[34.55094,-10.08273],[34.55112,-10.08293],[34.55127,-10.08313],[34.55145,-10.08334],[34.55174,-10.08366],[34.55174,-10.08372],[34.55168,-10.08377],[34.55161,-10.08376],[34.55121,-10.08373],[34.55105,-10.08371],[34.55091,-10.08368],[34.55078,-10.08366],[34.55061,-10.08364],[34.55045,-10.08358],[34.55029,-10.08351],[34.54996,-10.0833],[34.54984,-10.08322],[34.54971,-10.08318],[34.54959,-10.08317],[34.54929,-10.08311],[34.54909,-10.08306],[34.54883,-10.08292],[34.54871,-10.08272],[34.5486,-10.08259],[34.54849,-10.08255],[34.54838,-10.08256],[34.5482,-10.08267],[34.54799,-10.08277],[34.54775,-10.08283],[34.54747,-10.08289],[34.54728,-10.08295],[34.54707,-10.08306],[34.54691,-10.08319],[34.54663,-10.08335],[34.54652,-10.08334],[34.54644,-10.08329],[34.54633,-10.0831],[34.54624,-10.08298],[34.54597,-10.08283],[34.5456,-10.08273],[34.54549,-10.08272],[34.54541,-10.08275],[34.54536,-10.08281],[34.54536,-10.08288],[34.54541,-10.08292],[34.54583,-10.08307],[34.54584,-10.08309],[34.54584,-10.08312],[34.54582,-10.08316],[34.54578,-10.08316],[34.54555,-10.08317],[34.54527,-10.08324],[34.54521,-10.08322],[34.54514,-10.08318],[34.54508,-10.08303],[34.54504,-10.083],[34.54499,-10.08301],[34.54497,-10.08322],[34.54499,-10.08341],[34.54506,-10.08355],[34.54512,-10.08359],[34.54537,-10.08355],[34.54541,-10.08357],[34.54542,-10.08362],[34.54539,-10.08364],[34.54521,-10.08377],[34.54511,-10.08385],[34.54501,-10.08388],[34.5449,-10.08383],[34.54475,-10.08371],[34.54456,-10.08348],[34.54453,-10.08343],[34.54448,-10.08343],[34.54444,-10.08346],[34.54437,-10.08352],[34.54426,-10.08357],[34.54411,-10.0836],[34.54399,-10.08359],[34.54388,-10.08355],[34.54385,-10.08349],[34.54387,-10.08343],[34.54395,-10.08337],[34.54407,-10.08326],[34.54413,-10.08312],[34.54413,-10.08303],[34.54407,-10.08285],[34.54397,-10.08262],[34.5438,-10.08236],[34.5437,-10.08215],[34.54357,-10.08194],[34.54343,-10.08167],[34.54343,-10.08161],[34.54347,-10.08155],[34.54358,-10.08146],[34.5437,-10.08135],[34.54382,-10.08125],[34.54397,-10.08114],[34.54414,-10.08105],[34.54419,-10.08101],[34.5442,-10.08096],[34.54411,-10.08076],[34.54383,-10.08056],[34.54378,-10.08054],[34.54377,-10.08051],[34.54378,-10.08048],[34.54386,-10.0803],[34.54396,-10.08017],[34.54401,-10.08009],[34.54408,-10.08004],[34.54416,-10.08003],[34.5442,-10.08006],[34.54425,-10.08011],[34.5443,-10.08012],[34.54436,-10.0801],[34.54446,-10.08007],[34.54477,-10.08008],[34.54488,-10.08007],[34.54498,-10.08001],[34.54503,-10.07995],[34.54503,-10.07989],[34.54496,-10.07985],[34.54449,-10.07969],[34.54415,-10.07956],[34.54404,-10.07953],[34.54395,-10.07953],[34.54386,-10.07954],[34.54375,-10.07951],[34.5437,-10.07946],[34.5437,-10.07939],[34.54381,-10.07901],[34.54391,-10.07862],[34.54401,-10.07803],[34.54404,-10.07793],[34.54422,-10.07758],[34.54421,-10.07753],[34.54416,-10.07749],[34.54373,-10.07742],[34.54364,-10.07736],[34.5434,-10.07701],[34.54323,-10.07682],[34.54313,-10.07669],[34.543,-10.07648]]},"properties":{"id":442933133,"cls":"unclassified","hw":"unclassified","tg":"na","name":"","ref":"","surface":"unpaved","sc":"unpaved","speed":null,"lit":"unk","km":5.776}},
{"type":"Feature","geometry":{"type":"LineString","coordinates":[[34.50598,-10.01135],[34.50609,-10.01119],[34.5062,-10.01105],[34.50633,-10.01097],[34.50645,-10.01089],[34.50652,-10.01082],[34.50663,-10.01073],[34.50669,-10.01068],[34.50676,-10.01059],[34.50682,-10.01051],[34.5069,-10.01042],[34.50698,-10.01037],[34.50704,-10.01033],[34.50715,-10.01028],[34.5073,-10.0102],[34.50742,-10.01014],[34.50752,-10.01007],[34.50759,-10.01001],[34.50766,-10.00994],[34.50767,-10.00986],[34.50769,-10.00978],[34.5077,-10.00969],[34.50771,-10.0096],[34.50773,-10.00953],[34.50772,-10.00944],[34.50774,-10.00931],[34.50776,-10.00918],[34.50779,-10.009],[34.50782,-10.0089],[34.50783,-10.00883],[34.50783,-10.00878],[34.50783,-10.00871]]},"properties":{"id":457324511,"cls":"track","hw":"track","tg":"none","name":"","ref":"","surface":"","sc":"unknown","speed":null,"lit":"unk","km":0.384}},
{"type":"Feature","geometry":{"type":"LineString","coordinates":[[34.54127,-10.07477],[34.54109,-10.07492],[34.541,-10.07496],[34.54056,-10.07494],[34.53978,-10.07497],[34.53955,-10.07501],[34.539,-10.0752]]},"properties":{"id":504306698,"cls":"residential","hw":"residential","tg":"na","name":"","ref":"","surface":"","sc":"unknown","speed":null,"lit":"unk","km":0.26}},
{"type":"Feature","geometry":{"type":"LineString","coordinates":[[34.543,-10.07648],[34.54286,-10.07621],[34.54263,-10.07595],[34.54221,-10.07561],[34.54191,-10.07538],[34.5417,-10.07516],[34.54148,-10.07496],[34.54144,-10.07493],[34.54127,-10.07477],[34.54016,-10.07423]]},"properties":{"id":504306699,"cls":"unclassified","hw":"unclassified","tg":"na","name":"","ref":"","surface":"","sc":"unknown","speed":null,"lit":"unk","km":0.406}},
{"type":"Feature","geometry":{"type":"LineString","coordinates":[[34.543,-10.07648],[34.54262,-10.07656],[34.54234,-10.07659],[34.54188,-10.07655],[34.54167,-10.07649]]},"properties":{"id":504306700,"cls":"residential","hw":"residential","tg":"na","name":"","ref":"","surface":"unpaved","sc":"unpaved","speed":null,"lit":"unk","km":0.148}},
{"type":"Feature","geometry":{"type":"LineString","coordinates":[[34.61616,-10.44939],[34.61587,-10.44986],[34.61499,-10.45048],[34.61476,-10.45058],[34.61464,-10.45082],[34.61419,-10.45112],[34.61369,-10.45123],[34.61333,-10.45156],[34.61286,-10.45166],[34.61204,-10.45205],[34.61177,-10.45229],[34.61145,-10.45285],[34.61092,-10.45329],[34.61056,-10.45345],[34.61028,-10.45344],[34.60948,-10.45328],[34.60886,-10.45363],[34.60838,-10.45374],[34.60737,-10.45417],[34.60651,-10.45443],[34.60383,-10.4554],[34.60241,-10.45609],[34.59957,-10.45817],[34.59912,-10.45848],[34.59887,-10.45862],[34.59862,-10.45877],[34.598,-10.45915],[34.59757,-10.45943],[34.59735,-10.45958],[34.59715,-10.45972],[34.59676,-10.46001],[34.59658,-10.46016],[34.5964,-10.46032],[34.59629,-10.46041],[34.59616,-10.46051],[34.59611,-10.46054],[34.59605,-10.46057],[34.596,-10.46061],[34.59594,-10.46063],[34.59583,-10.46068],[34.59574,-10.46072],[34.59543,-10.46086],[34.59533,-10.4609],[34.59526,-10.46094],[34.59517,-10.46098],[34.59509,-10.46103],[34.595,-10.46114],[34.59492,-10.46124],[34.59482,-10.4614],[34.59462,-10.46172],[34.59443,-10.46204],[34.5943,-10.46225],[34.59419,-10.46244],[34.59405,-10.46268],[34.59396,-10.46282],[34.5939,-10.46295],[34.59378,-10.46312],[34.59375,-10.46319],[34.59371,-10.46326],[34.59368,-10.46332],[34.59364,-10.46337],[34.59359,-10.46342],[34.59348,-10.46348],[34.59339,-10.46351],[34.5932,-10.46356],[34.59302,-10.46361],[34.59281,-10.46363],[34.59268,-10.46365],[34.59256,-10.46366],[34.59247,-10.46366],[34.59238,-10.46366],[34.59229,-10.46364],[34.59223,-10.46362],[34.59217,-10.46362],[34.5921,-10.46362],[34.59204,-10.46364],[34.59196,-10.46367],[34.59186,-10.46372],[34.59175,-10.46376],[34.59166,-10.46378],[34.5916,-10.46381],[34.59153,-10.46384],[34.59148,-10.46385],[34.59144,-10.46388],[34.5914,-10.4639],[34.59136,-10.46394],[34.59131,-10.46396],[34.59124,-10.46402],[34.59114,-10.46412],[34.5911,-10.46419],[34.59105,-10.46426],[34.59097,-10.46437],[34.59089,-10.4645],[34.59075,-10.4647],[34.59064,-10.46484],[34.59052,-10.46498],[34.59037,-10.46518],[34.59031,-10.46526],[34.59022,-10.46534],[34.59012,-10.46542],[34.59001,-10.4655],[34.58997,-10.46554],[34.58995,-10.46558],[34.58993,-10.4656],[34.58991,-10.46563],[34.58986,-10.46567],[34.58982,-10.4657],[34.58979,-10.46577],[34.58969,-10.46584],[34.58956,-10.46592],[34.58946,-10.46598],[34.58936,-10.46608],[34.58926,-10.4662],[34.58916,-10.46634],[34.58904,-10.46657],[34.58896,-10.46671],[34.58884,-10.46685],[34.58874,-10.46693],[34.58864,-10.46703],[34.58859,-10.46709],[34.58853,-10.46717],[34.58849,-10.46724],[34.58848,-10.46733],[34.5885,-10.46742],[34.58852,-10.46754],[34.58855,-10.46767],[34.5886,-10.46773],[34.58864,-10.46781],[34.5887,-10.4679],[34.58875,-10.46796],[34.58879,-10.46803],[34.5888,-10.46812],[34.58882,-10.46827],[34.58886,-10.46841],[34.58889,-10.46855],[34.58891,-10.46866],[34.58894,-10.46884],[34.58898,-10.46894],[34.58904,-10.46905],[34.58913,-10.46918],[34.58925,-10.46932],[34.58935,-10.46944],[34.58948,-10.46956],[34.58972,-10.4697],[34.58992,-10.46979],[34.5901,-10.46988],[34.59022,-10.46994],[34.59032,-10.47],[34.59039,-10.47005],[34.59046,-10.47017],[34.59053,-10.47029],[34.59062,-10.47043],[34.59067,-10.47052],[34.59077,-10.47069],[34.59085,-10.47079],[34.59093,-10.47088],[34.59102,-10.47092],[34.59111,-10.47096],[34.59128,-10.471],[34.59142,-10.47106],[34.59156,-10.47114],[34.59172,-10.47125],[34.59189,-10.4714],[34.59216,-10.47158],[34.59239,-10.47174],[34.59267,-10.47198],[34.59298,-10.47225],[34.59317,-10.4724],[34.59325,-10.47246],[34.5933,-10.47249],[34.59336,-10.47252],[34.59347,-10.47265],[34.59353,-10.47274],[34.59361,-10.47289],[34.59371,-10.47313],[34.59384,-10.4734],[34.59391,-10.47354],[34.59402,-10.47367],[34.59412,-10.47378],[34.59418,-10.47386],[34.59421,-10.47392],[34.59422,-10.47398],[34.59423,-10.47405],[34.59425,-10.47415],[34.59426,-10.47429],[34.5943,-10.47451],[34.59431,-10.47461],[34.59433,-10.47474],[34.59436,-10.4749],[34.59437,-10.47501],[34.59439,-10.47513],[34.59444,-10.47529],[34.5945,-10.47543],[34.59465,-10.47573],[34.59473,-10.47586],[34.59482,-10.47602],[34.59493,-10.47619],[34.59508,-10.4764],[34.59527,-10.47661],[34.59542,-10.47677],[34.59545,-10.4768],[34.59594,-10.47741],[34.5962,-10.47772],[34.59649,-10.47806],[34.59667,-10.47828],[34.59685,-10.4785],[34.59703,-10.47869],[34.59721,-10.4789],[34.59735,-10.47913],[34.59754,-10.47941],[34.59768,-10.47963],[34.5978,-10.47981],[34.59793,-10.47999],[34.59825,-10.48045],[34.5984,-10.48071],[34.59846,-10.48079],[34.59858,-10.48098],[34.59877,-10.48129],[34.59892,-10.48152],[34.59902,-10.48166],[34.59912,-10.4818],[34.59923,-10.48192],[34.59936,-10.48203],[34.59948,-10.48211],[34.59966,-10.4822],[34.59981,-10.48227],[34.59998,-10.48233],[34.60088,-10.48265],[34.60096,-10.48268],[34.60129,-10.48281],[34.60168,-10.48302],[34.60193,-10.48328],[34.60238,-10.48393],[34.60309,-10.4847],[34.60359,-10.4853],[34.60412,-10.48611],[34.60442,-10.48659],[34.60466,-10.48691],[34.6047,-10.48698],[34.60474,-10.48707],[34.60495,-10.4876],[34.60498,-10.48767],[34.60502,-10.48773],[34.60517,-10.48786],[34.60535,-10.488],[34.60573,-10.48829],[34.60582,-10.48835],[34.60612,-10.48849],[34.6063,-10.48857],[34.60648,-10.48861],[34.60659,-10.48864],[34.60687,-10.48865],[34.6076,-10.48862],[34.60771,-10.48863],[34.60784,-10.48864],[34.60796,-10.48865],[34.60839,-10.48877],[34.60868,-10.48886],[34.60906,-10.48899]]},"properties":{"id":648003013,"cls":"tertiary","hw":"tertiary","tg":"na","name":"","ref":"T31","surface":"unpaved","sc":"unpaved","speed":null,"lit":"unk","km":7.277}},
{"type":"Feature","geometry":{"type":"LineString","coordinates":[[34.59113,-10.44621],[34.59108,-10.4463],[34.59104,-10.44641],[34.59104,-10.44651],[34.59107,-10.44662],[34.5911,-10.44672],[34.59111,-10.44679],[34.59112,-10.44687],[34.59111,-10.44694],[34.5911,-10.44712],[34.59112,-10.4472],[34.59116,-10.44733],[34.59121,-10.44746],[34.59128,-10.44765],[34.59132,-10.44777],[34.59133,-10.44787],[34.59132,-10.44798],[34.59125,-10.44819],[34.59116,-10.4484],[34.59112,-10.44856],[34.59109,-10.44866],[34.59107,-10.4488],[34.59106,-10.44892],[34.59106,-10.44905],[34.59105,-10.44911],[34.59104,-10.44917],[34.59103,-10.44922],[34.59097,-10.44931],[34.59086,-10.44947],[34.59072,-10.44966],[34.5906,-10.44983],[34.5905,-10.44997],[34.59033,-10.45021],[34.59019,-10.4504],[34.59011,-10.45055],[34.59001,-10.45072],[34.58988,-10.45087],[34.58979,-10.45099],[34.58971,-10.4511],[34.58968,-10.45118],[34.58964,-10.45125],[34.58954,-10.45136],[34.58944,-10.45147],[34.58937,-10.45157],[34.58931,-10.4517],[34.58917,-10.45198],[34.58913,-10.45207],[34.58907,-10.4522],[34.58899,-10.45239],[34.58895,-10.45248],[34.58893,-10.45256],[34.58885,-10.45268],[34.58871,-10.45285],[34.58862,-10.45298],[34.58858,-10.45307],[34.58851,-10.45319],[34.58846,-10.45334],[34.58841,-10.45347],[34.58835,-10.45356],[34.58828,-10.45374],[34.58827,-10.4539]]},"properties":{"id":664055125,"cls":"residential","hw":"residential","tg":"na","name":"","ref":"","surface":"","sc":"unknown","speed":null,"lit":"unk","km":0.954}},
{"type":"Feature","geometry":{"type":"LineString","coordinates":[[34.59542,-10.47677],[34.59537,-10.47694],[34.59536,-10.47709],[34.5954,-10.47733],[34.59548,-10.47758],[34.5955,-10.47768],[34.5955,-10.4778],[34.59551,-10.47802],[34.59551,-10.47828],[34.59554,-10.47837],[34.59559,-10.47845],[34.59565,-10.47856],[34.59568,-10.47873],[34.5957,-10.47895],[34.59578,-10.47917],[34.59588,-10.47942],[34.59597,-10.47955],[34.59607,-10.47965],[34.59615,-10.47975],[34.59625,-10.47994],[34.59632,-10.47997],[34.59639,-10.47998],[34.59647,-10.48],[34.59652,-10.48004],[34.59656,-10.48007],[34.59661,-10.48017],[34.59664,-10.48025],[34.59664,-10.48033],[34.59661,-10.48043],[34.5966,-10.48051],[34.59662,-10.48054],[34.59665,-10.4806],[34.59668,-10.48065],[34.59673,-10.48079],[34.59675,-10.48089],[34.59677,-10.48102],[34.59677,-10.48117],[34.59679,-10.48128],[34.59682,-10.48141],[34.59687,-10.48157],[34.59691,-10.48171],[34.59698,-10.48192],[34.59712,-10.48223],[34.59723,-10.48257],[34.59725,-10.48265],[34.59727,-10.48287],[34.59735,-10.48309],[34.59746,-10.48335],[34.59754,-10.48362],[34.59761,-10.48387],[34.5977,-10.48414],[34.59777,-10.48438],[34.59786,-10.48489],[34.59795,-10.48541],[34.598,-10.48569],[34.59808,-10.48593],[34.59811,-10.48605],[34.59812,-10.48617],[34.59813,-10.48638],[34.59814,-10.48655],[34.59815,-10.48668],[34.59815,-10.48677],[34.59816,-10.48684],[34.59813,-10.48694],[34.59809,-10.48712],[34.59799,-10.4874],[34.59792,-10.48762],[34.59792,-10.48769],[34.59793,-10.48775],[34.59796,-10.4878],[34.59803,-10.48789],[34.59814,-10.48798],[34.5982,-10.48803],[34.59824,-10.48811],[34.59826,-10.48818],[34.59825,-10.48829],[34.59824,-10.48838],[34.59822,-10.48849],[34.59823,-10.48854],[34.59825,-10.48858],[34.59826,-10.48864],[34.59828,-10.48872],[34.5983,-10.48877],[34.5983,-10.48883],[34.5983,-10.4889],[34.59828,-10.48897],[34.59828,-10.48904],[34.59828,-10.48914],[34.59828,-10.48923],[34.59829,-10.48938],[34.59829,-10.48947],[34.59827,-10.48959],[34.59827,-10.4897],[34.59828,-10.48982],[34.59828,-10.48987],[34.59828,-10.48996],[34.59827,-10.49001],[34.59828,-10.49008],[34.59829,-10.49016],[34.59829,-10.49021],[34.59828,-10.49028],[34.59827,-10.49038],[34.59825,-10.49049],[34.59824,-10.49056],[34.59822,-10.49061],[34.59821,-10.49071],[34.59819,-10.49082],[34.59816,-10.49096],[34.59813,-10.49109],[34.59811,-10.49118],[34.59809,-10.49122],[34.59803,-10.49141],[34.598,-10.4916],[34.598,-10.49174],[34.59801,-10.49186],[34.59803,-10.492],[34.59805,-10.49215],[34.59806,-10.49228],[34.59808,-10.49243],[34.59811,-10.49256],[34.59812,-10.49265],[34.59814,-10.49271],[34.59815,-10.49276],[34.59814,-10.49281],[34.59813,-10.49286],[34.59813,-10.49295],[34.59813,-10.49306],[34.59813,-10.49316],[34.59812,-10.49327],[34.5981,-10.49337],[34.5981,-10.49349],[34.5981,-10.49363],[34.59811,-10.49373],[34.59812,-10.49385],[34.59813,-10.49397],[34.59814,-10.49411],[34.5982,-10.49451],[34.59827,-10.49473],[34.59828,-10.49493],[34.59833,-10.49512],[34.5984,-10.49526],[34.59845,-10.49543],[34.59851,-10.49558],[34.59859,-10.49576],[34.59862,-10.49589],[34.59872,-10.49609],[34.59879,-10.49633],[34.59883,-10.49664],[34.59886,-10.49676],[34.59888,-10.49701],[34.59889,-10.49714],[34.59891,-10.49729],[34.59894,-10.49752],[34.59897,-10.49775],[34.59901,-10.49799],[34.59908,-10.49823],[34.59921,-10.49867],[34.59928,-10.49888],[34.59944,-10.49925],[34.59947,-10.4993]]},"properties":{"id":664055129,"cls":"residential","hw":"residential","tg":"na","name":"","ref":"","surface":"","sc":"unknown","speed":null,"lit":"unk","km":2.628}},
{"type":"Feature","geometry":{"type":"LineString","coordinates":[[34.5984,-10.48071],[34.59847,-10.48066],[34.59854,-10.48065],[34.59864,-10.48062],[34.59874,-10.48056],[34.59885,-10.48046],[34.59905,-10.48025],[34.59918,-10.48006],[34.59926,-10.47991],[34.5993,-10.47966],[34.59936,-10.47954],[34.59939,-10.4795],[34.59944,-10.47948],[34.59949,-10.47948],[34.59957,-10.47953],[34.59962,-10.47959],[34.59966,-10.47967],[34.5997,-10.4797],[34.59974,-10.4797],[34.59977,-10.47968],[34.59982,-10.47963],[34.59984,-10.4796],[34.59991,-10.47959],[34.60013,-10.47959],[34.60029,-10.47962]]},"properties":{"id":664055130,"cls":"residential","hw":"residential","tg":"na","name":"","ref":"","surface":"","sc":"unknown","speed":null,"lit":"unk","km":0.298}},
{"type":"Feature","geometry":{"type":"LineString","coordinates":[[34.61301,-10.43753],[34.61272,-10.43772],[34.61242,-10.4379],[34.61218,-10.43808],[34.61194,-10.43827],[34.61177,-10.43842],[34.61168,-10.43851],[34.61162,-10.43854],[34.61156,-10.43859],[34.61151,-10.43867],[34.61149,-10.43875],[34.61149,-10.43882],[34.61148,-10.43888],[34.61145,-10.43894],[34.61139,-10.43902],[34.61134,-10.43907],[34.61126,-10.43912],[34.6112,-10.43916],[34.61117,-10.43921],[34.61115,-10.43926],[34.61115,-10.43932],[34.61117,-10.43944],[34.61119,-10.43956],[34.61122,-10.43966],[34.61123,-10.43973],[34.61124,-10.43994],[34.61125,-10.44013],[34.61125,-10.44021],[34.61125,-10.4403],[34.61123,-10.44034],[34.61121,-10.44037],[34.61111,-10.4404],[34.61099,-10.44043],[34.61092,-10.44044],[34.61083,-10.44044],[34.61072,-10.44042],[34.61062,-10.4404],[34.61047,-10.44037],[34.61036,-10.44035],[34.61032,-10.44036],[34.61028,-10.44037],[34.61009,-10.44044],[34.60989,-10.44051],[34.60956,-10.44068],[34.60945,-10.44076],[34.60938,-10.44082],[34.60931,-10.44089],[34.60904,-10.4411],[34.60896,-10.44117],[34.60892,-10.44123],[34.60877,-10.44133],[34.60858,-10.44146],[34.60843,-10.44154],[34.60825,-10.44167],[34.60815,-10.44177],[34.60806,-10.44185],[34.60797,-10.44191],[34.60788,-10.44195],[34.60776,-10.44199],[34.60754,-10.4421],[34.60747,-10.44214],[34.60741,-10.44217],[34.60733,-10.44218],[34.60727,-10.44217],[34.60719,-10.44218],[34.60705,-10.4422],[34.60701,-10.4422],[34.60695,-10.44219],[34.60689,-10.44221],[34.60682,-10.44224],[34.60673,-10.44227],[34.60658,-10.4423],[34.60646,-10.44232],[34.60637,-10.44235],[34.60627,-10.44238],[34.60617,-10.44241],[34.60609,-10.44243],[34.60592,-10.44246],[34.60562,-10.4425],[34.60549,-10.44252],[34.60537,-10.44253],[34.60525,-10.44254],[34.60516,-10.44259],[34.60504,-10.44269],[34.60502,-10.44275],[34.60498,-10.44282],[34.60492,-10.44289],[34.60481,-10.44297],[34.60474,-10.44306],[34.60464,-10.44315],[34.60457,-10.44323],[34.60445,-10.44333],[34.60439,-10.44337],[34.6043,-10.4434],[34.60419,-10.44345],[34.60406,-10.44349],[34.60393,-10.44353],[34.60387,-10.44353],[34.60378,-10.44352],[34.60369,-10.44355],[34.6036,-10.44356],[34.60347,-10.44358],[34.60336,-10.44363],[34.60327,-10.44368],[34.60324,-10.44377],[34.60323,-10.44385],[34.60321,-10.44391],[34.60312,-10.44396],[34.60294,-10.44406],[34.60279,-10.44412],[34.60262,-10.44415],[34.60255,-10.44418],[34.6025,-10.44424],[34.60241,-10.4443],[34.60231,-10.44433],[34.60221,-10.44436],[34.60205,-10.44436],[34.60192,-10.44438],[34.6018,-10.44439],[34.60173,-10.4444],[34.60167,-10.44441],[34.60163,-10.44444],[34.6016,-10.44449],[34.6016,-10.44456],[34.60164,-10.44465],[34.6017,-10.44489],[34.60174,-10.44508],[34.60178,-10.44531],[34.60175,-10.44547],[34.6016,-10.4458],[34.60143,-10.44603],[34.60117,-10.44613],[34.60104,-10.44619],[34.60095,-10.44626],[34.60081,-10.44645],[34.60065,-10.44664],[34.60049,-10.44686],[34.60036,-10.44699],[34.60023,-10.44709],[34.60019,-10.44712],[34.60012,-10.44716],[34.60007,-10.44718],[34.59999,-10.44718],[34.59991,-10.44718],[34.59977,-10.44717],[34.59955,-10.44726],[34.59943,-10.44727],[34.5992,-10.44731],[34.59911,-10.44733],[34.59904,-10.44735],[34.59903,-10.44736],[34.59904,-10.44738],[34.59906,-10.4474],[34.5992,-10.44754],[34.59936,-10.44772],[34.59947,-10.44784],[34.5998,-10.44817],[34.60002,-10.44838],[34.60008,-10.44844],[34.60011,-10.44851],[34.60013,-10.44858],[34.60012,-10.44867],[34.59997,-10.44888],[34.59992,-10.44898],[34.59971,-10.44931],[34.59951,-10.44965],[34.59942,-10.4498],[34.59937,-10.4499],[34.59924,-10.4501],[34.59913,-10.45023],[34.59907,-10.4503],[34.59899,-10.45039],[34.59889,-10.45047],[34.59872,-10.45056],[34.59843,-10.45068],[34.59832,-10.45073],[34.59824,-10.45076],[34.5982,-10.45077],[34.59815,-10.4508],[34.5981,-10.45083],[34.59803,-10.45087],[34.59797,-10.45092],[34.5979,-10.45097],[34.59785,-10.45102],[34.59779,-10.45107],[34.59773,-10.45111],[34.59757,-10.4512],[34.59744,-10.45128],[34.59733,-10.45136],[34.59727,-10.45141],[34.59716,-10.45152],[34.59705,-10.45161],[34.59702,-10.45162],[34.59698,-10.45163],[34.59693,-10.45165],[34.59686,-10.45167],[34.59682,-10.45167],[34.59675,-10.45169],[34.59671,-10.45169],[34.59665,-10.45169],[34.59661,-10.45169],[34.59658,-10.45168],[34.59653,-10.45168],[34.59649,-10.45168],[34.59646,-10.45169],[34.5964,-10.45169],[34.59636,-10.4517],[34.59631,-10.45171],[34.59627,-10.45172],[34.59623,-10.45174],[34.5962,-10.45176],[34.59614,-10.45179],[34.59611,-10.45181],[34.59608,-10.45183],[34.59605,-10.45186],[34.59601,-10.45189],[34.59598,-10.45193],[34.59593,-10.45198],[34.59584,-10.45204],[34.59577,-10.45207],[34.5957,-10.4521],[34.59564,-10.45213],[34.59555,-10.45216],[34.59549,-10.45218],[34.59541,-10.45221],[34.59535,-10.45223],[34.59527,-10.45225],[34.59523,-10.45226],[34.5952,-10.45226],[34.59517,-10.45227],[34.59513,-10.45228],[34.59506,-10.45232],[34.59501,-10.45233],[34.59484,-10.45236],[34.59474,-10.45238],[34.59464,-10.45239],[34.59461,-10.45239],[34.59457,-10.45239],[34.59454,-10.45239],[34.5945,-10.4524],[34.59444,-10.45242],[34.5944,-10.45243],[34.59436,-10.45243],[34.59433,-10.45242],[34.59428,-10.45242],[34.59425,-10.45241],[34.59422,-10.45241],[34.5942,-10.4524],[34.5941,-10.45236],[34.59404,-10.45234],[34.59398,-10.45231],[34.59384,-10.45226],[34.59375,-10.45224],[34.59368,-10.45223],[34.59357,-10.45224],[34.59348,-10.45225],[34.59342,-10.45225],[34.59328,-10.45226],[34.59318,-10.45227],[34.59314,-10.45227],[34.59304,-10.45225],[34.59297,-10.45223],[34.5929,-10.45223],[34.5928,-10.45223],[34.59275,-10.45224],[34.59271,-10.45225],[34.59264,-10.45227],[34.59258,-10.4523],[34.5924,-10.45236],[34.59234,-10.45238],[34.59229,-10.4524],[34.59223,-10.45243],[34.59218,-10.45244],[34.59214,-10.45245],[34.59208,-10.45246],[34.59203,-10.45246],[34.59196,-10.45247],[34.59186,-10.45248],[34.59171,-10.4525],[34.59158,-10.45252],[34.59141,-10.45255],[34.59127,-10.45258],[34.59112,-10.4526],[34.591,-10.45262],[34.59088,-10.45263],[34.59076,-10.45267],[34.59061,-10.45272],[34.59045,-10.45277],[34.59032,-10.45282],[34.5902,-10.45287],[34.59008,-10.45293],[34.58982,-10.45304],[34.58961,-10.45313],[34.58952,-10.45319],[34.58938,-10.45328],[34.5893,-10.45335],[34.58921,-10.45342],[34.58912,-10.45347],[34.58901,-10.45354],[34.58894,-10.45359],[34.58885,-10.45366],[34.5888,-10.45368],[34.58868,-10.45373],[34.58852,-10.45379],[34.58836,-10.45387],[34.58827,-10.4539],[34.5881,-10.45395],[34.58799,-10.45398],[34.58793,-10.45398],[34.58788,-10.45399],[34.58771,-10.45406],[34.58765,-10.45406],[34.58758,-10.45407],[34.58743,-10.45408],[34.5873,-10.45406]]},"properties":{"id":664055131,"cls":"unclassified","hw":"unclassified","tg":"na","name":"","ref":"","surface":"","sc":"unknown","speed":null,"lit":"unk","km":3.934}},
{"type":"Feature","geometry":{"type":"LineString","coordinates":[[34.55179,-10.16181],[34.5528,-10.16054],[34.55372,-10.15921],[34.55429,-10.15902],[34.55468,-10.15897],[34.5552,-10.15895],[34.55555,-10.15919],[34.55574,-10.15918],[34.55586,-10.15929],[34.5563,-10.15893],[34.55672,-10.15877],[34.55732,-10.1584],[34.55747,-10.15816],[34.55771,-10.1581],[34.55775,-10.15782]]},"properties":{"id":739532923,"cls":"path","hw":"path","tg":"na","name":"","ref":"","surface":"","sc":"unknown","speed":null,"lit":"unk","km":0.889}},
{"type":"Feature","geometry":{"type":"LineString","coordinates":[[34.5392,-10.13194],[34.53942,-10.13168],[34.53944,-10.13152],[34.53966,-10.13142],[34.53974,-10.13114],[34.53994,-10.13109],[34.54,-10.13098],[34.5403,-10.13091],[34.54078,-10.13055]]},"properties":{"id":739568609,"cls":"path","hw":"path","tg":"na","name":"","ref":"","surface":"","sc":"unknown","speed":null,"lit":"unk","km":0.251}},
{"type":"Feature","geometry":{"type":"LineString","coordinates":[[34.5739,-10.42692],[34.5739,-10.42692],[34.57428,-10.42684],[34.57478,-10.42672],[34.57499,-10.42669],[34.57546,-10.42646],[34.57581,-10.42624],[34.5763,-10.42618],[34.57666,-10.42627],[34.57689,-10.42628],[34.57709,-10.42632],[34.57724,-10.42632],[34.57735,-10.4263],[34.57783,-10.42631],[34.57797,-10.42629],[34.57813,-10.42624],[34.5782,-10.4262],[34.57829,-10.42609],[34.57841,-10.42599],[34.57849,-10.42586],[34.57861,-10.42578],[34.57875,-10.42565],[34.57925,-10.42551],[34.57938,-10.42551],[34.58009,-10.42584],[34.58054,-10.42577]]},"properties":{"id":758751444,"cls":"unclassified","hw":"unclassified","tg":"na","name":"","ref":"","surface":"","sc":"unknown","speed":null,"lit":"unk","km":0.784}},
{"type":"Feature","geometry":{"type":"LineString","coordinates":[[34.60693,-10.34145],[34.60676,-10.34125],[34.60661,-10.34115],[34.60635,-10.34124],[34.60616,-10.34127],[34.60573,-10.34125],[34.60517,-10.34115],[34.60449,-10.34095],[34.60325,-10.34091],[34.60259,-10.34058],[34.60182,-10.33997],[34.60124,-10.33926],[34.60097,-10.33864],[34.60052,-10.33806],[34.59852,-10.33743],[34.59761,-10.33694],[34.59731,-10.33661],[34.59706,-10.33625],[34.59702,-10.33586],[34.59652,-10.33554],[34.59611,-10.33548],[34.59544,-10.33583],[34.59489,-10.33591],[34.59454,-10.33609],[34.59404,-10.33647],[34.59361,-10.33656],[34.59272,-10.33676],[34.59209,-10.33686],[34.59161,-10.33661],[34.59123,-10.33635],[34.59083,-10.33618],[34.58997,-10.33616],[34.58957,-10.33599],[34.58893,-10.33622],[34.58869,-10.33635],[34.58822,-10.33596],[34.58766,-10.33572],[34.58598,-10.33593],[34.58372,-10.33654],[34.58192,-10.33761],[34.58098,-10.33746],[34.58068,-10.33657],[34.58057,-10.33572],[34.58027,-10.335],[34.58028,-10.33454],[34.5796,-10.33402],[34.57935,-10.3337],[34.57933,-10.33358],[34.57956,-10.33331],[34.5795,-10.33289]]},"properties":{"id":856798799,"cls":"residential","hw":"residential","tg":"na","name":"","ref":"","surface":"unpaved","sc":"unpaved","speed":null,"lit":"unk","km":3.828}},
{"type":"Feature","geometry":{"type":"LineString","coordinates":[[34.58163,-10.4527],[34.58149,-10.45287],[34.58131,-10.45301],[34.58094,-10.45326],[34.58071,-10.45351],[34.58052,-10.45367],[34.58031,-10.45375],[34.58004,-10.45385],[34.57993,-10.45389],[34.57986,-10.45389],[34.57962,-10.45409],[34.57944,-10.45417],[34.57937,-10.4542],[34.57924,-10.45428],[34.57887,-10.45436],[34.57862,-10.45446],[34.57851,-10.4545],[34.57834,-10.45452],[34.57825,-10.4546],[34.57815,-10.45467],[34.57795,-10.45473],[34.57765,-10.45499],[34.57746,-10.45516],[34.57732,-10.4554],[34.57703,-10.45557],[34.57646,-10.45586],[34.57596,-10.45616],[34.57567,-10.45629]]},"properties":{"id":856806816,"cls":"track","hw":"track","tg":"none","name":"","ref":"","surface":"","sc":"unknown","speed":null,"lit":"unk","km":0.782}},
{"type":"Feature","geometry":{"type":"LineString","coordinates":[[34.58917,-10.45198],[34.58897,-10.45193],[34.58877,-10.45182],[34.58868,-10.45179],[34.58863,-10.45183],[34.58837,-10.4518],[34.58828,-10.45179],[34.58809,-10.45178],[34.58799,-10.45179],[34.58785,-10.45183],[34.58772,-10.45182],[34.58761,-10.45179],[34.58754,-10.45188],[34.58744,-10.45183],[34.58731,-10.45173],[34.58722,-10.45167],[34.58709,-10.45168],[34.58699,-10.45172],[34.58689,-10.45183],[34.58677,-10.45203],[34.58654,-10.45227],[34.58634,-10.45247],[34.58615,-10.45278],[34.58592,-10.45309],[34.58577,-10.45341],[34.58547,-10.45333],[34.58527,-10.45322],[34.58504,-10.45298],[34.58466,-10.45261],[34.58445,-10.45241],[34.58419,-10.45154],[34.58423,-10.45149],[34.58467,-10.45098],[34.58499,-10.4507],[34.5853,-10.45049],[34.58557,-10.45034],[34.58579,-10.45008],[34.58613,-10.4498],[34.58691,-10.44921],[34.58728,-10.4489],[34.58737,-10.44876],[34.58755,-10.44868],[34.58781,-10.44831],[34.5881,-10.44819],[34.58839,-10.44814],[34.58865,-10.44826],[34.58887,-10.44835],[34.589,-10.44836]]},"properties":{"id":856806817,"cls":"residential","hw":"residential","tg":"na","name":"","ref":"","surface":"","sc":"unknown","speed":null,"lit":"unk","km":1.457}},
{"type":"Feature","geometry":{"type":"LineString","coordinates":[[34.59008,-10.45293],[34.59008,-10.45286],[34.59023,-10.4526],[34.59034,-10.4525],[34.59104,-10.45178]]},"properties":{"id":856806819,"cls":"unclassified","hw":"unclassified","tg":"na","name":"","ref":"","surface":"","sc":"unknown","speed":null,"lit":"unk","km":0.168}},
{"type":"Feature","geometry":{"type":"LineString","coordinates":[[34.58925,-10.44971],[34.58899,-10.4496],[34.58868,-10.44953],[34.58857,-10.4495],[34.58845,-10.44951],[34.58838,-10.44946],[34.58816,-10.44947],[34.58792,-10.44957],[34.58771,-10.44952],[34.58759,-10.44955],[34.58743,-10.44954],[34.58721,-10.44947],[34.58704,-10.44935],[34.58691,-10.44921]]},"properties":{"id":856806821,"cls":"path","hw":"path","tg":"na","name":"","ref":"","surface":"","sc":"unknown","speed":null,"lit":"unk","km":0.277}},
{"type":"Feature","geometry":{"type":"LineString","coordinates":[[34.58358,-10.44919],[34.58372,-10.44936],[34.58377,-10.44948],[34.58377,-10.44959],[34.58371,-10.44972],[34.58352,-10.44986],[34.58339,-10.44988],[34.58328,-10.44987],[34.5832,-10.4499],[34.58317,-10.44993],[34.58319,-10.44997],[34.58327,-10.45006],[34.58344,-10.45017],[34.58371,-10.45034],[34.5837,-10.45039],[34.58363,-10.45051],[34.58361,-10.45061],[34.58355,-10.45074],[34.58348,-10.45088],[34.58348,-10.45096],[34.58351,-10.45105],[34.5835,-10.45116],[34.58348,-10.45122],[34.58375,-10.4513],[34.58397,-10.45132],[34.58408,-10.45133],[34.58423,-10.45149]]},"properties":{"id":856806822,"cls":"residential","hw":"residential","tg":"na","name":"","ref":"","surface":"","sc":"unknown","speed":null,"lit":"unk","km":0.404}},
{"type":"Feature","geometry":{"type":"LineString","coordinates":[[34.58419,-10.45154],[34.58408,-10.4517],[34.58394,-10.45181],[34.58381,-10.45196],[34.58346,-10.45232],[34.58328,-10.45258],[34.58312,-10.45278],[34.58295,-10.45286],[34.58279,-10.45285],[34.58264,-10.45283],[34.58245,-10.45294],[34.58232,-10.45293],[34.58214,-10.4529],[34.58192,-10.4529],[34.58181,-10.45287],[34.58163,-10.4527]]},"properties":{"id":856806823,"cls":"residential","hw":"residential","tg":"na","name":"","ref":"","surface":"","sc":"unknown","speed":null,"lit":"unk","km":0.358}},
{"type":"Feature","geometry":{"type":"LineString","coordinates":[[34.5957,-10.46867],[34.59538,-10.46857],[34.59494,-10.46873],[34.59473,-10.46901],[34.59433,-10.4692],[34.59368,-10.46934],[34.59313,-10.46949],[34.59233,-10.46983],[34.59183,-10.46985],[34.59097,-10.47027],[34.59062,-10.47043]]},"properties":{"id":862781439,"cls":"path","hw":"path","tg":"na","name":"","ref":"","surface":"","sc":"unknown","speed":null,"lit":"unk","km":0.608}},
{"type":"Feature","geometry":{"type":"LineString","coordinates":[[34.54381,-10.07901],[34.54428,-10.07863],[34.54491,-10.0786],[34.54487,-10.078],[34.54553,-10.07771],[34.54562,-10.07761],[34.54586,-10.0774],[34.54618,-10.07718],[34.54626,-10.07717],[34.54631,-10.07725],[34.54637,-10.07747],[34.54638,-10.07762],[34.54634,-10.07786],[34.54635,-10.07793],[34.54641,-10.07808],[34.54656,-10.07831],[34.54666,-10.07837],[34.54677,-10.0784],[34.54684,-10.07845],[34.54699,-10.07874],[34.5472,-10.0789],[34.54732,-10.07904],[34.54742,-10.0791],[34.54751,-10.07909],[34.54757,-10.07901],[34.54764,-10.07871],[34.5477,-10.07854],[34.54789,-10.07844],[34.54801,-10.0783],[34.54808,-10.07829],[34.54813,-10.07831],[34.5482,-10.07839],[34.54825,-10.07856],[34.54829,-10.07862],[34.54844,-10.07872],[34.54852,-10.0789],[34.54872,-10.07922],[34.54885,-10.0795],[34.54891,-10.07956],[34.54901,-10.07959],[34.5492,-10.07964],[34.54934,-10.07964],[34.54963,-10.07956],[34.54967,-10.07953],[34.54971,-10.07946],[34.54976,-10.07914],[34.5498,-10.07909],[34.54986,-10.07907],[34.55055,-10.07904],[34.55071,-10.07907],[34.55087,-10.07914],[34.5511,-10.07939],[34.55119,-10.07946],[34.55125,-10.07952],[34.55135,-10.07991],[34.55148,-10.08013],[34.55161,-10.0804],[34.55167,-10.08043],[34.55174,-10.08041],[34.55206,-10.08026],[34.55211,-10.08026],[34.55222,-10.08031],[34.5523,-10.08036],[34.55236,-10.08047],[34.55238,-10.08067],[34.55261,-10.08108],[34.55268,-10.08117],[34.55282,-10.08127],[34.55289,-10.08135],[34.55289,-10.08143],[34.55281,-10.0816],[34.55277,-10.08178],[34.55274,-10.08211],[34.55269,-10.08216],[34.55262,-10.08213],[34.55257,-10.08202],[34.55245,-10.08184],[34.55243,-10.08158],[34.55237,-10.08149],[34.55229,-10.08145],[34.55213,-10.08153],[34.55213,-10.08162]]},"properties":{"id":908687258,"cls":"residential","hw":"residential","tg":"na","name":"","ref":"","surface":"","sc":"unknown","speed":null,"lit":"unk","km":1.811}},
{"type":"Feature","geometry":{"type":"LineString","coordinates":[[34.54604,-10.0796],[34.5468,-10.07944],[34.54737,-10.07955],[34.54736,-10.07969],[34.54909,-10.08089],[34.55042,-10.08091],[34.55128,-10.08145]]},"properties":{"id":908687259,"cls":"path","hw":"path","tg":"na","name":"","ref":"","surface":"","sc":"unknown","speed":null,"lit":"unk","km":0.653}},
{"type":"Feature","geometry":{"type":"LineString","coordinates":[[34.54833,-10.07161],[34.54794,-10.07184],[34.54761,-10.07196],[34.54744,-10.0721],[34.54721,-10.07209],[34.54686,-10.07217],[34.54666,-10.07213],[34.54584,-10.07208],[34.54534,-10.07222],[34.54508,-10.07235],[34.54502,-10.07233],[34.54487,-10.07243],[34.54465,-10.07268],[34.54437,-10.07289],[34.54421,-10.07302],[34.54392,-10.07314],[34.54356,-10.07309]]},"properties":{"id":980802585,"cls":"path","hw":"path","tg":"na","name":"","ref":"","surface":"","sc":"unknown","speed":null,"lit":"unk","km":0.577}},
{"type":"Feature","geometry":{"type":"LineString","coordinates":[[34.54666,-10.07213],[34.54676,-10.07202],[34.54682,-10.07183],[34.54695,-10.07163]]},"properties":{"id":980802586,"cls":"path","hw":"path","tg":"na","name":"","ref":"","surface":"","sc":"unknown","speed":null,"lit":"unk","km":0.065}},
{"type":"Feature","geometry":{"type":"LineString","coordinates":[[34.54502,-10.07233],[34.54512,-10.07202],[34.54531,-10.07169],[34.54535,-10.07156],[34.54538,-10.07149],[34.54538,-10.07127],[34.5454,-10.07123],[34.54541,-10.07109],[34.54546,-10.07103],[34.54552,-10.07091],[34.54549,-10.07087],[34.54542,-10.07074],[34.54517,-10.07067],[34.54513,-10.07055],[34.54507,-10.07045],[34.54495,-10.07035],[34.54487,-10.07024],[34.54479,-10.07019],[34.5447,-10.07007],[34.54461,-10.07001],[34.54455,-10.06991],[34.54433,-10.06978],[34.54419,-10.06976],[34.54407,-10.06967],[34.54401,-10.06958],[34.54397,-10.06942],[34.54394,-10.06933],[34.54392,-10.06922],[34.54401,-10.06911],[34.54411,-10.06911],[34.5442,-10.06901],[34.54427,-10.06893],[34.54434,-10.06888],[34.54442,-10.06885],[34.54445,-10.06883],[34.54449,-10.06873],[34.54449,-10.06868],[34.5445,-10.06864],[34.5445,-10.06853],[34.54453,-10.06844],[34.54451,-10.06835],[34.54457,-10.06824],[34.54468,-10.06821],[34.54475,-10.06817],[34.54482,-10.06815],[34.54494,-10.06808],[34.54505,-10.06802],[34.54505,-10.06812],[34.545,-10.06818],[34.54499,-10.06829],[34.54502,-10.06844],[34.54504,-10.06849],[34.54517,-10.0686],[34.54522,-10.06875],[34.54524,-10.06886],[34.54527,-10.06893],[34.54539,-10.06895],[34.54542,-10.06898],[34.54548,-10.06901],[34.54553,-10.06906],[34.54562,-10.06908],[34.54565,-10.06908],[34.54564,-10.06904],[34.54564,-10.06897],[34.5456,-10.06892],[34.54576,-10.06881],[34.54577,-10.06876],[34.54566,-10.06868],[34.54566,-10.06865],[34.54573,-10.0686],[34.5459,-10.06854],[34.54608,-10.06847],[34.54616,-10.0684],[34.54625,-10.06832],[34.54629,-10.06829],[34.54636,-10.06827],[34.54641,-10.06823],[34.5465,-10.06821],[34.54651,-10.06819],[34.54658,-10.06818],[34.54658,-10.06815],[34.54663,-10.06813],[34.54671,-10.06801],[34.54691,-10.06793],[34.54698,-10.06784],[34.54707,-10.0678],[34.54718,-10.06772],[34.54734,-10.06755],[34.54737,-10.06756],[34.54741,-10.06753],[34.54745,-10.06747],[34.54746,-10.06743],[34.54748,-10.06741],[34.54752,-10.06743],[34.5476,-10.06739],[34.5478,-10.0673],[34.54785,-10.0673],[34.5479,-10.06726],[34.54799,-10.06725],[34.54814,-10.06715],[34.54821,-10.06714],[34.54831,-10.06705],[34.54837,-10.06702],[34.54846,-10.06682],[34.54847,-10.06665],[34.54844,-10.06649],[34.54841,-10.06642],[34.54825,-10.06628],[34.5482,-10.06627],[34.54807,-10.06614],[34.54807,-10.06607],[34.54799,-10.066],[34.54797,-10.06594],[34.54789,-10.06586],[34.54787,-10.06576],[34.54777,-10.06564],[34.54775,-10.06553],[34.54772,-10.06542],[34.54767,-10.06541],[34.54754,-10.06524],[34.54739,-10.06514],[34.54729,-10.06511],[34.54733,-10.06507],[34.54726,-10.06499],[34.54722,-10.06497],[34.54717,-10.0649],[34.54711,-10.06474],[34.54706,-10.06474],[34.54705,-10.06477],[34.54701,-10.06479],[34.54698,-10.06475],[34.54696,-10.06465],[34.54682,-10.06457],[34.54669,-10.06444],[34.54671,-10.06419],[34.54671,-10.06396],[34.54664,-10.0637],[34.54664,-10.06357],[34.54664,-10.06353],[34.5467,-10.06344],[34.54683,-10.06336],[34.54721,-10.06332],[34.54745,-10.06331],[34.54759,-10.06332],[34.54768,-10.06324],[34.54768,-10.06319],[34.54762,-10.06305],[34.54751,-10.06295],[34.54745,-10.06292],[34.54715,-10.06279],[34.54668,-10.06262],[34.54648,-10.0625],[34.54635,-10.0625],[34.54629,-10.06252]]},"properties":{"id":980802595,"cls":"path","hw":"path","tg":"na","name":"","ref":"","surface":"","sc":"unknown","speed":null,"lit":"unk","km":2.041}},
{"type":"Feature","geometry":{"type":"LineString","coordinates":[[34.54144,-10.07493],[34.54153,-10.07489],[34.54168,-10.07486],[34.54175,-10.07476],[34.54196,-10.07415],[34.54216,-10.07403],[34.54228,-10.07387],[34.54243,-10.07379],[34.5426,-10.07359],[34.54281,-10.0735],[34.54318,-10.07328],[34.54346,-10.07319],[34.54351,-10.07314],[34.54356,-10.07309],[34.54359,-10.07297],[34.54364,-10.07284],[34.54392,-10.07265],[34.54395,-10.07258],[34.54394,-10.07248],[34.54398,-10.07241],[34.54405,-10.07238],[34.54412,-10.07232],[34.54418,-10.07218],[34.54417,-10.07207]]},"properties":{"id":981008704,"cls":"residential","hw":"residential","tg":"na","name":"","ref":"","surface":"unpaved","sc":"unpaved","speed":null,"lit":"unk","km":0.471}},
{"type":"Feature","geometry":{"type":"LineString","coordinates":[[34.54512,-10.07202],[34.54498,-10.07204],[34.5449,-10.072],[34.54465,-10.07198],[34.54456,-10.07196],[34.54447,-10.072],[34.54425,-10.072],[34.54417,-10.07207]]},"properties":{"id":981008705,"cls":"path","hw":"path","tg":"na","name":"","ref":"","surface":"","sc":"unknown","speed":null,"lit":"unk","km":0.109}}
]}