{"type":"FeatureCollection","features":[
{"type":"Feature","geometry":{"type":"LineString","coordinates":[[34.62374,-12.02582],[34.62366,-12.02575],[34.62357,-12.0257],[34.62347,-12.02567],[34.6233,-12.02564],[34.62312,-12.02563],[34.62289,-12.0256],[34.62279,-12.02559],[34.62272,-12.0256],[34.62258,-12.02564],[34.6225,-12.02565],[34.6224,-12.02564],[34.62227,-12.0256],[34.62198,-12.0255],[34.62176,-12.02538],[34.62162,-12.02532],[34.62149,-12.02525],[34.62128,-12.02512],[34.62117,-12.02503],[34.62108,-12.02494],[34.62086,-12.02469],[34.62068,-12.02454],[34.62061,-12.02446],[34.6203,-12.02398],[34.62023,-12.02383],[34.62019,-12.02366],[34.62011,-12.02335],[34.62008,-12.02328],[34.62005,-12.02322],[34.62,-12.02302],[34.61989,-12.02276],[34.61984,-12.02267],[34.61972,-12.02255],[34.61962,-12.02245],[34.61957,-12.02238],[34.61951,-12.02225],[34.61948,-12.02215],[34.61948,-12.02203],[34.6195,-12.02194],[34.61951,-12.02182],[34.6195,-12.0217],[34.61942,-12.02151],[34.61927,-12.0212],[34.61918,-12.02102],[34.61907,-12.02071],[34.61904,-12.02057],[34.61903,-12.02049],[34.61901,-12.0204],[34.61897,-12.02031],[34.61884,-12.01993],[34.61876,-12.01969],[34.6186,-12.0191],[34.61851,-12.01878],[34.61849,-12.01863],[34.61849,-12.01853],[34.61852,-12.01827]]},"properties":{"id":282706689,"cls":"unclassified","hw":"unclassified","tg":"na","name":"","ref":"","surface":"unpaved","sc":"unpaved","speed":null,"lit":"unk","km":1.131}},
{"type":"Feature","geometry":{"type":"LineString","coordinates":[[34.61744,-12.0153],[34.6172,-12.01512],[34.61705,-12.01498],[34.61687,-12.01481],[34.61672,-12.01455],[34.61657,-12.01432],[34.61642,-12.01412],[34.61624,-12.01386],[34.61605,-12.01366],[34.61581,-12.01345],[34.61548,-12.0135],[34.61524,-12.01344]]},"properties":{"id":282706691,"cls":"unclassified","hw":"unclassified","tg":"na","name":"","ref":"","surface":"unpaved","sc":"unpaved","speed":null,"lit":"unk","km":0.337}},
{"type":"Feature","geometry":{"type":"LineString","coordinates":[[34.73749,-12.07606],[34.7374,-12.07616],[34.7373,-12.07628],[34.73722,-12.0764],[34.73714,-12.07652],[34.73707,-12.07668],[34.73703,-12.07685],[34.73697,-12.07719],[34.73691,-12.07754],[34.73674,-12.0786],[34.7367,-12.07894],[34.73657,-12.07996],[34.73643,-12.08105],[34.73641,-12.0812],[34.73635,-12.08175],[34.73631,-12.08211],[34.73631,-12.08224],[34.73632,-12.08229],[34.73637,-12.08236],[34.73643,-12.08242],[34.73648,-12.08246],[34.73655,-12.0825],[34.73672,-12.08256],[34.7368,-12.0826],[34.73687,-12.08267],[34.73695,-12.08281],[34.73702,-12.08292],[34.73711,-12.08309],[34.73749,-12.08371],[34.73752,-12.08376],[34.73757,-12.0838],[34.73764,-12.08384],[34.73784,-12.08396],[34.73794,-12.08404]]},"properties":{"id":305526132,"cls":"track","hw":"track","tg":"none","name":"","ref":"","surface":"ground","sc":"unpaved","speed":null,"lit":"unk","km":0.984}},
{"type":"Feature","geometry":{"type":"LineString","coordinates":[[34.73858,-12.06258],[34.73876,-12.06293],[34.7389,-12.06318],[34.739,-12.0634],[34.73902,-12.06347],[34.73904,-12.06357],[34.73903,-12.06412],[34.73902,-12.06462],[34.73902,-12.06485],[34.73902,-12.06488],[34.739,-12.06511],[34.73896,-12.06536],[34.73886,-12.06574],[34.73881,-12.0659],[34.73878,-12.06601],[34.73867,-12.06645],[34.73862,-12.06663],[34.73851,-12.06719],[34.73849,-12.06741],[34.73849,-12.06794],[34.73853,-12.06839],[34.73856,-12.06846],[34.73862,-12.06856],[34.73864,-12.06862],[34.73864,-12.06867],[34.73859,-12.06873],[34.73833,-12.06917],[34.7379,-12.06986],[34.73761,-12.07022],[34.73734,-12.07052],[34.73723,-12.07065],[34.73712,-12.07085],[34.73689,-12.07174],[34.73683,-12.07194],[34.73674,-12.07234],[34.73667,-12.07277],[34.73659,-12.07331],[34.73656,-12.07364],[34.73655,-12.07382]]},"properties":{"id":305526134,"cls":"tertiary","hw":"tertiary","tg":"na","name":"Chypiela Road","ref":"","surface":"ground","sc":"unpaved","speed":null,"lit":"unk","km":1.329}},
{"type":"Feature","geometry":{"type":"LineString","coordinates":[[34.72654,-12.08547],[34.72665,-12.08478],[34.72672,-12.08432],[34.72679,-12.08393],[34.72684,-12.08377],[34.72716,-12.0832],[34.72762,-12.08247],[34.72785,-12.08208],[34.72799,-12.0818],[34.72808,-12.08155],[34.72811,-12.08123],[34.72812,-12.08084],[34.72814,-12.0807],[34.72821,-12.08053],[34.72828,-12.08038],[34.72851,-12.07992],[34.72873,-12.07936],[34.72889,-12.07888],[34.72916,-12.07817],[34.72937,-12.07756],[34.72943,-12.07747],[34.72957,-12.07732],[34.72991,-12.0768],[34.73003,-12.07659],[34.73015,-12.07642],[34.73043,-12.07611],[34.73067,-12.07581],[34.73101,-12.07549],[34.73109,-12.07543],[34.7312,-12.07538],[34.73152,-12.07528],[34.73164,-12.07525],[34.73175,-12.0752],[34.73189,-12.0751],[34.73208,-12.07495],[34.73227,-12.07482],[34.73247,-12.07472],[34.73277,-12.0746],[34.73296,-12.07451],[34.73314,-12.07438],[34.73327,-12.07426],[34.73347,-12.0741],[34.73359,-12.074],[34.73389,-12.07384],[34.73437,-12.07354],[34.7351,-12.07304],[34.73537,-12.07283],[34.73544,-12.07278],[34.73548,-12.07273],[34.73553,-12.07266],[34.73556,-12.07258],[34.73563,-12.07235],[34.73568,-12.07226],[34.73571,-12.07223],[34.73576,-12.0722],[34.73584,-12.07218],[34.73589,-12.07217],[34.73603,-12.0722],[34.73613,-12.07219],[34.73627,-12.07217],[34.73647,-12.07209],[34.73666,-12.07197],[34.73679,-12.07184],[34.73689,-12.07174]]},"properties":{"id":305526135,"cls":"unclassified","hw":"unclassified","tg":"na","name":"","ref":"","surface":"unpaved","sc":"unpaved","speed":null,"lit":"unk","km":2.023}},
{"type":"Feature","geometry":{"type":"LineString","coordinates":[[34.72316,-12.06343],[34.72378,-12.0636],[34.72451,-12.06386],[34.72481,-12.06394],[34.72498,-12.06396],[34.72512,-12.06397],[34.72532,-12.06396],[34.72551,-12.06398],[34.72564,-12.06398],[34.72596,-12.06394],[34.72646,-12.06391],[34.72658,-12.06391],[34.72668,-12.06393],[34.72691,-12.06398],[34.72744,-12.06405],[34.72795,-12.06413],[34.72834,-12.06416],[34.72852,-12.06417],[34.72874,-12.06423],[34.7293,-12.06447],[34.72944,-12.0645],[34.73,-12.06456],[34.73051,-12.06461],[34.73123,-12.06467],[34.7315,-12.06468],[34.73189,-12.06465],[34.73203,-12.06462],[34.7322,-12.0646],[34.73238,-12.06462],[34.73263,-12.06463],[34.73273,-12.06461],[34.73288,-12.06457],[34.73307,-12.06453],[34.73332,-12.06447],[34.7336,-12.06444],[34.73409,-12.06443],[34.73459,-12.06445],[34.73485,-12.06447],[34.73517,-12.06451],[34.7354,-12.06456],[34.73567,-12.06462],[34.73615,-12.06461],[34.73652,-12.0646],[34.73673,-12.06459],[34.73692,-12.06457],[34.7371,-12.06451],[34.73723,-12.0645],[34.73755,-12.06453],[34.73781,-12.06455],[34.73795,-12.06457],[34.73803,-12.06458],[34.73814,-12.06457],[34.7385,-12.06455],[34.73882,-12.06457],[34.73902,-12.06462]]},"properties":{"id":305526452,"cls":"unclassified","hw":"unclassified","tg":"na","name":"","ref":"","surface":"unpaved","sc":"unpaved","speed":null,"lit":"unk","km":1.752}},
{"type":"Feature","geometry":{"type":"LineString","coordinates":[[34.73313,-12.05287],[34.73337,-12.05237],[34.73366,-12.05174],[34.73383,-12.05139],[34.734,-12.05112],[34.73414,-12.05084],[34.73422,-12.05068],[34.73427,-12.05052],[34.73432,-12.05036],[34.73438,-12.05],[34.73443,-12.04974],[34.73452,-12.04947],[34.73462,-12.04914],[34.73472,-12.04887],[34.73486,-12.04851],[34.73495,-12.04831],[34.73504,-12.04813],[34.73511,-12.04803],[34.73518,-12.04795],[34.73534,-12.04781],[34.73566,-12.04759],[34.736,-12.04739],[34.73625,-12.04727],[34.73642,-12.0472],[34.7366,-12.04713],[34.73676,-12.04703],[34.73784,-12.04638],[34.73789,-12.04635],[34.73804,-12.04638]]},"properties":{"id":305529072,"cls":"residential","hw":"residential","tg":"na","name":"","ref":"","surface":"unpaved","sc":"unpaved","speed":null,"lit":"unk","km":0.957}},
{"type":"Feature","geometry":{"type":"LineString","coordinates":[[34.72672,-12.08432],[34.7258,-12.0845],[34.72536,-12.08461],[34.72528,-12.08463],[34.72517,-12.08464],[34.72497,-12.08461],[34.72469,-12.08451],[34.72423,-12.08433],[34.72401,-12.08419],[34.72375,-12.084],[34.72328,-12.08364],[34.72311,-12.08347],[34.72296,-12.08328],[34.72293,-12.08315],[34.72294,-12.08302],[34.72297,-12.08287],[34.72305,-12.08274],[34.72312,-12.08259],[34.72322,-12.08244],[34.72335,-12.0823],[34.72362,-12.08193],[34.72372,-12.0817],[34.72381,-12.08138],[34.72393,-12.081],[34.72405,-12.08074],[34.72413,-12.08065],[34.72424,-12.08058],[34.72443,-12.08045],[34.7245,-12.08034],[34.72451,-12.08029]]},"properties":{"id":305529073,"cls":"residential","hw":"residential","tg":"na","name":"","ref":"","surface":"unpaved","sc":"unpaved","speed":null,"lit":"unk","km":0.849}},
{"type":"Feature","geometry":{"type":"LineString","coordinates":[[34.72937,-12.07756],[34.72897,-12.07793],[34.72878,-12.07812],[34.7286,-12.07827],[34.72844,-12.0784],[34.72815,-12.07856],[34.72782,-12.07877],[34.72753,-12.07898],[34.72735,-12.07912],[34.72718,-12.07925],[34.72697,-12.07944],[34.72681,-12.07955],[34.72665,-12.07965],[34.72641,-12.07975],[34.72611,-12.07985],[34.72551,-12.08],[34.72451,-12.08029],[34.72399,-12.08051],[34.72368,-12.08066],[34.72348,-12.08079],[34.72336,-12.08085],[34.72324,-12.08088],[34.72261,-12.08101],[34.72193,-12.08115],[34.72183,-12.08118],[34.72173,-12.08122],[34.72158,-12.08127],[34.72142,-12.08131],[34.72108,-12.08137],[34.72045,-12.08165],[34.71979,-12.08192],[34.71959,-12.08197],[34.71937,-12.08202],[34.71918,-12.0821],[34.71879,-12.08219],[34.71834,-12.08227],[34.71809,-12.08231],[34.71793,-12.08237],[34.71782,-12.08239],[34.7177,-12.08242],[34.71763,-12.08246],[34.71749,-12.08253],[34.71734,-12.08257],[34.71711,-12.08261],[34.71684,-12.08263],[34.71648,-12.08265],[34.71624,-12.08261],[34.71602,-12.08263],[34.71584,-12.08272],[34.71563,-12.08287],[34.71554,-12.08294]]},"properties":{"id":305529074,"cls":"unclassified","hw":"unclassified","tg":"na","name":"","ref":"","surface":"unpaved","sc":"unpaved","speed":null,"lit":"unk","km":1.654}},
{"type":"Feature","geometry":{"type":"LineString","coordinates":[[34.72654,-12.08547],[34.72646,-12.08575],[34.72627,-12.08656],[34.72609,-12.08718],[34.72602,-12.08733],[34.72588,-12.08749],[34.72545,-12.08791],[34.72523,-12.08814],[34.72506,-12.08827],[34.72487,-12.08841],[34.72463,-12.08856],[34.7244,-12.08867],[34.72426,-12.08873],[34.72413,-12.08882],[34.72392,-12.08901],[34.72368,-12.08926],[34.72359,-12.08936],[34.72344,-12.08947],[34.72312,-12.08971],[34.72295,-12.08991],[34.72269,-12.09021],[34.72222,-12.09078],[34.72203,-12.091],[34.72186,-12.09124],[34.72162,-12.09166],[34.72122,-12.09256],[34.72086,-12.0932],[34.72074,-12.09339],[34.72059,-12.09347],[34.72046,-12.09351],[34.72033,-12.09349],[34.72012,-12.09343],[34.71925,-12.09283],[34.7189,-12.09263],[34.71875,-12.09253],[34.71868,-12.09247],[34.71867,-12.09237],[34.71869,-12.09226],[34.71868,-12.09219],[34.71858,-12.09205],[34.71823,-12.09173],[34.71811,-12.09167],[34.71803,-12.09165],[34.71797,-12.09164],[34.71789,-12.09166],[34.71779,-12.09169],[34.7177,-12.09172],[34.71761,-12.09177],[34.7172,-12.09198]]},"properties":{"id":305529075,"cls":"unclassified","hw":"unclassified","tg":"na","name":"","ref":"","surface":"unpaved","sc":"unpaved","speed":null,"lit":"unk","km":1.603}},
{"type":"Feature","geometry":{"type":"LineString","coordinates":[[34.72328,-12.08364],[34.72289,-12.08384],[34.72252,-12.08412],[34.72171,-12.08464],[34.72154,-12.08478],[34.72144,-12.08491],[34.72135,-12.08511],[34.72128,-12.08526],[34.72121,-12.08545],[34.72114,-12.08557],[34.72102,-12.08567],[34.72083,-12.08581],[34.72046,-12.08595],[34.72028,-12.08602],[34.72009,-12.08616],[34.71982,-12.0864],[34.71972,-12.08652],[34.71963,-12.08667],[34.71956,-12.08679],[34.71946,-12.08687],[34.71935,-12.08693],[34.71917,-12.08699],[34.71886,-12.08708],[34.71874,-12.08716],[34.71862,-12.08727],[34.71848,-12.08744],[34.7184,-12.0875],[34.71831,-12.08752],[34.71799,-12.08748],[34.71784,-12.08746],[34.7177,-12.08747],[34.71758,-12.08749],[34.71739,-12.08751],[34.71723,-12.08749],[34.71711,-12.08748],[34.71693,-12.08744],[34.71661,-12.08739],[34.71627,-12.08738]]},"properties":{"id":305529076,"cls":"residential","hw":"residential","tg":"na","name":"","ref":"","surface":"unpaved","sc":"unpaved","speed":null,"lit":"unk","km":0.938}},
{"type":"Feature","geometry":{"type":"LineString","coordinates":[[34.71627,-12.08738],[34.71614,-12.08715],[34.71602,-12.08695],[34.71587,-12.08679],[34.71578,-12.08672],[34.71546,-12.08658],[34.7153,-12.0865],[34.71512,-12.08637],[34.71471,-12.08612],[34.71458,-12.08605],[34.71443,-12.08601],[34.71433,-12.08597],[34.71407,-12.0858],[34.71364,-12.08545],[34.71345,-12.0853],[34.71338,-12.08527],[34.71329,-12.08524],[34.71317,-12.08517],[34.71298,-12.08502],[34.71286,-12.08489],[34.71279,-12.08481],[34.71274,-12.0847],[34.71271,-12.08461],[34.71266,-12.08447],[34.71264,-12.08425],[34.71267,-12.08397],[34.71271,-12.08379],[34.71275,-12.08363],[34.71274,-12.08344],[34.71273,-12.08326],[34.71272,-12.08308],[34.71272,-12.08304],[34.71273,-12.08299],[34.71276,-12.0829],[34.71284,-12.08285],[34.71291,-12.08283],[34.71296,-12.08283],[34.71307,-12.08287]]},"properties":{"id":305529077,"cls":"unclassified","hw":"unclassified","tg":"na","name":"","ref":"","surface":"unpaved","sc":"unpaved","speed":null,"lit":"unk","km":0.737}},
{"type":"Feature","geometry":{"type":"LineString","coordinates":[[34.73787,-12.05685],[34.73788,-12.05639],[34.73788,-12.05621],[34.7379,-12.05601],[34.73795,-12.05585],[34.73801,-12.05572],[34.73809,-12.05557],[34.73812,-12.05547],[34.73811,-12.05529],[34.7381,-12.05514],[34.73806,-12.05497],[34.73798,-12.05483],[34.73795,-12.05471],[34.73793,-12.05461],[34.7379,-12.05448],[34.73786,-12.05433],[34.73774,-12.0539],[34.73772,-12.05374],[34.73772,-12.05359],[34.73778,-12.0534],[34.7378,-12.05327],[34.73779,-12.05312],[34.73771,-12.05262],[34.73768,-12.05226],[34.73767,-12.0521],[34.73768,-12.05198],[34.73772,-12.05185],[34.73782,-12.05158],[34.73799,-12.05125],[34.73815,-12.05096],[34.73822,-12.05079],[34.73829,-12.05064],[34.73849,-12.05032],[34.7387,-12.04995],[34.73883,-12.04971],[34.73888,-12.04962],[34.73892,-12.04952],[34.73894,-12.04944],[34.73892,-12.04934],[34.7389,-12.04926],[34.7389,-12.04915],[34.73896,-12.0489],[34.73907,-12.04851],[34.73911,-12.04825],[34.73912,-12.04802],[34.73914,-12.04781],[34.73918,-12.04771],[34.73924,-12.04759],[34.73934,-12.04738],[34.73937,-12.04721],[34.73939,-12.04698],[34.73942,-12.04671],[34.73949,-12.04645]]},"properties":{"id":305529078,"cls":"residential","hw":"residential","tg":"na","name":"","ref":"","surface":"unpaved","sc":"unpaved","speed":null,"lit":"unk","km":1.212}},
{"type":"Feature","geometry":{"type":"LineString","coordinates":[[34.74698,-12.05254],[34.74685,-12.05237],[34.74671,-12.05217],[34.74663,-12.05198],[34.74661,-12.05186],[34.74656,-12.05151],[34.74654,-12.05139],[34.74651,-12.05131],[34.74644,-12.0512],[34.74634,-12.05109],[34.7463,-12.05103],[34.74628,-12.05097],[34.74626,-12.05092],[34.74624,-12.05088],[34.7462,-12.05083],[34.74605,-12.05065],[34.7459,-12.05045],[34.74583,-12.05038],[34.74578,-12.05035],[34.74568,-12.05035],[34.74561,-12.05033],[34.74554,-12.0503],[34.74551,-12.05027],[34.74551,-12.05021],[34.74553,-12.05011],[34.74553,-12.04999],[34.74551,-12.04981],[34.74544,-12.0497],[34.74527,-12.04957],[34.74514,-12.04952],[34.74506,-12.04946],[34.74503,-12.04939],[34.74505,-12.04928],[34.7451,-12.04913],[34.7452,-12.04872],[34.74526,-12.04858],[34.74531,-12.0484]]},"properties":{"id":305529079,"cls":"residential","hw":"residential","tg":"na","name":"","ref":"","surface":"unpaved","sc":"unpaved","speed":null,"lit":"unk","km":0.554}},
{"type":"Feature","geometry":{"type":"LineString","coordinates":[[34.72108,-12.08137],[34.72093,-12.08122],[34.72051,-12.08094],[34.72039,-12.08082],[34.72021,-12.08059],[34.72013,-12.08049],[34.72011,-12.08039],[34.72013,-12.08027],[34.72014,-12.0802],[34.72015,-12.08012],[34.72017,-12.08001],[34.72021,-12.07994],[34.72028,-12.07988],[34.72037,-12.07988],[34.72044,-12.0799],[34.72053,-12.07991],[34.72064,-12.0799],[34.72079,-12.07986],[34.72112,-12.07968],[34.72121,-12.0796],[34.72125,-12.07957],[34.72126,-12.0795],[34.72128,-12.07939],[34.72126,-12.07928],[34.7212,-12.0792],[34.72114,-12.07905],[34.7211,-12.07891],[34.72109,-12.07866],[34.72111,-12.07855],[34.72113,-12.07845],[34.72112,-12.0783],[34.72107,-12.07822],[34.72104,-12.0781],[34.72103,-12.07799],[34.72105,-12.07787],[34.7212,-12.07754],[34.72121,-12.0773],[34.72125,-12.07696],[34.72125,-12.07677],[34.72128,-12.07664],[34.72134,-12.07651],[34.72155,-12.07622],[34.72161,-12.07594],[34.72165,-12.0758],[34.72169,-12.07563],[34.72177,-12.07545],[34.72194,-12.0752],[34.72197,-12.07509],[34.72198,-12.07501],[34.72197,-12.07481]]},"properties":{"id":305529080,"cls":"service","hw":"service","tg":"na","name":"","ref":"","surface":"unpaved","sc":"unpaved","speed":null,"lit":"unk","km":0.892}},
{"type":"Feature","geometry":{"type":"LineString","coordinates":[[34.73888,-12.05893],[34.73946,-12.05859],[34.73998,-12.05817],[34.74065,-12.05767],[34.74125,-12.05719],[34.74202,-12.05647],[34.74296,-12.05542],[34.74311,-12.05526],[34.74325,-12.05514],[34.74336,-12.05507],[34.74343,-12.05501],[34.74365,-12.05481],[34.74439,-12.05421],[34.74454,-12.0541],[34.74469,-12.05401],[34.74481,-12.05394],[34.74499,-12.05387],[34.74505,-12.05383],[34.74509,-12.05381],[34.74515,-12.05375],[34.74527,-12.05359],[34.74544,-12.05339],[34.74556,-12.05328],[34.74569,-12.05317],[34.74581,-12.05308],[34.7459,-12.05301],[34.746,-12.05298],[34.74615,-12.05294],[34.74634,-12.05287],[34.74665,-12.05271],[34.74698,-12.05254],[34.74722,-12.05249],[34.74738,-12.05245],[34.74753,-12.05241],[34.74788,-12.05227],[34.74799,-12.05223],[34.74805,-12.05221],[34.74814,-12.05219],[34.74826,-12.05218],[34.74857,-12.05215],[34.74897,-12.05213],[34.74917,-12.0521],[34.74926,-12.05207],[34.74931,-12.05205],[34.74935,-12.05204],[34.74939,-12.05204],[34.74944,-12.05206],[34.74948,-12.05207],[34.74959,-12.05211],[34.74971,-12.05215],[34.74983,-12.05219],[34.7499,-12.05219],[34.75,-12.05216],[34.7501,-12.05213],[34.75023,-12.05205],[34.75034,-12.05198],[34.75039,-12.05195],[34.75048,-12.05193],[34.75131,-12.0517],[34.75183,-12.05158],[34.75198,-12.05155],[34.75212,-12.05155],[34.75223,-12.0516],[34.75236,-12.05163],[34.75246,-12.05165],[34.75256,-12.05162],[34.75311,-12.05136],[34.7532,-12.05132],[34.7533,-12.05131],[34.75343,-12.05132],[34.75358,-12.05133],[34.75373,-12.05133],[34.75393,-12.0513],[34.75424,-12.05124],[34.75445,-12.0512],[34.75456,-12.05117],[34.75465,-12.05117],[34.75471,-12.0512],[34.7548,-12.05127],[34.75487,-12.05133],[34.75492,-12.05136],[34.75503,-12.05138],[34.75521,-12.05142],[34.75529,-12.05146],[34.75536,-12.05156],[34.75539,-12.05158],[34.75541,-12.0516],[34.75549,-12.05165],[34.7556,-12.05178],[34.75573,-12.05189],[34.75582,-12.05196],[34.75586,-12.05201],[34.75588,-12.05206],[34.75587,-12.05212],[34.75585,-12.05222],[34.75584,-12.0523],[34.75584,-12.0524],[34.75584,-12.0527],[34.75583,-12.05284],[34.75584,-12.05294],[34.75584,-12.05301],[34.75585,-12.05309],[34.75585,-12.05315],[34.75585,-12.05321],[34.75582,-12.05327],[34.75577,-12.0533]]},"properties":{"id":305529081,"cls":"unclassified","hw":"unclassified","tg":"na","name":"","ref":"","surface":"unpaved","sc":"unpaved","speed":null,"lit":"unk","km":2.327}},
{"type":"Feature","geometry":{"type":"LineString","coordinates":[[34.73888,-12.05893],[34.73885,-12.05835],[34.73877,-12.05784],[34.73871,-12.05761],[34.73858,-12.05743],[34.7382,-12.05714],[34.73787,-12.05685],[34.73765,-12.05665],[34.73741,-12.05646],[34.73696,-12.05614],[34.73684,-12.05601],[34.73676,-12.05588],[34.7367,-12.05579],[34.73665,-12.05571],[34.73655,-12.05562],[34.73636,-12.05551],[34.73615,-12.05543],[34.73604,-12.05536],[34.73576,-12.05513],[34.73554,-12.05495],[34.73541,-12.05485],[34.7353,-12.05479],[34.73496,-12.05467],[34.73464,-12.05455],[34.73435,-12.05442],[34.734,-12.05421],[34.73393,-12.05417],[34.73382,-12.05401],[34.73375,-12.05389],[34.73313,-12.05287],[34.73283,-12.05243],[34.73264,-12.05223],[34.73249,-12.05203],[34.73244,-12.05191],[34.73238,-12.05174],[34.73233,-12.0516],[34.73226,-12.05151],[34.73217,-12.05142],[34.73208,-12.05134],[34.73178,-12.05111],[34.73129,-12.05047],[34.73102,-12.05019],[34.73091,-12.05004],[34.73082,-12.04987],[34.73077,-12.04974],[34.73054,-12.04897],[34.73047,-12.04876],[34.7304,-12.04857],[34.73029,-12.0484],[34.73005,-12.04803],[34.72989,-12.04784],[34.72962,-12.04759],[34.72951,-12.04743],[34.72947,-12.04722],[34.72946,-12.04682],[34.72946,-12.04656],[34.72948,-12.04635],[34.72951,-12.04622],[34.72954,-12.04611],[34.72959,-12.04597],[34.7296,-12.04585],[34.72959,-12.0457],[34.72958,-12.04555],[34.7296,-12.04539],[34.72968,-12.04501],[34.72974,-12.04484],[34.72978,-12.0447],[34.72984,-12.0445],[34.72989,-12.04428],[34.72994,-12.04411],[34.72999,-12.04398],[34.73009,-12.04383],[34.73015,-12.04367],[34.7302,-12.04348],[34.73024,-12.04324],[34.73026,-12.04311],[34.73032,-12.04296],[34.73047,-12.04265],[34.73054,-12.04251],[34.7306,-12.04239],[34.73061,-12.0423],[34.7306,-12.04218],[34.73063,-12.04209],[34.73067,-12.04205],[34.73074,-12.04203],[34.7311,-12.04202],[34.73118,-12.04199],[34.73124,-12.04192],[34.73129,-12.04185],[34.73131,-12.04172],[34.73134,-12.04152],[34.73135,-12.04132],[34.73135,-12.041],[34.73136,-12.04075],[34.73133,-12.04011],[34.73132,-12.04],[34.73129,-12.03986],[34.73126,-12.03979],[34.73124,-12.03974],[34.73124,-12.0397],[34.73124,-12.03964],[34.73124,-12.0396],[34.73126,-12.03957],[34.73129,-12.03954],[34.73131,-12.03952],[34.73135,-12.03951],[34.73137,-12.03949],[34.73139,-12.03946],[34.73139,-12.03944],[34.7314,-12.03942],[34.73139,-12.03939],[34.73133,-12.03931],[34.73126,-12.03922],[34.73124,-12.03918],[34.73123,-12.03914],[34.73123,-12.03912],[34.73123,-12.03907],[34.73124,-12.03904],[34.73125,-12.03898],[34.73128,-12.03891],[34.73132,-12.03886],[34.73136,-12.0388],[34.73139,-12.03875],[34.73139,-12.03872],[34.73139,-12.03871],[34.73138,-12.03869],[34.73137,-12.03868],[34.73133,-12.03864],[34.73125,-12.0386],[34.73118,-12.03853],[34.73112,-12.03844],[34.73107,-12.03832],[34.73104,-12.03819],[34.73103,-12.03801],[34.73106,-12.03788],[34.73109,-12.03772],[34.73113,-12.03758],[34.73115,-12.03748],[34.73119,-12.03728]]},"properties":{"id":305529083,"cls":"tertiary","hw":"tertiary","tg":"na","name":"","ref":"","surface":"unpaved","sc":"unpaved","speed":null,"lit":"unk","km":2.95}},
{"type":"Feature","geometry":{"type":"LineString","coordinates":[[34.71851,-12.07686],[34.7186,-12.07662],[34.71865,-12.07646],[34.71869,-12.07629],[34.71873,-12.07609],[34.71873,-12.07589],[34.71869,-12.07577],[34.71864,-12.07558],[34.71856,-12.07546],[34.71851,-12.07537],[34.71848,-12.07527],[34.71845,-12.0751],[34.71843,-12.07493],[34.71842,-12.07476],[34.71842,-12.07461],[34.71844,-12.07448],[34.71847,-12.07434],[34.71849,-12.07423],[34.7185,-12.07415],[34.7185,-12.07387],[34.71849,-12.0735],[34.71848,-12.07331],[34.71847,-12.07308],[34.71847,-12.0729],[34.71848,-12.07262],[34.71848,-12.07241],[34.71847,-12.07224],[34.71846,-12.07214],[34.71844,-12.07205],[34.7184,-12.07194],[34.71835,-12.07183],[34.71832,-12.07173],[34.7183,-12.07164],[34.7183,-12.07151],[34.71832,-12.07144],[34.71834,-12.07137],[34.71842,-12.07122],[34.71856,-12.07096],[34.71859,-12.07087],[34.71861,-12.07077],[34.7186,-12.07061],[34.71862,-12.0705],[34.71866,-12.07042],[34.71871,-12.07034],[34.71878,-12.07025],[34.71883,-12.07018],[34.7189,-12.07011],[34.71898,-12.07007],[34.71903,-12.07001],[34.71905,-12.06996],[34.71907,-12.06985],[34.71909,-12.06976],[34.71919,-12.06966],[34.71929,-12.06954],[34.71941,-12.06934],[34.71955,-12.0692],[34.71973,-12.06905],[34.71984,-12.06898],[34.72003,-12.06887],[34.72021,-12.0687],[34.72059,-12.06827],[34.72134,-12.06743],[34.72162,-12.06709],[34.72185,-12.06682],[34.72203,-12.06652],[34.72217,-12.06623],[34.72221,-12.06615],[34.72227,-12.0661],[34.72233,-12.06604],[34.72239,-12.06601],[34.72252,-12.06594],[34.72258,-12.0659],[34.72263,-12.06586],[34.72267,-12.06583],[34.72271,-12.06577],[34.72276,-12.0657],[34.72283,-12.06563],[34.72308,-12.06541],[34.72315,-12.06537],[34.72319,-12.06533],[34.72322,-12.06528],[34.72324,-12.06523],[34.72325,-12.06517],[34.72325,-12.0651],[34.72327,-12.06503],[34.72331,-12.06497],[34.72336,-12.06492],[34.72342,-12.06488],[34.72352,-12.06483],[34.72364,-12.06478],[34.72373,-12.06475],[34.7238,-12.06475],[34.7239,-12.06473],[34.72406,-12.06471],[34.7241,-12.06471],[34.72413,-12.06469],[34.72416,-12.06467],[34.72429,-12.06459],[34.72457,-12.06445],[34.72468,-12.06438],[34.72479,-12.0643],[34.72492,-12.06421],[34.72498,-12.06415],[34.72503,-12.06409],[34.72512,-12.06397]]},"properties":{"id":305529084,"cls":"path","hw":"path","tg":"na","name":"","ref":"","surface":"unpaved","sc":"unpaved","speed":null,"lit":"unk","km":1.777}},
{"type":"Feature","geometry":{"type":"LineString","coordinates":[[34.73102,-12.08982],[34.73103,-12.09006],[34.73103,-12.09021],[34.731,-12.09041],[34.73098,-12.09055],[34.73097,-12.09066],[34.73098,-12.09079],[34.73098,-12.09088],[34.73098,-12.09094],[34.73095,-12.09099],[34.73091,-12.09103],[34.7308,-12.09111],[34.73076,-12.09115],[34.73071,-12.09122],[34.73048,-12.09157],[34.73025,-12.0919],[34.73006,-12.09224],[34.72988,-12.0926],[34.7298,-12.09269],[34.72972,-12.09275],[34.72959,-12.09281],[34.72951,-12.09286],[34.72946,-12.09292],[34.72942,-12.09303],[34.72938,-12.09306],[34.72932,-12.09311],[34.72926,-12.09317],[34.72921,-12.09327],[34.72908,-12.0935],[34.72905,-12.09354],[34.72899,-12.09358],[34.72891,-12.09365],[34.72883,-12.09377],[34.72876,-12.09393],[34.72873,-12.09405],[34.72871,-12.09417],[34.72869,-12.09422],[34.72865,-12.09427],[34.72857,-12.09432],[34.72845,-12.09438],[34.72831,-12.09443],[34.72815,-12.09447],[34.72805,-12.09451],[34.72795,-12.09456],[34.72786,-12.09463],[34.72774,-12.09473],[34.72745,-12.09504],[34.72713,-12.09537]]},"properties":{"id":305529085,"cls":"residential","hw":"residential","tg":"na","name":"","ref":"","surface":"unpaved","sc":"unpaved","speed":null,"lit":"unk","km":0.794}},
{"type":"Feature","geometry":{"type":"LineString","coordinates":[[34.72241,-12.09276],[34.7224,-12.09256],[34.72239,-12.09245],[34.72241,-12.09238],[34.72244,-12.0923],[34.7225,-12.09218],[34.72257,-12.09209],[34.72271,-12.09192],[34.72273,-12.09189],[34.72274,-12.09186],[34.72275,-12.09182],[34.72275,-12.09178],[34.72272,-12.09166],[34.72269,-12.09149],[34.72267,-12.09134],[34.72264,-12.09121],[34.72263,-12.0911],[34.72264,-12.09091],[34.72266,-12.09066],[34.7227,-12.09032],[34.72269,-12.09021],[34.72198,-12.09026],[34.72176,-12.09028],[34.72154,-12.09033],[34.72116,-12.09041],[34.72102,-12.09044],[34.72084,-12.09043]]},"properties":{"id":305529086,"cls":"residential","hw":"residential","tg":"na","name":"","ref":"","surface":"unpaved","sc":"unpaved","speed":null,"lit":"unk","km":0.5}},
{"type":"Feature","geometry":{"type":"LineString","coordinates":[[34.72992,-12.0551],[34.72973,-12.05505],[34.72955,-12.05497],[34.72946,-12.05491],[34.72932,-12.05481],[34.72925,-12.05478],[34.72916,-12.05477],[34.72869,-12.05472],[34.72822,-12.05467],[34.72789,-12.05462],[34.72775,-12.05454],[34.72766,-12.0545],[34.72758,-12.05443],[34.72753,-12.05431],[34.7275,-12.05418],[34.72751,-12.05398],[34.72752,-12.05383],[34.7276,-12.05362],[34.72763,-12.05348],[34.72768,-12.0533],[34.72769,-12.05321],[34.72767,-12.05314],[34.72765,-12.0531],[34.72762,-12.05307],[34.72756,-12.05304],[34.72751,-12.053],[34.72742,-12.05297],[34.72737,-12.05295],[34.72734,-12.05292],[34.7273,-12.05281],[34.72724,-12.05268],[34.7272,-12.05262],[34.72716,-12.05257],[34.72706,-12.05246],[34.72701,-12.05237],[34.72698,-12.05228],[34.72695,-12.05218],[34.72693,-12.0521],[34.72692,-12.05205],[34.72693,-12.05199],[34.72697,-12.05194],[34.72708,-12.05185],[34.72716,-12.05178]]},"properties":{"id":305531512,"cls":"residential","hw":"residential","tg":"na","name":"","ref":"","surface":"unpaved","sc":"unpaved","speed":null,"lit":"unk","km":0.613}},
{"type":"Feature","geometry":{"type":"LineString","coordinates":[[34.73178,-12.05111],[34.73153,-12.05121],[34.73147,-12.05124],[34.73141,-12.05129],[34.73135,-12.05135],[34.73129,-12.05142],[34.73126,-12.05148],[34.73123,-12.05165],[34.73119,-12.05176],[34.73114,-12.05185],[34.73106,-12.05192],[34.7309,-12.05201],[34.73077,-12.05207],[34.73069,-12.05209],[34.7306,-12.0521],[34.7305,-12.05211],[34.73044,-12.05212],[34.73038,-12.05216],[34.73034,-12.0522],[34.73028,-12.05226],[34.73021,-12.05233],[34.73016,-12.05236],[34.73011,-12.05237],[34.73004,-12.05236],[34.72992,-12.05236],[34.72985,-12.05237],[34.72978,-12.05239],[34.72971,-12.05243],[34.72963,-12.05245],[34.72955,-12.05247],[34.72917,-12.05237],[34.72904,-12.05234],[34.72895,-12.0523],[34.72887,-12.05226],[34.72878,-12.05222],[34.72863,-12.05219],[34.72835,-12.05212],[34.72825,-12.05212],[34.72814,-12.05213],[34.72806,-12.05214],[34.72797,-12.05212],[34.72787,-12.0521],[34.72777,-12.05205],[34.72767,-12.052],[34.72758,-12.05194],[34.72744,-12.05186],[34.72736,-12.05182],[34.72726,-12.05178],[34.72716,-12.05178],[34.72704,-12.05175],[34.72692,-12.05171],[34.72685,-12.05165],[34.72676,-12.05158],[34.72662,-12.05152],[34.72647,-12.05145],[34.7264,-12.05141],[34.72634,-12.05137],[34.72624,-12.05128],[34.72609,-12.05117]]},"properties":{"id":305531513,"cls":"residential","hw":"residential","tg":"na","name":"","ref":"","surface":"unpaved","sc":"unpaved","speed":null,"lit":"unk","km":0.721}},
{"type":"Feature","geometry":{"type":"LineString","coordinates":[[34.74117,-12.08354],[34.74121,-12.08341],[34.74124,-12.08334],[34.74124,-12.08327],[34.74123,-12.08319],[34.74121,-12.08314],[34.74122,-12.08306],[34.7412,-12.08297],[34.74113,-12.08278],[34.74115,-12.08256],[34.74121,-12.08249],[34.74134,-12.08241],[34.7416,-12.0822],[34.74186,-12.08203],[34.74219,-12.08195],[34.74224,-12.08215],[34.74241,-12.08211],[34.74255,-12.08208],[34.74265,-12.08214],[34.74263,-12.08219]]},"properties":{"id":305532462,"cls":"path","hw":"path","tg":"na","name":"","ref":"","surface":"","sc":"unknown","speed":null,"lit":"unk","km":0.323}},
{"type":"Feature","geometry":{"type":"LineString","coordinates":[[34.7402,-12.08342],[34.74089,-12.08338],[34.74117,-12.08354],[34.74152,-12.0837],[34.74174,-12.08373]]},"properties":{"id":305532463,"cls":"service","hw":"service","tg":"na","name":"","ref":"","surface":"unpaved","sc":"unpaved","speed":null,"lit":"unk","km":0.177}},
{"type":"Feature","geometry":{"type":"LineString","coordinates":[[34.74147,-12.08874],[34.7415,-12.08891],[34.74152,-12.08913],[34.74152,-12.08935],[34.74152,-12.08965],[34.74154,-12.08993],[34.74155,-12.0902],[34.74155,-12.0905],[34.74154,-12.09092],[34.74152,-12.09144],[34.74148,-12.09192]]},"properties":{"id":305532464,"cls":"unclassified","hw":"unclassified","tg":"na","name":"","ref":"","surface":"unpaved","sc":"unpaved","speed":null,"lit":"unk","km":0.354}},
{"type":"Feature","geometry":{"type":"LineString","coordinates":[[34.6219,-12.03892],[34.62189,-12.0388],[34.62187,-12.03853],[34.62187,-12.03838],[34.62191,-12.0381],[34.62195,-12.03788],[34.62202,-12.03765],[34.62213,-12.03741],[34.62225,-12.03723],[34.62241,-12.03706],[34.62265,-12.0367],[34.62277,-12.03645],[34.62284,-12.0362],[34.62292,-12.03584],[34.62296,-12.03559],[34.62295,-12.03544],[34.62288,-12.03517],[34.62289,-12.03508],[34.62293,-12.03486],[34.62305,-12.03445],[34.62317,-12.0341],[34.62318,-12.03397],[34.62319,-12.03385],[34.62315,-12.03363],[34.62314,-12.03348],[34.62314,-12.03335],[34.62317,-12.03318],[34.62319,-12.03307],[34.62317,-12.03297],[34.62319,-12.0328],[34.62323,-12.03271],[34.62328,-12.03263],[34.62356,-12.03232],[34.62407,-12.03168],[34.62427,-12.03134],[34.6243,-12.0313],[34.6243,-12.03121],[34.62427,-12.03106],[34.6242,-12.0307],[34.62418,-12.03052],[34.62418,-12.03018],[34.62419,-12.02991],[34.62425,-12.02938],[34.62428,-12.02922],[34.62431,-12.02911],[34.62438,-12.02897],[34.62448,-12.02873],[34.62451,-12.0286],[34.62453,-12.02844],[34.62454,-12.0283],[34.62453,-12.02814],[34.62446,-12.02745],[34.62444,-12.02718],[34.62435,-12.02673],[34.62431,-12.02655],[34.62425,-12.02644],[34.62415,-12.02631],[34.62396,-12.02613],[34.62374,-12.02582]]},"properties":{"id":308191792,"cls":"unclassified","hw":"unclassified","tg":"na","name":"","ref":"","surface":"unpaved","sc":"unpaved","speed":null,"lit":"unk","km":1.561}},
{"type":"Feature","geometry":{"type":"LineString","coordinates":[[34.61852,-12.01827],[34.61841,-12.01782],[34.61835,-12.01763],[34.61824,-12.01744],[34.6181,-12.01714],[34.61805,-12.01697],[34.61795,-12.01681],[34.618,-12.01661],[34.6178,-12.01654],[34.61777,-12.01648],[34.61777,-12.01625],[34.61776,-12.01616],[34.61772,-12.01605],[34.61769,-12.01597],[34.61767,-12.01589],[34.61764,-12.01578],[34.61762,-12.01566],[34.61759,-12.01553],[34.61753,-12.01541],[34.61744,-12.0153]]},"properties":{"id":308191793,"cls":"unclassified","hw":"unclassified","tg":"na","name":"","ref":"","surface":"unpaved","sc":"unpaved","speed":null,"lit":"unk","km":0.367}},
{"type":"Feature","geometry":{"type":"LineString","coordinates":[[34.72042,-12.09013],[34.72033,-12.09005],[34.72024,-12.08996],[34.7201,-12.08978],[34.72,-12.08968],[34.7198,-12.08958],[34.71961,-12.08949],[34.7191,-12.08928],[34.71873,-12.0891],[34.71824,-12.08879],[34.71805,-12.08871],[34.71786,-12.08867],[34.71769,-12.08867],[34.71749,-12.08863],[34.71735,-12.08854],[34.71727,-12.08845],[34.71721,-12.08836],[34.71704,-12.08813],[34.7169,-12.08801],[34.71651,-12.08766],[34.71627,-12.08738]]},"properties":{"id":366651510,"cls":"unclassified","hw":"unclassified","tg":"na","name":"","ref":"","surface":"unpaved","sc":"unpaved","speed":null,"lit":"unk","km":0.562}},
{"type":"Feature","geometry":{"type":"LineString","coordinates":[[34.72051,-12.09019],[34.72042,-12.09013]]},"properties":{"id":366651526,"cls":"unclassified","hw":"unclassified","tg":"na","name":"","ref":"","surface":"unpaved","sc":"unpaved","speed":null,"lit":"unk","km":0.012}},
{"type":"Feature","geometry":{"type":"LineString","coordinates":[[34.73386,-12.08928],[34.73341,-12.08995],[34.73298,-12.09054],[34.73274,-12.09078],[34.73236,-12.09114],[34.73205,-12.09138],[34.73183,-12.0916],[34.7317,-12.09181],[34.73143,-12.09226],[34.73135,-12.09241],[34.73127,-12.09251],[34.73115,-12.0926],[34.73101,-12.09268],[34.73048,-12.09284],[34.7304,-12.09288],[34.73037,-12.09294],[34.73033,-12.09306],[34.73025,-12.09337],[34.73018,-12.09367],[34.73009,-12.09395],[34.73002,-12.09412],[34.73,-12.09436],[34.73,-12.09464],[34.73003,-12.09505],[34.73003,-12.09526],[34.72999,-12.09547],[34.72996,-12.09561],[34.72995,-12.09578],[34.72996,-12.09618],[34.72997,-12.09651]]},"properties":{"id":366651566,"cls":"tertiary","hw":"tertiary","tg":"na","name":"Chiguluwindi Road","ref":"","surface":"ground","sc":"unpaved","speed":null,"lit":"unk","km":0.975}},
{"type":"Feature","geometry":{"type":"LineString","coordinates":[[34.73655,-12.07382],[34.73653,-12.07389],[34.73632,-12.07453],[34.73618,-12.07489],[34.73602,-12.07531],[34.73594,-12.07548],[34.73587,-12.07566],[34.73583,-12.07578],[34.7358,-12.07591],[34.73572,-12.07626],[34.73558,-12.07677],[34.73542,-12.0776],[34.73541,-12.0777],[34.73541,-12.07784],[34.73538,-12.07845],[34.73536,-12.0788],[34.7353,-12.07948],[34.73523,-12.08017],[34.73513,-12.08085],[34.73508,-12.08105],[34.73502,-12.08133],[34.73495,-12.08165],[34.73479,-12.08226],[34.73468,-12.08257],[34.7346,-12.08277],[34.73457,-12.0828],[34.73452,-12.08282],[34.73436,-12.08287],[34.73423,-12.08293],[34.73419,-12.08297],[34.73417,-12.08303],[34.73417,-12.0831],[34.73418,-12.08327],[34.73422,-12.08371],[34.73423,-12.08401],[34.73421,-12.08427],[34.73423,-12.08443],[34.73429,-12.08474],[34.73441,-12.08519],[34.73449,-12.08547],[34.73456,-12.08563],[34.7346,-12.08571],[34.73462,-12.08576],[34.73463,-12.08585],[34.73461,-12.08607],[34.73461,-12.08615],[34.73464,-12.08666],[34.73464,-12.08692],[34.73461,-12.08713],[34.73456,-12.08733],[34.73449,-12.08745],[34.73438,-12.08765],[34.73431,-12.08787],[34.7342,-12.08832],[34.73408,-12.08868],[34.73386,-12.08928]]},"properties":{"id":366651571,"cls":"tertiary","hw":"tertiary","tg":"na","name":"Chypiela Road","ref":"","surface":"ground","sc":"unpaved","speed":null,"lit":"unk","km":1.798}},
{"type":"Feature","geometry":{"type":"LineString","coordinates":[[34.72997,-12.09651],[34.73042,-12.09681],[34.73069,-12.097],[34.73081,-12.09713],[34.73091,-12.09722],[34.73103,-12.0973],[34.73112,-12.09735],[34.73117,-12.09739],[34.7312,-12.09744],[34.73123,-12.09758],[34.73126,-12.09776],[34.73129,-12.09783],[34.73133,-12.0979],[34.73139,-12.09794],[34.73146,-12.09797],[34.73159,-12.098],[34.73172,-12.098],[34.73219,-12.09784],[34.73245,-12.09769],[34.7327,-12.09754],[34.73284,-12.09739],[34.73293,-12.09727],[34.73309,-12.09689]]},"properties":{"id":409574380,"cls":"unclassified","hw":"unclassified","tg":"na","name":"","ref":"","surface":"unpaved","sc":"unpaved","speed":null,"lit":"unk","km":0.472}},
{"type":"Feature","geometry":{"type":"LineString","coordinates":[[34.72992,-12.0551],[34.7298,-12.05514],[34.72916,-12.0553],[34.72901,-12.05535],[34.72889,-12.05543],[34.72882,-12.05547],[34.7287,-12.05554],[34.72826,-12.05569],[34.72802,-12.05575],[34.72767,-12.05582],[34.72749,-12.05585],[34.72733,-12.05587],[34.72512,-12.05602],[34.72494,-12.05602],[34.72487,-12.056],[34.72482,-12.05597],[34.7248,-12.05594],[34.72475,-12.05582],[34.7247,-12.05571],[34.72465,-12.05559],[34.72462,-12.05549],[34.7246,-12.05536],[34.72459,-12.05527],[34.72457,-12.05467],[34.72456,-12.05444],[34.72454,-12.05425],[34.72454,-12.05416],[34.72455,-12.05409],[34.72458,-12.05402]]},"properties":{"id":409574382,"cls":"unclassified","hw":"unclassified","tg":"na","name":"","ref":"","surface":"unpaved","sc":"unpaved","speed":null,"lit":"unk","km":0.794}},
{"type":"Feature","geometry":{"type":"LineString","coordinates":[[34.72458,-12.05402],[34.72461,-12.05398],[34.72466,-12.05393],[34.72472,-12.05389],[34.72482,-12.05384],[34.72488,-12.05381],[34.72493,-12.05376],[34.72497,-12.05372],[34.72508,-12.05358],[34.72528,-12.05336],[34.72555,-12.05306],[34.72562,-12.05297],[34.7257,-12.05285],[34.7258,-12.05268],[34.72581,-12.05262],[34.72581,-12.05256],[34.72578,-12.05246],[34.72573,-12.05236],[34.7257,-12.05227],[34.72567,-12.05214],[34.72565,-12.05203],[34.72558,-12.05184],[34.72559,-12.05178],[34.72562,-12.05172],[34.72566,-12.05166],[34.7257,-12.05161],[34.72591,-12.05141],[34.72598,-12.05133],[34.72603,-12.05126],[34.72609,-12.05117],[34.72632,-12.05076],[34.72636,-12.05062],[34.72637,-12.05054],[34.72639,-12.05045],[34.7264,-12.05034],[34.72642,-12.05027],[34.72653,-12.05003],[34.72667,-12.04982],[34.7268,-12.04963],[34.72695,-12.04946],[34.72708,-12.0493],[34.72723,-12.04919],[34.72728,-12.04915],[34.72736,-12.04911],[34.72742,-12.04908],[34.72746,-12.04906],[34.7275,-12.04905],[34.72756,-12.04905],[34.72761,-12.04904],[34.72765,-12.04902],[34.72769,-12.049],[34.72773,-12.04896],[34.72775,-12.04892],[34.72778,-12.04887],[34.72779,-12.04882],[34.72781,-12.04877],[34.72784,-12.04859],[34.72785,-12.04853],[34.72787,-12.04848],[34.72789,-12.04843],[34.7279,-12.04841],[34.72792,-12.0484],[34.72794,-12.04839],[34.72797,-12.04839],[34.728,-12.04839],[34.72802,-12.04838],[34.72805,-12.04837],[34.72807,-12.04836],[34.7281,-12.04834],[34.72814,-12.04827],[34.72823,-12.04813],[34.72832,-12.04799],[34.7284,-12.04789],[34.72851,-12.0478],[34.72861,-12.04773],[34.72874,-12.04765],[34.72897,-12.04749],[34.72908,-12.04739],[34.7292,-12.04729],[34.72925,-12.04723],[34.72929,-12.04716],[34.72931,-12.04711],[34.72946,-12.04682]]},"properties":{"id":409574383,"cls":"unclassified","hw":"unclassified","tg":"na","name":"","ref":"","surface":"unpaved","sc":"unpaved","speed":null,"lit":"unk","km":1.031}},
{"type":"Feature","geometry":{"type":"LineString","coordinates":[[34.72456,-12.05444],[34.72503,-12.05445],[34.72533,-12.05445],[34.7256,-12.05443],[34.72568,-12.05442],[34.72574,-12.0544],[34.72578,-12.05437],[34.72583,-12.05434],[34.72589,-12.05434],[34.7262,-12.05437],[34.72639,-12.05439],[34.72646,-12.0544],[34.72652,-12.05442],[34.72656,-12.05445],[34.72659,-12.05447],[34.72664,-12.05452],[34.72668,-12.05453],[34.72675,-12.05455],[34.72685,-12.05456],[34.72756,-12.05468],[34.72769,-12.05469],[34.72777,-12.05469],[34.72784,-12.05466],[34.72789,-12.05462]]},"properties":{"id":409574384,"cls":"residential","hw":"residential","tg":"na","name":"","ref":"","surface":"unpaved","sc":"unpaved","speed":null,"lit":"unk","km":0.374}},
{"type":"Feature","geometry":{"type":"LineString","coordinates":[[34.72955,-12.05247],[34.73011,-12.05261],[34.7308,-12.05286],[34.73107,-12.053],[34.73129,-12.05304],[34.73157,-12.0531],[34.73227,-12.05329],[34.73247,-12.05334],[34.73263,-12.05333],[34.7329,-12.05329],[34.73297,-12.05315],[34.73313,-12.05287]]},"properties":{"id":409574385,"cls":"path","hw":"path","tg":"na","name":"","ref":"","surface":"","sc":"unknown","speed":null,"lit":"unk","km":0.433}},
{"type":"Feature","geometry":{"type":"LineString","coordinates":[[34.73124,-12.05501],[34.73139,-12.05484],[34.73153,-12.05461],[34.73168,-12.05451],[34.73183,-12.05438],[34.73205,-12.05423],[34.73217,-12.05405],[34.73238,-12.05374],[34.73264,-12.05355],[34.73275,-12.05339],[34.7329,-12.05329]]},"properties":{"id":409574386,"cls":"path","hw":"path","tg":"na","name":"","ref":"","surface":"","sc":"unknown","speed":null,"lit":"unk","km":0.267}},
{"type":"Feature","geometry":{"type":"LineString","coordinates":[[34.7329,-12.05329],[34.73304,-12.05341],[34.73312,-12.05359],[34.73328,-12.05373],[34.73376,-12.05399],[34.73393,-12.05417]]},"properties":{"id":409574387,"cls":"path","hw":"path","tg":"na","name":"","ref":"","surface":"","sc":"unknown","speed":null,"lit":"unk","km":0.152}},
{"type":"Feature","geometry":{"type":"LineString","coordinates":[[34.73971,-12.08168],[34.7404,-12.08141],[34.74143,-12.08099],[34.74204,-12.08056],[34.74229,-12.08052],[34.74248,-12.0805],[34.74273,-12.0803],[34.743,-12.08009],[34.74336,-12.07987],[34.74384,-12.07949]]},"properties":{"id":409574388,"cls":"path","hw":"path","tg":"na","name":"","ref":"","surface":"","sc":"unknown","speed":null,"lit":"unk","km":0.518}},
{"type":"Feature","geometry":{"type":"LineString","coordinates":[[34.7404,-12.08141],[34.74058,-12.0812],[34.741,-12.08058],[34.74115,-12.08052],[34.74121,-12.0804],[34.74129,-12.08029],[34.74175,-12.07995],[34.74194,-12.07971]]},"properties":{"id":409574389,"cls":"path","hw":"path","tg":"na","name":"","ref":"","surface":"","sc":"unknown","speed":null,"lit":"unk","km":0.257}},
{"type":"Feature","geometry":{"type":"LineString","coordinates":[[34.72943,-12.07747],[34.72952,-12.07752],[34.72964,-12.07757],[34.72971,-12.07758],[34.72984,-12.07755],[34.72996,-12.07756],[34.7302,-12.07762],[34.73039,-12.07768],[34.73056,-12.07772],[34.7307,-12.07775],[34.73092,-12.07777],[34.73116,-12.07777],[34.73139,-12.07779],[34.73166,-12.07785],[34.73181,-12.07785],[34.73205,-12.07782],[34.73248,-12.07772],[34.73276,-12.07765],[34.7329,-12.07757],[34.73313,-12.07738],[34.73329,-12.07721],[34.73344,-12.07697],[34.73349,-12.07688],[34.73354,-12.07684],[34.73363,-12.07681],[34.73378,-12.07677],[34.73391,-12.0767],[34.73414,-12.07657],[34.73449,-12.07635],[34.73467,-12.07623],[34.73478,-12.07613],[34.73486,-12.07603],[34.73503,-12.0757],[34.73507,-12.07559],[34.73515,-12.07549],[34.73525,-12.07543],[34.73551,-12.0753],[34.73562,-12.07525],[34.73575,-12.07519],[34.73582,-12.07513],[34.73597,-12.075],[34.73605,-12.07488],[34.73632,-12.07453]]},"properties":{"id":409574390,"cls":"residential","hw":"residential","tg":"na","name":"","ref":"","surface":"unpaved","sc":"unpaved","speed":null,"lit":"unk","km":0.907}},
{"type":"Feature","geometry":{"type":"LineString","coordinates":[[34.73563,-12.07235],[34.7357,-12.07261],[34.7358,-12.07297],[34.736,-12.07334],[34.73621,-12.07373],[34.73626,-12.0738],[34.73634,-12.07386],[34.73643,-12.0739],[34.73653,-12.07389]]},"properties":{"id":409574391,"cls":"track","hw":"track","tg":"none","name":"","ref":"","surface":"","sc":"unknown","speed":null,"lit":"unk","km":0.209}},
{"type":"Feature","geometry":{"type":"LineString","coordinates":[[34.73605,-12.07488],[34.73615,-12.07462],[34.73631,-12.07425],[34.73643,-12.0739]]},"properties":{"id":409574392,"cls":"track","hw":"track","tg":"none","name":"","ref":"","surface":"","sc":"unknown","speed":null,"lit":"unk","km":0.117}},
{"type":"Feature","geometry":{"type":"LineString","coordinates":[[34.72672,-12.08432],[34.72683,-12.08429],[34.7269,-12.08426],[34.727,-12.08418],[34.72709,-12.0841],[34.72721,-12.08401],[34.7275,-12.08382],[34.72782,-12.08358],[34.72812,-12.0833],[34.72831,-12.08307],[34.7284,-12.08295],[34.72849,-12.08282],[34.72862,-12.08265],[34.72875,-12.08249],[34.72884,-12.08239],[34.7289,-12.08235],[34.72909,-12.08221],[34.72919,-12.08214],[34.72936,-12.08202],[34.72954,-12.08192],[34.72967,-12.08186],[34.72981,-12.08182],[34.72993,-12.08176],[34.73009,-12.08169],[34.73016,-12.08167],[34.73022,-12.08167],[34.73031,-12.0817],[34.7305,-12.08174],[34.73071,-12.08177],[34.73093,-12.08178],[34.73113,-12.08174],[34.73133,-12.08165],[34.73157,-12.08154],[34.73184,-12.08139],[34.73198,-12.08127],[34.73212,-12.08114],[34.73223,-12.08107],[34.73236,-12.08104],[34.73268,-12.08093],[34.73282,-12.08087],[34.73295,-12.08081],[34.73307,-12.08079],[34.73319,-12.08083],[34.73331,-12.0809],[34.73347,-12.08104],[34.73354,-12.08107],[34.73364,-12.08107],[34.73376,-12.08105],[34.73394,-12.08102],[34.73405,-12.08104],[34.73421,-12.08106],[34.73438,-12.08105],[34.73465,-12.08102],[34.73488,-12.08103],[34.73508,-12.08105]]},"properties":{"id":409574393,"cls":"residential","hw":"residential","tg":"na","name":"","ref":"","surface":"unpaved","sc":"unpaved","speed":null,"lit":"unk","km":1.06}},
{"type":"Feature","geometry":{"type":"LineString","coordinates":[[34.73864,-12.06867],[34.73908,-12.06896],[34.73918,-12.06907]]},"properties":{"id":457304754,"cls":"track","hw":"track","tg":"none","name":"","ref":"","surface":"","sc":"unknown","speed":null,"lit":"unk","km":0.074}},
{"type":"Feature","geometry":{"type":"LineString","coordinates":[[34.73386,-12.08928],[34.73348,-12.08934],[34.73318,-12.0894],[34.73278,-12.08952],[34.73255,-12.0896],[34.73238,-12.08968],[34.73226,-12.08974],[34.73219,-12.08977],[34.7321,-12.08979],[34.73203,-12.08979],[34.73195,-12.08979],[34.73178,-12.08978],[34.73165,-12.08978],[34.73148,-12.08978],[34.73107,-12.08982],[34.73102,-12.08982],[34.73083,-12.08983],[34.73071,-12.08984],[34.73058,-12.08984],[34.72997,-12.08978],[34.72951,-12.08975],[34.72943,-12.08976],[34.72934,-12.0898],[34.72926,-12.08981],[34.72921,-12.0898],[34.72917,-12.08977],[34.72913,-12.08971],[34.72905,-12.08952],[34.72899,-12.08944],[34.72893,-12.08937],[34.72857,-12.08907],[34.72825,-12.08885],[34.72817,-12.08879],[34.72809,-12.08873],[34.72797,-12.08856],[34.72785,-12.08837],[34.72773,-12.08817],[34.72771,-12.08802],[34.72767,-12.08733],[34.72765,-12.08713],[34.72761,-12.08697],[34.72749,-12.08666],[34.72734,-12.08623],[34.72724,-12.08606],[34.72714,-12.08592],[34.727,-12.08579],[34.72682,-12.08568],[34.72654,-12.08547]]},"properties":{"id":482518057,"cls":"residential","hw":"residential","tg":"na","name":"","ref":"","surface":"unpaved","sc":"unpaved","speed":null,"lit":"unk","km":1.109}},
{"type":"Feature","geometry":{"type":"LineString","coordinates":[[34.74147,-12.08874],[34.74143,-12.08873],[34.74137,-12.08873],[34.74126,-12.0887],[34.7407,-12.08852],[34.74036,-12.08845],[34.74,-12.08836],[34.73981,-12.08831],[34.73964,-12.08827],[34.73932,-12.08825],[34.73915,-12.08825],[34.73904,-12.08825],[34.73893,-12.08828],[34.73883,-12.08832],[34.73868,-12.08837],[34.73833,-12.08845],[34.738,-12.08854],[34.73781,-12.08861],[34.73762,-12.08868],[34.73747,-12.08872],[34.73731,-12.08876],[34.73688,-12.08884],[34.73641,-12.08893],[34.73629,-12.08895],[34.73548,-12.08904],[34.73432,-12.08926],[34.73386,-12.08928]]},"properties":{"id":482518060,"cls":"residential","hw":"residential","tg":"na","name":"Chiponde Road","ref":"","surface":"ground","sc":"unpaved","speed":null,"lit":"unk","km":0.848}},
{"type":"Feature","geometry":{"type":"LineString","coordinates":[[34.73749,-12.07606],[34.73754,-12.07623],[34.73759,-12.07638],[34.73765,-12.0765],[34.73772,-12.07661],[34.73781,-12.07671],[34.73788,-12.07679],[34.73798,-12.07693],[34.73814,-12.07717],[34.73828,-12.07736],[34.7385,-12.07759],[34.7387,-12.07785],[34.73883,-12.07814],[34.73895,-12.07855],[34.73901,-12.0787],[34.7391,-12.07891],[34.73916,-12.0791],[34.73929,-12.07977],[34.73944,-12.08023],[34.73953,-12.08058],[34.73957,-12.08082],[34.73962,-12.08114],[34.73971,-12.08168],[34.73981,-12.08208],[34.73985,-12.08231],[34.73995,-12.08267],[34.74009,-12.08307],[34.7402,-12.08342],[34.74026,-12.08375],[34.74034,-12.08409],[34.74048,-12.08458],[34.74061,-12.08508],[34.74072,-12.08556],[34.74084,-12.08608],[34.74094,-12.08653],[34.74102,-12.08691],[34.74112,-12.08735],[34.74128,-12.08796],[34.74147,-12.08874]]},"properties":{"id":482518063,"cls":"unclassified","hw":"unclassified","tg":"na","name":"Chiponde Road","ref":"","surface":"ground","sc":"unpaved","speed":null,"lit":"unk","km":1.491}},
{"type":"Feature","geometry":{"type":"LineString","coordinates":[[34.74648,-12.04588],[34.74618,-12.04614],[34.74614,-12.04616],[34.74608,-12.04619],[34.74601,-12.04621],[34.74598,-12.04622],[34.74596,-12.04624],[34.74595,-12.04626],[34.74594,-12.04628],[34.74593,-12.04631],[34.7459,-12.04633],[34.74585,-12.04635],[34.74577,-12.04638],[34.74571,-12.04638],[34.74565,-12.04638],[34.74559,-12.04637],[34.74531,-12.04634],[34.74507,-12.04634],[34.74478,-12.04636],[34.74439,-12.04638],[34.74418,-12.04641],[34.74398,-12.04643],[34.74373,-12.04646],[34.7434,-12.04647],[34.74335,-12.04646],[34.7433,-12.04645],[34.74321,-12.04641],[34.74311,-12.04634],[34.7429,-12.04621],[34.74279,-12.04614],[34.74274,-12.04611],[34.7427,-12.0461],[34.74266,-12.0461],[34.74262,-12.0461],[34.74256,-12.0461],[34.74247,-12.04613],[34.74239,-12.04615],[34.74232,-12.04618],[34.74221,-12.04624],[34.7421,-12.0463],[34.74198,-12.04637],[34.74195,-12.04639],[34.74191,-12.0464],[34.74187,-12.04641],[34.7418,-12.04643],[34.74174,-12.04644],[34.74168,-12.04645],[34.74161,-12.04648],[34.74153,-12.04651],[34.74147,-12.04652],[34.74142,-12.04653],[34.74138,-12.04652],[34.74133,-12.04651],[34.74126,-12.04649],[34.74117,-12.04646],[34.74107,-12.04643],[34.741,-12.0464],[34.74096,-12.04637]]},"properties":{"id":485392964,"cls":"residential","hw":"residential","tg":"na","name":"","ref":"","surface":"unpaved","sc":"unpaved","speed":null,"lit":"unk","km":0.647}},
{"type":"Feature","geometry":{"type":"LineString","coordinates":[[34.71307,-12.08287],[34.71329,-12.08276],[34.71364,-12.08255],[34.71391,-12.08238]]},"properties":{"id":485392965,"cls":"path","hw":"path","tg":"na","name":"","ref":"","surface":"unpaved","sc":"unpaved","speed":null,"lit":"unk","km":0.106}},
{"type":"Feature","geometry":{"type":"LineString","coordinates":[[34.73088,-12.034],[34.73078,-12.03403],[34.73074,-12.0341],[34.73073,-12.03417],[34.73072,-12.03429]]},"properties":{"id":518222408,"cls":"path","hw":"path","tg":"na","name":"","ref":"","surface":"","sc":"unknown","speed":null,"lit":"unk","km":0.042}},
{"type":"Feature","geometry":{"type":"LineString","coordinates":[[34.73088,-12.034],[34.73099,-12.03402],[34.73103,-12.03409],[34.73104,-12.03413],[34.73105,-12.0342],[34.73106,-12.03439],[34.73109,-12.03441],[34.73113,-12.0344],[34.73123,-12.03437],[34.73135,-12.03433],[34.73142,-12.03427],[34.73146,-12.0342],[34.73154,-12.03409]]},"properties":{"id":518222409,"cls":"path","hw":"path","tg":"na","name":"","ref":"","surface":"","sc":"unknown","speed":null,"lit":"unk","km":0.122}},
{"type":"Feature","geometry":{"type":"LineString","coordinates":[[34.73072,-12.03429],[34.7307,-12.03437],[34.73066,-12.03445],[34.73064,-12.03451],[34.73057,-12.03461],[34.73053,-12.03477],[34.73049,-12.03503],[34.73047,-12.03535],[34.73049,-12.03542],[34.73052,-12.03548],[34.73056,-12.03552],[34.73063,-12.03557],[34.73135,-12.03562],[34.73156,-12.03563],[34.73183,-12.03567],[34.73205,-12.03574],[34.73211,-12.03578],[34.73214,-12.03585],[34.7322,-12.03595],[34.7322,-12.03613],[34.7322,-12.03632],[34.73218,-12.0364],[34.73214,-12.03648],[34.73204,-12.03666],[34.73191,-12.03692],[34.73179,-12.03719],[34.7317,-12.03748],[34.73167,-12.03774],[34.73166,-12.03791],[34.73164,-12.038]]},"properties":{"id":518229592,"cls":"path","hw":"path","tg":"na","name":"","ref":"","surface":"","sc":"unknown","speed":null,"lit":"unk","km":0.579}},
{"type":"Feature","geometry":{"type":"LineString","coordinates":[[34.73459,-12.06445],[34.73466,-12.06432],[34.73474,-12.06418],[34.73482,-12.06403],[34.73487,-12.06393],[34.73487,-12.06391],[34.73487,-12.06389],[34.73485,-12.06387],[34.73483,-12.06387],[34.73479,-12.06387]]},"properties":{"id":528940942,"cls":"residential","hw":"residential","tg":"na","name":"","ref":"","surface":"unpaved","sc":"unpaved","speed":null,"lit":"unk","km":0.079}},
{"type":"Feature","geometry":{"type":"LineString","coordinates":[[34.73655,-12.07382],[34.73661,-12.07397],[34.73663,-12.07401],[34.73666,-12.07406],[34.73669,-12.0741],[34.73674,-12.07416],[34.73682,-12.07422],[34.7369,-12.07426],[34.73711,-12.07433],[34.7372,-12.07436],[34.73722,-12.07437],[34.73723,-12.07438],[34.73723,-12.0744],[34.73723,-12.07442],[34.73722,-12.07449],[34.73722,-12.07456],[34.73723,-12.07463],[34.73726,-12.07468],[34.73743,-12.07486],[34.73756,-12.07501],[34.73758,-12.07504],[34.73759,-12.07509],[34.73761,-12.07513],[34.73749,-12.07606]]},"properties":{"id":585245585,"cls":"unclassified","hw":"unclassified","tg":"na","name":"Chiponde Road","ref":"","surface":"ground","sc":"unpaved","speed":null,"lit":"unk","km":0.305}},
{"type":"Feature","geometry":{"type":"LineString","coordinates":[[34.74531,-12.0484],[34.7454,-12.04848],[34.74553,-12.04853],[34.74566,-12.04858],[34.74579,-12.0486],[34.74589,-12.04858],[34.74595,-12.04853],[34.74603,-12.04844],[34.74615,-12.0483],[34.74622,-12.04824],[34.7463,-12.04818],[34.74642,-12.04812],[34.74658,-12.04807],[34.74673,-12.04803],[34.74688,-12.04801],[34.74697,-12.04801],[34.74703,-12.04801],[34.74713,-12.04802],[34.74718,-12.04802],[34.74722,-12.04801],[34.74725,-12.048],[34.74728,-12.04798],[34.74732,-12.04792],[34.74736,-12.04787],[34.74739,-12.04785],[34.74743,-12.04783],[34.74748,-12.04782],[34.74758,-12.04785],[34.74767,-12.04789],[34.74772,-12.04789],[34.74777,-12.04788]]},"properties":{"id":667364956,"cls":"residential","hw":"residential","tg":"na","name":"","ref":"","surface":"","sc":"unknown","speed":null,"lit":"unk","km":0.306}},
{"type":"Feature","geometry":{"type":"LineString","coordinates":[[34.73496,-12.05467],[34.73452,-12.0547],[34.73416,-12.05475],[34.73392,-12.05479],[34.73353,-12.0549],[34.73264,-12.05511],[34.73251,-12.05513],[34.73236,-12.05512],[34.73224,-12.05508],[34.73214,-12.05501],[34.73202,-12.05498],[34.73184,-12.055],[34.73171,-12.05501],[34.73124,-12.05501],[34.73098,-12.055],[34.73028,-12.05504],[34.72992,-12.0551]]},"properties":{"id":667364957,"cls":"unclassified","hw":"unclassified","tg":"na","name":"","ref":"","surface":"unpaved","sc":"unpaved","speed":null,"lit":"unk","km":0.558}},
{"type":"Feature","geometry":{"type":"LineString","coordinates":[[34.73191,-12.04067],[34.73195,-12.04049],[34.732,-12.04036],[34.73214,-12.0402],[34.73227,-12.04008],[34.73239,-12.03998],[34.73246,-12.0399],[34.73251,-12.0398],[34.73252,-12.03964],[34.73253,-12.03943],[34.7325,-12.03932],[34.73244,-12.03921],[34.73238,-12.03908],[34.73237,-12.03897],[34.7324,-12.03881],[34.73248,-12.03872],[34.73256,-12.0386],[34.73264,-12.03847],[34.73268,-12.03834],[34.73268,-12.03817],[34.73268,-12.03791],[34.73269,-12.03779],[34.73269,-12.03768],[34.73268,-12.03761],[34.73265,-12.03755],[34.73261,-12.03751],[34.73256,-12.03746],[34.7325,-12.03744],[34.73244,-12.03745],[34.73239,-12.03749],[34.73235,-12.03753],[34.73227,-12.0376],[34.7321,-12.03775],[34.73191,-12.03789],[34.73175,-12.03801],[34.73172,-12.03803],[34.7317,-12.03806],[34.73169,-12.03808],[34.73168,-12.03809],[34.73166,-12.03809],[34.73165,-12.03809],[34.73164,-12.03808],[34.73163,-12.03804],[34.73164,-12.038]]},"properties":{"id":667364958,"cls":"path","hw":"path","tg":"na","name":"","ref":"","surface":"","sc":"unknown","speed":null,"lit":"unk","km":0.535}},
{"type":"Feature","geometry":{"type":"LineString","coordinates":[[34.73789,-12.04635],[34.73772,-12.0463],[34.73761,-12.04624],[34.73752,-12.04616],[34.73739,-12.04601],[34.7373,-12.04588],[34.73725,-12.04581],[34.73718,-12.04576],[34.7371,-12.04568],[34.73699,-12.04561],[34.73678,-12.04552],[34.73649,-12.04538],[34.7361,-12.0452],[34.73591,-12.0451],[34.73587,-12.04507],[34.73583,-12.04502],[34.73577,-12.04494],[34.73571,-12.04484],[34.73562,-12.04472],[34.73555,-12.04465],[34.73504,-12.04432],[34.73489,-12.0442],[34.73479,-12.0441],[34.73471,-12.04401],[34.73469,-12.04396],[34.73469,-12.04392],[34.73469,-12.04388],[34.73472,-12.04382],[34.73481,-12.04368],[34.73485,-12.04359],[34.73486,-12.04352],[34.73486,-12.04346],[34.73482,-12.04326],[34.73475,-12.04305],[34.73468,-12.04286],[34.73463,-12.04272],[34.7345,-12.04258],[34.73438,-12.04243],[34.73425,-12.0423],[34.73411,-12.04221],[34.73403,-12.04211],[34.73394,-12.04199],[34.73389,-12.04189],[34.73386,-12.04175],[34.7339,-12.0416],[34.73386,-12.04145],[34.73376,-12.04134],[34.73364,-12.04118],[34.73351,-12.04105],[34.73333,-12.04093],[34.73314,-12.04088],[34.73286,-12.04087],[34.73252,-12.04088],[34.73238,-12.04083],[34.73227,-12.04077],[34.73216,-12.04071],[34.73201,-12.04067],[34.73191,-12.04067]]},"properties":{"id":667364959,"cls":"residential","hw":"residential","tg":"na","name":"","ref":"","surface":"","sc":"unknown","speed":null,"lit":"unk","km":1.011}},
{"type":"Feature","geometry":{"type":"LineString","coordinates":[[34.75487,-12.05133],[34.755,-12.05128],[34.75514,-12.05124],[34.75531,-12.05116],[34.75543,-12.05107],[34.75557,-12.05096],[34.75563,-12.05088],[34.75567,-12.05078],[34.7557,-12.05073],[34.75578,-12.05069],[34.75601,-12.05059],[34.75617,-12.05052],[34.75625,-12.05048],[34.75633,-12.05045],[34.75644,-12.05042],[34.75658,-12.05037],[34.75669,-12.05034],[34.75685,-12.05027],[34.75699,-12.05021],[34.75709,-12.05019],[34.75719,-12.05017],[34.7573,-12.05016],[34.75742,-12.05016],[34.7575,-12.05016]]},"properties":{"id":667364960,"cls":"residential","hw":"residential","tg":"na","name":"","ref":"","surface":"","sc":"unknown","speed":null,"lit":"unk","km":0.325}},
{"type":"Feature","geometry":{"type":"LineString","coordinates":[[34.72713,-12.09537],[34.72754,-12.09541],[34.72806,-12.09551],[34.72824,-12.09557],[34.72838,-12.09562],[34.72851,-12.09567],[34.72858,-12.09569],[34.72862,-12.09572],[34.72872,-12.09586],[34.72876,-12.09589],[34.72879,-12.09591],[34.72887,-12.09594],[34.72903,-12.09599],[34.72918,-12.09605],[34.72938,-12.09613],[34.72949,-12.0962],[34.72963,-12.09631],[34.72975,-12.0964],[34.72987,-12.09646],[34.72997,-12.09651]]},"properties":{"id":667384387,"cls":"unclassified","hw":"unclassified","tg":"na","name":"","ref":"","surface":"unpaved","sc":"unpaved","speed":null,"lit":"unk","km":0.342}},
{"type":"Feature","geometry":{"type":"LineString","coordinates":[[34.71554,-12.08294],[34.71531,-12.08314],[34.71522,-12.08321],[34.71509,-12.08324],[34.71496,-12.08325],[34.71466,-12.08322],[34.71418,-12.08315],[34.71372,-12.08306],[34.71335,-12.08296],[34.71307,-12.08287]]},"properties":{"id":667384388,"cls":"unclassified","hw":"unclassified","tg":"na","name":"","ref":"","surface":"unpaved","sc":"unpaved","speed":null,"lit":"unk","km":0.285}},
{"type":"Feature","geometry":{"type":"LineString","coordinates":[[34.7384,-12.06195],[34.73834,-12.06224],[34.73828,-12.0625],[34.73826,-12.0627],[34.73825,-12.06287],[34.73823,-12.06294],[34.7382,-12.063],[34.73813,-12.06312],[34.73805,-12.06321],[34.73796,-12.06331],[34.73787,-12.06345],[34.73781,-12.06358],[34.73771,-12.06371],[34.7376,-12.06381],[34.7375,-12.06391],[34.73739,-12.06407],[34.73736,-12.06418],[34.73737,-12.06423],[34.73739,-12.06428],[34.73744,-12.06439],[34.73755,-12.06453]]},"properties":{"id":667591685,"cls":"residential","hw":"residential","tg":"na","name":"","ref":"","surface":"","sc":"unknown","speed":null,"lit":"unk","km":0.326}},
{"type":"Feature","geometry":{"type":"LineString","coordinates":[[34.73902,-12.06462],[34.73939,-12.06474],[34.73949,-12.06478],[34.73987,-12.0649],[34.74049,-12.0651],[34.74098,-12.06521],[34.74129,-12.06526]]},"properties":{"id":667591686,"cls":"residential","hw":"residential","tg":"na","name":"","ref":"","surface":"unpaved","sc":"unpaved","speed":null,"lit":"unk","km":0.257}},
{"type":"Feature","geometry":{"type":"LineString","coordinates":[[34.73813,-12.06432],[34.73824,-12.06436],[34.73829,-12.06438],[34.73863,-12.0645],[34.73873,-12.06453],[34.73882,-12.06457]]},"properties":{"id":667591687,"cls":"service","hw":"service","tg":"na","name":"","ref":"","surface":"","sc":"unknown","speed":null,"lit":"unk","km":0.08}},
{"type":"Feature","geometry":{"type":"LineString","coordinates":[[34.73769,-12.06429],[34.73813,-12.06432]]},"properties":{"id":667591688,"cls":"service","hw":"service","tg":"na","name":"","ref":"","surface":"","sc":"unknown","speed":null,"lit":"unk","km":0.048}},
{"type":"Feature","geometry":{"type":"LineString","coordinates":[[34.73673,-12.06459],[34.73696,-12.06429],[34.73697,-12.06428],[34.73699,-12.06426],[34.73701,-12.06426],[34.73739,-12.06428],[34.73769,-12.06429]]},"properties":{"id":667591689,"cls":"service","hw":"service","tg":"na","name":"","ref":"","surface":"","sc":"unknown","speed":null,"lit":"unk","km":0.123}},
{"type":"Feature","geometry":{"type":"LineString","coordinates":[[34.72713,-12.09537],[34.72702,-12.09544],[34.72684,-12.09551],[34.72663,-12.09552],[34.72643,-12.09553],[34.72624,-12.09551],[34.72608,-12.09547],[34.72592,-12.09542],[34.72573,-12.09534],[34.72561,-12.09531],[34.7252,-12.09531],[34.7251,-12.09527],[34.72496,-12.09521],[34.7249,-12.09516],[34.72487,-12.0951],[34.72471,-12.09495],[34.72443,-12.09472],[34.7243,-12.09467],[34.72421,-12.09459],[34.72416,-12.09449],[34.72414,-12.09437],[34.7241,-12.09429],[34.72399,-12.09421],[34.72355,-12.09392],[34.72343,-12.0938],[34.72336,-12.09374],[34.72328,-12.09373],[34.72318,-12.09372],[34.72309,-12.0937],[34.72304,-12.09363],[34.72295,-12.09349],[34.72288,-12.09334],[34.7228,-12.09317],[34.72263,-12.09295],[34.72248,-12.09282],[34.72241,-12.09276],[34.7223,-12.09267],[34.72199,-12.09252],[34.72186,-12.09243],[34.72179,-12.0923],[34.72177,-12.09219],[34.72162,-12.09166],[34.72137,-12.09113],[34.72115,-12.0908],[34.72084,-12.09043],[34.72072,-12.09037],[34.72063,-12.09031],[34.72052,-12.0902],[34.72051,-12.09019]]},"properties":{"id":667591691,"cls":"unclassified","hw":"unclassified","tg":"na","name":"","ref":"","surface":"unpaved","sc":"unpaved","speed":null,"lit":"unk","km":1.018}},
{"type":"Feature","geometry":{"type":"LineString","coordinates":[[34.72997,-12.09651],[34.72997,-12.09664],[34.72996,-12.09673],[34.72994,-12.09687],[34.7299,-12.09696],[34.72982,-12.09709],[34.72972,-12.09718],[34.72924,-12.09691]]},"properties":{"id":667591692,"cls":"tertiary","hw":"tertiary","tg":"na","name":"","ref":"","surface":"","sc":"unknown","speed":null,"lit":"unk","km":0.143}},
{"type":"Feature","geometry":{"type":"LineString","coordinates":[[34.73298,-12.09054],[34.73304,-12.0906],[34.73311,-12.09065],[34.73319,-12.0907],[34.73331,-12.09074],[34.73343,-12.09077],[34.73349,-12.0908],[34.73359,-12.09082],[34.73375,-12.09083],[34.73386,-12.09083],[34.73397,-12.09085],[34.73404,-12.09089],[34.73412,-12.09096],[34.73421,-12.09106],[34.73431,-12.09117],[34.73438,-12.09122],[34.73449,-12.09127],[34.7346,-12.09131],[34.73489,-12.09138],[34.73501,-12.0914],[34.73512,-12.0914],[34.73533,-12.0914],[34.73557,-12.09144],[34.73582,-12.09146],[34.73595,-12.09148],[34.73607,-12.09153],[34.73615,-12.09158],[34.73625,-12.09163],[34.73637,-12.09175],[34.7365,-12.09188],[34.73667,-12.09203],[34.73682,-12.09217],[34.73701,-12.09236],[34.73727,-12.0927]]},"properties":{"id":667591693,"cls":"residential","hw":"residential","tg":"na","name":"","ref":"","surface":"","sc":"unknown","speed":null,"lit":"unk","km":0.552}},
{"type":"Feature","geometry":{"type":"LineString","coordinates":[[34.73208,-12.05134],[34.73218,-12.05128],[34.73227,-12.05122],[34.73239,-12.05114],[34.73253,-12.05109],[34.73266,-12.05104],[34.73283,-12.05099],[34.73295,-12.05097],[34.73309,-12.05096],[34.7332,-12.05096],[34.7333,-12.05099],[34.7334,-12.051],[34.73349,-12.05098],[34.73356,-12.05094],[34.73374,-12.05083],[34.73398,-12.05069],[34.73427,-12.05052]]},"properties":{"id":667591694,"cls":"residential","hw":"residential","tg":"na","name":"","ref":"","surface":"","sc":"unknown","speed":null,"lit":"unk","km":0.263}},
{"type":"Feature","geometry":{"type":"LineString","coordinates":[[34.74648,-12.04588],[34.74651,-12.04579],[34.74653,-12.04571],[34.74655,-12.04565],[34.74658,-12.0456],[34.74663,-12.04554],[34.74666,-12.04549],[34.74674,-12.0454],[34.74684,-12.04531],[34.74692,-12.04523],[34.74702,-12.04515],[34.74712,-12.04507],[34.74717,-12.04501],[34.7472,-12.04496],[34.74722,-12.04489],[34.74726,-12.04482],[34.74734,-12.04472],[34.74739,-12.04465],[34.74743,-12.04459],[34.74749,-12.04454],[34.74753,-12.04452],[34.74757,-12.04449],[34.74762,-12.0444],[34.7477,-12.04426],[34.74777,-12.04411],[34.74777,-12.04379]]},"properties":{"id":667591695,"cls":"path","hw":"path","tg":"na","name":"","ref":"","surface":"unpaved","sc":"unpaved","speed":null,"lit":"unk","km":0.282}},
{"type":"Feature","geometry":{"type":"LineString","coordinates":[[34.73858,-12.06258],[34.73847,-12.06229],[34.73844,-12.06219],[34.73842,-12.06209],[34.7384,-12.06195],[34.7384,-12.06185],[34.73848,-12.06129],[34.73851,-12.06091],[34.73855,-12.06046],[34.73861,-12.05983],[34.73866,-12.05958],[34.73871,-12.05941],[34.73888,-12.05893]]},"properties":{"id":667591696,"cls":"tertiary","hw":"tertiary","tg":"na","name":"","ref":"","surface":"unpaved","sc":"unpaved","speed":null,"lit":"unk","km":0.414}},
{"type":"Feature","geometry":{"type":"LineString","coordinates":[[34.74311,-12.05526],[34.743,-12.05529],[34.74292,-12.05528],[34.74284,-12.05525],[34.74268,-12.05516],[34.74195,-12.05465]]},"properties":{"id":667596988,"cls":"residential","hw":"residential","tg":"na","name":"","ref":"","surface":"","sc":"unknown","speed":null,"lit":"unk","km":0.148}},
{"type":"Feature","geometry":{"type":"LineString","coordinates":[[34.73885,-12.05835],[34.73893,-12.05797],[34.739,-12.05759],[34.73904,-12.05731],[34.73903,-12.05719],[34.73906,-12.05709],[34.73914,-12.05695],[34.73922,-12.05683],[34.7393,-12.05673],[34.73937,-12.05665],[34.73946,-12.0566],[34.73969,-12.05649],[34.74011,-12.0563],[34.74026,-12.05619],[34.74046,-12.05601],[34.74058,-12.05586],[34.74068,-12.0557],[34.74078,-12.05556],[34.74085,-12.0555],[34.74114,-12.05529],[34.74132,-12.05521],[34.74146,-12.05516],[34.74164,-12.05517],[34.74186,-12.0552],[34.74206,-12.05524],[34.74223,-12.05527],[34.74236,-12.05529],[34.74248,-12.05527],[34.74284,-12.05525]]},"properties":{"id":667596989,"cls":"path","hw":"path","tg":"na","name":"","ref":"","surface":"","sc":"unknown","speed":null,"lit":"unk","km":0.641}},
{"type":"Feature","geometry":{"type":"LineString","coordinates":[[34.73874,-12.0673],[34.73885,-12.06702],[34.73899,-12.0668],[34.7391,-12.06663],[34.73917,-12.06655],[34.73927,-12.0665],[34.73936,-12.06642],[34.73944,-12.06631],[34.73957,-12.06618],[34.7397,-12.06607],[34.73976,-12.06599],[34.73982,-12.06592],[34.73987,-12.06584],[34.73992,-12.06581],[34.74002,-12.0658],[34.74015,-12.06583],[34.74028,-12.06589],[34.74041,-12.06592],[34.74049,-12.06594],[34.74063,-12.06592],[34.74078,-12.06589],[34.74095,-12.06585],[34.74108,-12.06577],[34.74118,-12.06571],[34.74126,-12.06567],[34.74137,-12.0656],[34.74145,-12.06554],[34.74148,-12.0655],[34.74149,-12.0654],[34.74147,-12.06533],[34.74145,-12.06529],[34.74139,-12.06527],[34.74129,-12.06526]]},"properties":{"id":667596990,"cls":"residential","hw":"residential","tg":"na","name":"","ref":"","surface":"","sc":"unknown","speed":null,"lit":"unk","km":0.441}},
{"type":"Feature","geometry":{"type":"LineString","coordinates":[[34.73728,-12.06768],[34.73726,-12.06714],[34.73724,-12.06678],[34.73723,-12.06662],[34.7372,-12.06648],[34.7372,-12.06629],[34.73724,-12.0662],[34.7373,-12.06611],[34.73741,-12.06606],[34.7378,-12.06588],[34.73803,-12.06579],[34.73823,-12.06571],[34.73832,-12.06567],[34.73842,-12.06567],[34.73852,-12.06572],[34.73868,-12.06582],[34.73881,-12.0659]]},"properties":{"id":667596991,"cls":"residential","hw":"residential","tg":"na","name":"","ref":"","surface":"","sc":"unknown","speed":null,"lit":"unk","km":0.36}},
{"type":"Feature","geometry":{"type":"LineString","coordinates":[[34.74028,-12.06815],[34.74018,-12.06811],[34.74013,-12.0681],[34.74004,-12.06809],[34.73995,-12.06807],[34.73987,-12.06806],[34.73985,-12.06804],[34.73983,-12.06802],[34.73982,-12.06799],[34.73981,-12.06796],[34.73978,-12.06782],[34.73976,-12.06773],[34.73973,-12.06764],[34.73969,-12.06756],[34.73967,-12.0675],[34.73963,-12.06745],[34.73955,-12.06738],[34.73948,-12.06734],[34.7394,-12.06731],[34.73932,-12.06729],[34.73925,-12.06729],[34.73916,-12.0673],[34.73904,-12.06732],[34.73893,-12.06736],[34.73888,-12.06736],[34.73884,-12.06736],[34.73874,-12.0673],[34.73856,-12.06723],[34.73853,-12.06721],[34.73851,-12.06719],[34.73843,-12.0672],[34.73838,-12.06724],[34.73832,-12.0673],[34.7381,-12.06752],[34.73791,-12.06774],[34.73778,-12.06788],[34.7377,-12.06794],[34.73765,-12.06796],[34.7376,-12.06795],[34.73755,-12.06794],[34.7375,-12.06789],[34.73747,-12.06784],[34.73742,-12.06775],[34.73738,-12.06771],[34.73728,-12.06768],[34.73721,-12.06767],[34.73655,-12.06753],[34.7363,-12.06749],[34.73611,-12.06744],[34.73599,-12.06737],[34.73588,-12.06726],[34.73578,-12.06715],[34.73552,-12.06689],[34.73522,-12.06672],[34.735,-12.06655],[34.73481,-12.06639],[34.7347,-12.06625],[34.73463,-12.0662],[34.73457,-12.0662],[34.73452,-12.06622],[34.73448,-12.06624],[34.73443,-12.0663],[34.73437,-12.0664],[34.73431,-12.06652],[34.73427,-12.06663],[34.73425,-12.06674],[34.73421,-12.06702],[34.73416,-12.06716],[34.73409,-12.06727],[34.73404,-12.06737],[34.73397,-12.06745],[34.7338,-12.06761],[34.7337,-12.06773],[34.73368,-12.06779],[34.73371,-12.06788],[34.73378,-12.06798],[34.73382,-12.06808],[34.7339,-12.06831],[34.734,-12.06865],[34.73413,-12.06898],[34.73435,-12.06937],[34.73446,-12.06955],[34.73464,-12.06973],[34.73471,-12.06979],[34.73485,-12.06986],[34.73495,-12.06989],[34.73503,-12.06988],[34.73515,-12.06982],[34.73522,-12.06978],[34.73529,-12.06977],[34.73543,-12.06977],[34.73558,-12.06981],[34.73564,-12.06984]]},"properties":{"id":667596992,"cls":"residential","hw":"residential","tg":"na","name":"","ref":"","surface":"","sc":"unknown","speed":null,"lit":"unk","km":1.356}},
{"type":"Feature","geometry":{"type":"LineString","coordinates":[[34.72957,-12.07732],[34.72988,-12.07713],[34.73051,-12.07679],[34.73106,-12.07649],[34.73129,-12.07637],[34.73146,-12.07629],[34.73162,-12.07625],[34.7318,-12.07623],[34.73198,-12.07622],[34.73217,-12.07625],[34.73235,-12.07629],[34.73253,-12.07639],[34.73268,-12.07645],[34.73283,-12.07653],[34.73296,-12.07664],[34.73305,-12.0767],[34.73316,-12.07673],[34.73334,-12.07677],[34.73363,-12.07681]]},"properties":{"id":667596993,"cls":"residential","hw":"residential","tg":"na","name":"","ref":"","surface":"","sc":"unknown","speed":null,"lit":"unk","km":0.487}},
{"type":"Feature","geometry":{"type":"LineString","coordinates":[[34.73721,-12.06767],[34.73706,-12.06752],[34.73675,-12.06714],[34.73656,-12.06687],[34.73636,-12.06661],[34.73628,-12.06645],[34.73619,-12.0663],[34.73613,-12.06621]]},"properties":{"id":667613806,"cls":"residential","hw":"residential","tg":"na","name":"","ref":"","surface":"","sc":"unknown","speed":null,"lit":"unk","km":0.201}},
{"type":"Feature","geometry":{"type":"LineString","coordinates":[[34.73143,-12.09226],[34.7315,-12.09237],[34.73159,-12.09243],[34.73168,-12.09247],[34.73177,-12.09255],[34.73185,-12.0926],[34.73198,-12.09267],[34.73211,-12.09272],[34.7322,-12.09274],[34.73229,-12.09279],[34.7324,-12.09291],[34.73244,-12.09299],[34.73253,-12.09305],[34.73261,-12.09308],[34.73277,-12.09311],[34.73295,-12.09312],[34.73306,-12.0931]]},"properties":{"id":667613807,"cls":"residential","hw":"residential","tg":"na","name":"","ref":"","surface":"","sc":"unknown","speed":null,"lit":"unk","km":0.212}},
{"type":"Feature","geometry":{"type":"LineString","coordinates":[[34.74102,-12.08691],[34.74129,-12.08705],[34.7416,-12.08722],[34.74185,-12.08734],[34.74203,-12.08742],[34.7422,-12.08745],[34.74239,-12.08747],[34.7426,-12.08752],[34.74277,-12.08754],[34.74284,-12.08754],[34.74291,-12.08752],[34.74297,-12.08748],[34.74302,-12.08743],[34.74306,-12.08737]]},"properties":{"id":667613808,"cls":"residential","hw":"residential","tg":"na","name":"","ref":"","surface":"","sc":"unknown","speed":null,"lit":"unk","km":0.245}},
{"type":"Feature","geometry":{"type":"LineString","coordinates":[[34.71554,-12.08294],[34.71552,-12.08255],[34.71553,-12.08239],[34.71554,-12.08229],[34.71555,-12.08218],[34.71557,-12.0821],[34.71559,-12.08203],[34.71562,-12.08198],[34.71568,-12.0819],[34.71592,-12.08159],[34.71612,-12.08138],[34.71619,-12.08126],[34.71633,-12.08103],[34.71647,-12.08079],[34.71658,-12.08065],[34.71671,-12.08049],[34.71682,-12.08038],[34.71693,-12.0803],[34.71709,-12.0802],[34.71722,-12.0801],[34.7173,-12.08003],[34.71734,-12.07999],[34.71742,-12.07981],[34.71749,-12.07962],[34.71751,-12.07949],[34.71752,-12.07941],[34.71757,-12.07927],[34.71761,-12.07916],[34.71765,-12.07902],[34.71767,-12.07885],[34.71769,-12.07862],[34.71772,-12.07842],[34.71782,-12.07824],[34.71793,-12.07807],[34.71809,-12.07792],[34.71817,-12.07785],[34.71823,-12.07782],[34.71831,-12.07779],[34.71835,-12.07776],[34.71838,-12.07772],[34.71842,-12.07762],[34.71847,-12.07752]]},"properties":{"id":667613809,"cls":"residential","hw":"residential","tg":"na","name":"","ref":"","surface":"unpaved","sc":"unpaved","speed":null,"lit":"unk","km":0.715}},
{"type":"Feature","geometry":{"type":"LineString","coordinates":[[34.74531,-12.0484],[34.74533,-12.04829],[34.74535,-12.04821],[34.74541,-12.04805],[34.74548,-12.04792],[34.74556,-12.04777],[34.74568,-12.04757],[34.7458,-12.04737],[34.74586,-12.04723],[34.74591,-12.04712],[34.74597,-12.04703],[34.74605,-12.04692],[34.7461,-12.04683],[34.74616,-12.04675],[34.74623,-12.04668],[34.74632,-12.04659],[34.74637,-12.04652],[34.74642,-12.0464],[34.74647,-12.04617],[34.74648,-12.04608],[34.74649,-12.046],[34.74648,-12.04588]]},"properties":{"id":667613810,"cls":"residential","hw":"residential","tg":"na","name":"","ref":"","surface":"unpaved","sc":"unpaved","speed":null,"lit":"unk","km":0.314}},
{"type":"Feature","geometry":{"type":"LineString","coordinates":[[34.73135,-12.041],[34.73151,-12.0409],[34.73174,-12.04076],[34.73191,-12.04067]]},"properties":{"id":667613811,"cls":"residential","hw":"residential","tg":"na","name":"","ref":"","surface":"","sc":"unknown","speed":null,"lit":"unk","km":0.071}},
{"type":"Feature","geometry":{"type":"LineString","coordinates":[[34.61858,-12.01406],[34.61862,-12.01365]]},"properties":{"id":674258267,"cls":"track","hw":"track","tg":"none","name":"","ref":"","surface":"","sc":"unknown","speed":null,"lit":"unk","km":0.046}},
{"type":"Feature","geometry":{"type":"LineString","coordinates":[[34.61744,-12.0153],[34.6176,-12.01506],[34.61766,-12.01496],[34.61771,-12.01487],[34.61773,-12.01478],[34.61781,-12.01459],[34.61784,-12.01444],[34.6179,-12.01431],[34.61798,-12.01422],[34.61808,-12.01418],[34.61825,-12.01413],[34.61844,-12.01409],[34.61858,-12.01406]]},"properties":{"id":685762073,"cls":"unclassified","hw":"unclassified","tg":"na","name":"","ref":"","surface":"unpaved","sc":"unpaved","speed":null,"lit":"unk","km":0.203}},
{"type":"Feature","geometry":{"type":"LineString","coordinates":[[34.62433,-12.03131],[34.62441,-12.03132],[34.6246,-12.03134],[34.62486,-12.03137],[34.62505,-12.03143],[34.6252,-12.03149],[34.6258,-12.03166],[34.62619,-12.0317],[34.62668,-12.03159]]},"properties":{"id":685762075,"cls":"unclassified","hw":"unclassified","tg":"na","name":"","ref":"","surface":"unpaved","sc":"unpaved","speed":null,"lit":"unk","km":0.263}},
{"type":"Feature","geometry":{"type":"LineString","coordinates":[[34.62417,-12.03622],[34.62427,-12.03607],[34.62446,-12.03588],[34.62454,-12.03577],[34.62465,-12.03556],[34.62476,-12.03529],[34.6248,-12.03518],[34.6248,-12.03508],[34.6248,-12.035],[34.62478,-12.03495],[34.62472,-12.03485],[34.6247,-12.03477],[34.62471,-12.03471],[34.62475,-12.0346],[34.62484,-12.03449],[34.62487,-12.03446],[34.62489,-12.03441],[34.62488,-12.03431],[34.62484,-12.0342],[34.62482,-12.03407],[34.62476,-12.03398],[34.6247,-12.03385],[34.62467,-12.03358],[34.62467,-12.03338],[34.62469,-12.03307],[34.62468,-12.033],[34.62464,-12.03286],[34.62463,-12.03279],[34.62464,-12.03272],[34.62466,-12.03261],[34.62471,-12.03247],[34.62472,-12.0324],[34.62471,-12.0323],[34.6247,-12.03216],[34.62468,-12.032],[34.62465,-12.03191],[34.62454,-12.0317],[34.62441,-12.03145],[34.62433,-12.03131]]},"properties":{"id":685762078,"cls":"unclassified","hw":"unclassified","tg":"na","name":"","ref":"","surface":"unpaved","sc":"unpaved","speed":null,"lit":"unk","km":0.591}},
{"type":"Feature","geometry":{"type":"LineString","coordinates":[[34.6243,-12.0313],[34.62433,-12.03131],[34.62439,-12.03125],[34.62444,-12.03118],[34.62454,-12.03103],[34.62461,-12.03086],[34.62465,-12.03075],[34.62481,-12.0305],[34.62493,-12.03043],[34.62564,-12.03009]]},"properties":{"id":685762081,"cls":"unclassified","hw":"unclassified","tg":"na","name":"","ref":"","surface":"unpaved","sc":"unpaved","speed":null,"lit":"unk","km":0.21}},
{"type":"Feature","geometry":{"type":"LineString","coordinates":[[34.62425,-12.02938],[34.62408,-12.02946],[34.62398,-12.02952],[34.62389,-12.02959],[34.62384,-12.02962],[34.62382,-12.02964],[34.62379,-12.02966],[34.62373,-12.02955],[34.62366,-12.02945],[34.62356,-12.02933],[34.62342,-12.02923],[34.62324,-12.02909]]},"properties":{"id":685762082,"cls":"unclassified","hw":"unclassified","tg":"na","name":"","ref":"","surface":"unpaved","sc":"unpaved","speed":null,"lit":"unk","km":0.148}},
{"type":"Feature","geometry":{"type":"LineString","coordinates":[[34.61884,-12.01993],[34.61904,-12.01992],[34.61936,-12.01988],[34.61966,-12.01986],[34.61978,-12.01986],[34.61987,-12.01987],[34.61993,-12.01989],[34.61999,-12.01994],[34.61999,-12.01998],[34.61997,-12.02002],[34.61986,-12.02015],[34.61977,-12.02027],[34.61969,-12.02041],[34.61965,-12.02051],[34.61962,-12.02053],[34.61957,-12.02054],[34.61904,-12.02057]]},"properties":{"id":685762083,"cls":"unclassified","hw":"unclassified","tg":"na","name":"","ref":"","surface":"unpaved","sc":"unpaved","speed":null,"lit":"unk","km":0.27}},
{"type":"Feature","geometry":{"type":"LineString","coordinates":[[34.61785,-12.01418],[34.61785,-12.01387],[34.61792,-12.01365]]},"properties":{"id":1306128572,"cls":"unclassified","hw":"unclassified","tg":"na","name":"","ref":"","surface":"unpaved","sc":"unpaved","speed":null,"lit":"unk","km":0.06}},
{"type":"Feature","geometry":{"type":"LineString","coordinates":[[34.61657,-12.01432],[34.61705,-12.01424],[34.61744,-12.01418],[34.61785,-12.01418],[34.61808,-12.01418]]},"properties":{"id":1306128573,"cls":"unclassified","hw":"unclassified","tg":"na","name":"","ref":"","surface":"unpaved","sc":"unpaved","speed":null,"lit":"unk","km":0.166}},
{"type":"Feature","geometry":{"type":"LineString","coordinates":[[34.61687,-12.01481],[34.61651,-12.01469],[34.61594,-12.01453],[34.6155,-12.01447],[34.61529,-12.01452],[34.61517,-12.01453],[34.61492,-12.01448],[34.61469,-12.01442],[34.61447,-12.01435],[34.61421,-12.01438],[34.61353,-12.01414],[34.6131,-12.01404]]},"properties":{"id":1306128574,"cls":"unclassified","hw":"unclassified","tg":"na","name":"","ref":"","surface":"unpaved","sc":"unpaved","speed":null,"lit":"unk","km":0.425}},
{"type":"Feature","geometry":{"type":"LineString","coordinates":[[34.71272,-12.08304],[34.71258,-12.08308],[34.71239,-12.08308],[34.71223,-12.08306],[34.71217,-12.08296],[34.7121,-12.08288],[34.71199,-12.08284],[34.71192,-12.0829],[34.71179,-12.08291],[34.71168,-12.08296]]},"properties":{"id":1348712695,"cls":"path","hw":"path","tg":"na","name":"","ref":"","surface":"","sc":"unknown","speed":null,"lit":"unk","km":0.129}},
{"type":"Feature","geometry":{"type":"LineString","coordinates":[[34.73982,-12.06799],[34.73974,-12.06815],[34.73967,-12.0683],[34.7397,-12.06843],[34.73973,-12.06848]]},"properties":{"id":1348713302,"cls":"path","hw":"path","tg":"na","name":"","ref":"","surface":"","sc":"unknown","speed":null,"lit":"unk","km":0.059}},
{"type":"Feature","geometry":{"type":"LineString","coordinates":[[34.74145,-12.06529],[34.74169,-12.06528],[34.74183,-12.0653],[34.74198,-12.06533]]},"properties":{"id":1348713303,"cls":"path","hw":"path","tg":"na","name":"","ref":"","surface":"","sc":"unknown","speed":null,"lit":"unk","km":0.058}},
{"type":"Feature","geometry":{"type":"LineString","coordinates":[[34.73902,-12.06488],[34.73916,-12.06481],[34.73939,-12.06474]]},"properties":{"id":1348713305,"cls":"unclassified","hw":"unclassified","tg":"na","name":"","ref":"","surface":"","sc":"unknown","speed":null,"lit":"unk","km":0.043}},
{"type":"Feature","geometry":{"type":"LineString","coordinates":[[34.71715,-12.09097],[34.71706,-12.09082],[34.71692,-12.09064],[34.71674,-12.09048],[34.71665,-12.09042],[34.71649,-12.09027]]},"properties":{"id":1348720979,"cls":"path","hw":"path","tg":"na","name":"","ref":"","surface":"","sc":"unknown","speed":null,"lit":"unk","km":0.107}},
{"type":"Feature","geometry":{"type":"LineString","coordinates":[[34.71649,-12.09027],[34.71643,-12.0901],[34.71641,-12.08995],[34.7163,-12.08989],[34.71619,-12.08973],[34.7161,-12.0896],[34.71607,-12.08951],[34.71592,-12.08933],[34.71587,-12.08925],[34.7158,-12.08913],[34.71575,-12.08911]]},"properties":{"id":1348720980,"cls":"path","hw":"steps","tg":"na","name":"","ref":"","surface":"","sc":"unknown","speed":null,"lit":"unk","km":0.157}},
{"type":"Feature","geometry":{"type":"LineString","coordinates":[[34.71587,-12.08925],[34.71578,-12.08932],[34.71568,-12.08933],[34.71563,-12.08936],[34.71564,-12.08943]]},"properties":{"id":1348720981,"cls":"path","hw":"path","tg":"na","name":"","ref":"","surface":"","sc":"unknown","speed":null,"lit":"unk","km":0.038}},
{"type":"Feature","geometry":{"type":"LineString","coordinates":[[34.71715,-12.09097],[34.71722,-12.09114],[34.71723,-12.09127],[34.71717,-12.09138],[34.71713,-12.09155],[34.7171,-12.09169],[34.71711,-12.0918],[34.71714,-12.0919],[34.7172,-12.09198]]},"properties":{"id":1348720982,"cls":"path","hw":"path","tg":"na","name":"","ref":"","surface":"","sc":"unknown","speed":null,"lit":"unk","km":0.119}},
{"type":"Feature","geometry":{"type":"LineString","coordinates":[[34.61999,-12.01994],[34.62004,-12.01982],[34.62007,-12.01966],[34.62011,-12.01896],[34.62024,-12.01856],[34.62024,-12.01832],[34.62004,-12.01804],[34.61982,-12.01773],[34.61968,-12.0177],[34.61947,-12.01734],[34.61917,-12.0171],[34.61902,-12.01678],[34.61914,-12.01625],[34.61919,-12.01578],[34.61946,-12.01564],[34.61962,-12.01541],[34.61967,-12.01509],[34.61961,-12.01484],[34.61979,-12.01445],[34.62034,-12.01424],[34.62112,-12.01399],[34.62112,-12.01388],[34.62109,-12.01294],[34.62211,-12.01282]]},"properties":{"id":1493358726,"cls":"unclassified","hw":"unclassified","tg":"na","name":"","ref":"","surface":"unpaved","sc":"unpaved","speed":null,"lit":"unk","km":1.078}},
{"type":"Feature","geometry":{"type":"LineString","coordinates":[[34.62379,-12.02966],[34.62351,-12.02987]]},"properties":{"id":1493358727,"cls":"unclassified","hw":"unclassified","tg":"na","name":"","ref":"","surface":"unpaved","sc":"unpaved","speed":null,"lit":"unk","km":0.038}},
{"type":"Feature","geometry":{"type":"LineString","coordinates":[[34.6258,-12.03166],[34.62599,-12.03131],[34.626,-12.03125],[34.62622,-12.03083],[34.62635,-12.03066],[34.6264,-12.03039],[34.62659,-12.0301],[34.6267,-12.03006],[34.62677,-12.02986]]},"properties":{"id":1493400581,"cls":"unclassified","hw":"unclassified","tg":"na","name":"","ref":"","surface":"unpaved","sc":"unpaved","speed":null,"lit":"unk","km":0.232}},
{"type":"Feature","geometry":{"type":"LineString","coordinates":[[34.61434,-12.01317],[34.61414,-12.0131],[34.61406,-12.01301],[34.61409,-12.01291],[34.61398,-12.01278],[34.61371,-12.01239],[34.61359,-12.01246],[34.61347,-12.01252],[34.61279,-12.01266],[34.61256,-12.0126]]},"properties":{"id":1493400582,"cls":"unclassified","hw":"unclassified","tg":"na","name":"","ref":"","surface":"unpaved","sc":"unpaved","speed":null,"lit":"unk","km":0.25}},
{"type":"Feature","geometry":{"type":"LineString","coordinates":[[34.61962,-12.02053],[34.61958,-12.02084],[34.6196,-12.02098],[34.61993,-12.02153],[34.62002,-12.02162],[34.62026,-12.02171],[34.62045,-12.02189],[34.62081,-12.02214],[34.62089,-12.02228],[34.62099,-12.02244],[34.62123,-12.0227],[34.62155,-12.02274],[34.62206,-12.02301],[34.62234,-12.02322],[34.6225,-12.02347],[34.62288,-12.02373],[34.62312,-12.0238],[34.62333,-12.02391],[34.62352,-12.02393],[34.62378,-12.02403],[34.62393,-12.02404],[34.62426,-12.02425],[34.62429,-12.02425],[34.62434,-12.02426],[34.62476,-12.02424],[34.62495,-12.02418],[34.62516,-12.02417]]},"properties":{"id":1531454403,"cls":"unclassified","hw":"unclassified","tg":"na","name":"","ref":"","surface":"unpaved","sc":"unpaved","speed":null,"lit":"unk","km":0.8}},
{"type":"Feature","geometry":{"type":"LineString","coordinates":[[34.613,-12.01027],[34.61313,-12.01049],[34.61321,-12.01058],[34.61332,-12.01068],[34.61341,-12.01079],[34.61345,-12.01088],[34.61343,-12.01103],[34.61337,-12.01107],[34.61331,-12.01109],[34.61325,-12.0111],[34.61323,-12.0111],[34.6131,-12.01109],[34.61302,-12.0111],[34.61297,-12.01112]]},"properties":{"id":1531454430,"cls":"unclassified","hw":"unclassified","tg":"na","name":"","ref":"","surface":"unpaved","sc":"unpaved","speed":null,"lit":"unk","km":0.154}},
{"type":"Feature","geometry":{"type":"LineString","coordinates":[[34.61032,-12.01142],[34.61035,-12.01118],[34.61049,-12.01081],[34.6109,-12.01034],[34.61114,-12.0102],[34.61186,-12.0099],[34.61201,-12.00982],[34.61213,-12.00971],[34.61232,-12.0095]]},"properties":{"id":1531454431,"cls":"unclassified","hw":"unclassified","tg":"na","name":"","ref":"","surface":"unpaved","sc":"unpaved","speed":null,"lit":"unk","km":0.323}},
{"type":"Feature","geometry":{"type":"LineString","coordinates":[[34.62112,-12.01388],[34.62144,-12.01376],[34.62195,-12.01369],[34.62248,-12.01353],[34.62267,-12.01341]]},"properties":{"id":1531454504,"cls":"unclassified","hw":"unclassified","tg":"na","name":"","ref":"","surface":"unpaved","sc":"unpaved","speed":null,"lit":"unk","km":0.178}}
]}