{"type":"FeatureCollection","features":[
{"type":"Feature","geometry":{"type":"LineString","coordinates":[[34.86867,-13.49279],[34.86867,-13.49305],[34.86865,-13.49328],[34.86852,-13.49385],[34.86851,-13.494],[34.86849,-13.49413],[34.86854,-13.49426],[34.86871,-13.4945],[34.86875,-13.49475],[34.86897,-13.49518],[34.86899,-13.49542],[34.86904,-13.49554],[34.86916,-13.49567],[34.86963,-13.49576],[34.86991,-13.49598],[34.8704,-13.49615],[34.8705,-13.49623],[34.8705,-13.49666],[34.87047,-13.49694],[34.87048,-13.49733],[34.87046,-13.49745],[34.87041,-13.49751],[34.8704,-13.49763],[34.87032,-13.49774],[34.87031,-13.49786],[34.87026,-13.49798],[34.87025,-13.49811],[34.87032,-13.49873],[34.87037,-13.4993],[34.87035,-13.49962],[34.87032,-13.49984],[34.87025,-13.49998],[34.87021,-13.50011],[34.87007,-13.50033],[34.87002,-13.50049],[34.87,-13.50072],[34.86996,-13.50097],[34.86995,-13.50119],[34.86988,-13.50146],[34.8699,-13.50169],[34.86995,-13.50199],[34.86983,-13.50231],[34.86986,-13.50252],[34.86995,-13.50281],[34.86995,-13.50299],[34.8699,-13.50315],[34.86979,-13.50327],[34.86977,-13.50381],[34.86969,-13.5042],[34.86974,-13.50439],[34.86966,-13.50459],[34.86971,-13.50478],[34.86984,-13.50505],[34.86999,-13.50527],[34.87005,-13.50539],[34.87006,-13.5057],[34.86996,-13.50606],[34.86935,-13.50757]]},"properties":{"id":1417159291,"cls":"unclassified","hw":"unclassified","tg":"na","name":"","ref":"","surface":"","sc":"unknown","speed":null,"lit":"unk","km":1.816}}
]}