{"type":"FeatureCollection","features":[
{"type":"Feature","geometry":{"type":"LineString","coordinates":[[35.24323,-13.42385],[35.24308,-13.4239],[35.24287,-13.424],[35.24211,-13.42435],[35.24175,-13.42446],[35.23907,-13.42499],[35.23845,-13.42512],[35.23813,-13.42523],[35.23578,-13.42605],[35.23557,-13.42609],[35.23195,-13.42642],[35.22863,-13.42531],[35.22543,-13.42523],[35.22371,-13.42615],[35.22281,-13.42917],[35.22271,-13.43153],[35.22281,-13.43356],[35.22281,-13.43399],[35.22159,-13.435],[35.2194,-13.43608],[35.21816,-13.43596],[35.21687,-13.4365],[35.2147,-13.4385],[35.2144,-13.43917],[35.21487,-13.43994],[35.21666,-13.44071],[35.21728,-13.44124],[35.21743,-13.44201],[35.21738,-13.44326],[35.21691,-13.44506],[35.21683,-13.4462],[35.21681,-13.44814],[35.21717,-13.45],[35.21805,-13.45299],[35.21807,-13.4544],[35.21781,-13.45549],[35.21749,-13.45591],[35.21655,-13.4566],[35.2156,-13.45741],[35.2147,-13.45877],[35.21395,-13.46056],[35.21363,-13.46236],[35.21357,-13.46306],[35.21372,-13.46344],[35.21363,-13.46396],[35.21333,-13.46432],[35.21234,-13.4648],[35.21129,-13.4654],[35.21024,-13.46622],[35.20917,-13.46711],[35.20831,-13.46882],[35.20741,-13.47056],[35.20582,-13.47218],[35.20494,-13.473],[35.20384,-13.47283],[35.20176,-13.47237],[35.20018,-13.4716],[35.19904,-13.47104],[35.19801,-13.47051],[35.19747,-13.47045],[35.19593,-13.47114],[35.19509,-13.47239],[35.195,-13.47323],[35.19494,-13.47469],[35.19513,-13.47538],[35.1949,-13.47627],[35.19361,-13.47776],[35.19185,-13.48047],[35.19071,-13.48172],[35.19022,-13.48201],[35.18966,-13.48199],[35.18919,-13.48187],[35.18827,-13.48132],[35.18638,-13.47997],[35.18513,-13.47917],[35.18359,-13.47903],[35.18174,-13.47886],[35.18084,-13.47846],[35.17986,-13.4779],[35.17913,-13.47761],[35.17825,-13.47753],[35.17715,-13.47796],[35.17666,-13.4789],[35.17621,-13.47984],[35.17481,-13.48093],[35.1734,-13.48132],[35.1725,-13.48153],[35.1717,-13.4821],[35.17054,-13.4826],[35.17016,-13.48276],[35.16977,-13.48264],[35.16953,-13.48241],[35.16919,-13.48235],[35.16754,-13.48293],[35.1655,-13.48329],[35.16486,-13.48347],[35.16256,-13.48458],[35.16179,-13.48512],[35.16142,-13.48677],[35.16099,-13.48733],[35.15977,-13.48802],[35.1596,-13.48827],[35.1596,-13.48865],[35.15951,-13.48896],[35.1584,-13.49111],[35.15808,-13.49171],[35.15816,-13.49207],[35.15842,-13.49261],[35.15848,-13.49295],[35.1582,-13.4934],[35.15713,-13.49491],[35.1567,-13.49555],[35.15629,-13.49589],[35.15589,-13.49593],[35.15574,-13.49641],[35.15531,-13.49758],[35.15475,-13.50027],[35.15471,-13.50142],[35.15466,-13.5025],[35.15454,-13.50275],[35.15398,-13.50294],[35.15335,-13.50313],[35.15243,-13.50348],[35.15181,-13.50375],[35.15172,-13.50377],[35.15119,-13.50415],[35.15087,-13.50459],[35.15063,-13.50494],[35.1505,-13.50534],[35.1505,-13.50576],[35.15057,-13.50613],[35.15059,-13.50655],[35.15039,-13.50707],[35.1502,-13.50738],[35.14964,-13.50786],[35.1493,-13.50828],[35.14908,-13.50876],[35.14891,-13.50914],[35.14885,-13.50947],[35.14896,-13.50955],[35.14939,-13.50937],[35.14956,-13.50928],[35.14971,-13.50937],[35.14979,-13.50964],[35.14986,-13.50997],[35.14986,-13.51047],[35.14986,-13.51081],[35.14994,-13.51114],[35.15037,-13.5117],[35.15059,-13.51254],[35.15063,-13.513],[35.15044,-13.51343],[35.15039,-13.51385],[35.15024,-13.51412],[35.14975,-13.51442],[35.14939,-13.51462],[35.14904,-13.51471],[35.14874,-13.51471],[35.14861,-13.51485],[35.14855,-13.51508],[35.1484,-13.51552],[35.14823,-13.51594],[35.14816,-13.51617],[35.1481,-13.51631],[35.14788,-13.51638],[35.14735,-13.51638],[35.14679,-13.51625],[35.14561,-13.51665],[35.14426,-13.51727],[35.14312,-13.51786],[35.14239,-13.51819],[35.14194,-13.51825],[35.14164,-13.51825],[35.14134,-13.51819],[35.14108,-13.51807],[35.14078,-13.518],[35.14046,-13.51807],[35.13994,-13.51811],[35.13941,-13.51825],[35.13879,-13.51836],[35.13829,-13.5184],[35.13754,-13.51834],[35.13718,-13.51846],[35.13683,-13.51869],[35.13662,-13.51898],[35.13649,-13.5193],[35.13636,-13.51944],[35.13617,-13.51951],[35.13578,-13.51957],[35.13527,-13.51961],[35.13512,-13.51978],[35.13503,-13.52019],[35.13497,-13.52059],[35.13497,-13.52082],[35.13482,-13.52109],[35.13456,-13.5214],[35.13454,-13.5217],[35.13447,-13.52224],[35.13421,-13.52287],[35.13394,-13.52347],[35.13338,-13.52393],[35.13258,-13.52441],[35.13151,-13.52524],[35.13035,-13.52606],[35.12979,-13.52664],[35.12928,-13.52706],[35.12872,-13.52739],[35.12782,-13.52768],[35.12662,-13.52793],[35.1264,-13.52804],[35.12591,-13.52781],[35.12529,-13.52741],[35.12482,-13.52731],[35.12415,-13.52741],[35.12295,-13.52785],[35.1219,-13.52844],[35.12083,-13.52894],[35.12035,-13.52942],[35.11984,-13.52919],[35.11853,-13.52864],[35.11782,-13.52829],[35.11718,-13.52814],[35.11645,-13.5281],[35.11608,-13.528],[35.11546,-13.52733],[35.11525,-13.52712],[35.11454,-13.52712],[35.11394,-13.52731],[35.11293,-13.52781],[35.11231,-13.52829],[35.11192,-13.52904],[35.11158,-13.52931],[35.11119,-13.52942],[35.11093,-13.5296],[35.1107,-13.52987],[35.11059,-13.53029],[35.11001,-13.53067],[35.10881,-13.53111],[35.10842,-13.53119],[35.10658,-13.53223],[35.10621,-13.53244],[35.10576,-13.53361],[35.10533,-13.53438],[35.10518,-13.53466],[35.10495,-13.5349],[35.10475,-13.53503],[35.10447,-13.53517],[35.10389,-13.53526],[35.10345,-13.53535],[35.1033,-13.53543],[35.10318,-13.53556],[35.1029,-13.5359],[35.10228,-13.53667],[35.102,-13.53703],[35.10192,-13.53709],[35.10181,-13.53712],[35.10152,-13.53711],[35.1014,-13.53715],[35.10134,-13.5372],[35.10108,-13.53749],[35.10052,-13.53807],[35.09979,-13.53877],[35.09962,-13.53894],[35.09948,-13.53911],[35.09919,-13.53967],[35.09903,-13.53998],[35.09895,-13.54012],[35.09884,-13.54023],[35.09861,-13.54033],[35.09799,-13.54059],[35.09761,-13.5407],[35.09726,-13.54077],[35.09701,-13.54079],[35.09682,-13.54077],[35.09663,-13.54064],[35.09599,-13.54013],[35.09552,-13.53977],[35.09539,-13.5397],[35.09523,-13.53965],[35.09436,-13.53964],[35.09422,-13.53966],[35.09408,-13.53971],[35.09287,-13.5403],[35.09255,-13.54047],[35.09239,-13.54057],[35.09225,-13.54072],[35.0918,-13.54136],[35.09132,-13.54203],[35.0912,-13.54217],[35.0911,-13.54222],[35.09097,-13.54226],[35.09062,-13.54224],[35.08907,-13.54199],[35.08885,-13.54201],[35.08677,-13.54227],[35.08563,-13.54241],[35.08486,-13.5426],[35.08448,-13.5427],[35.08426,-13.54273],[35.08415,-13.54271],[35.08407,-13.54269],[35.08387,-13.54257],[35.08322,-13.54219],[35.08297,-13.542],[35.08265,-13.54163],[35.08217,-13.5412],[35.08199,-13.54104],[35.08181,-13.54092],[35.08161,-13.54089],[35.0814,-13.54088],[35.07976,-13.54083],[35.07916,-13.54085],[35.07803,-13.54104],[35.0776,-13.54107],[35.07649,-13.54106],[35.07578,-13.54092],[35.07494,-13.54077],[35.07424,-13.54048],[35.07405,-13.54043],[35.07374,-13.54044],[35.07276,-13.54059],[35.07188,-13.54071],[35.0717,-13.54075],[35.07154,-13.54084],[35.07139,-13.54099],[35.07097,-13.54166],[35.07037,-13.54265],[35.07028,-13.54284],[35.07028,-13.543],[35.07031,-13.5431],[35.07052,-13.54366],[35.07074,-13.5442],[35.07079,-13.54437],[35.07077,-13.54455],[35.07067,-13.54475],[35.07029,-13.54534],[35.07014,-13.54563],[35.07008,-13.54584],[35.07005,-13.54615],[35.07001,-13.54724],[35.06998,-13.54744],[35.06992,-13.54763],[35.06866,-13.54979],[35.06634,-13.55217],[35.06549,-13.55293],[35.06466,-13.55383],[35.06386,-13.55478],[35.06358,-13.55505],[35.06317,-13.55538],[35.06286,-13.55563],[35.06275,-13.55577],[35.06257,-13.55611],[35.06244,-13.55638],[35.0624,-13.55661],[35.0623,-13.55765],[35.06223,-13.55812],[35.06212,-13.55845],[35.06194,-13.55889],[35.06179,-13.55912],[35.06071,-13.56044],[35.05942,-13.56228],[35.05886,-13.56272],[35.05864,-13.56285],[35.05844,-13.5629],[35.05808,-13.5629],[35.05769,-13.56295],[35.05737,-13.56304],[35.05691,-13.5633],[35.05605,-13.56391],[35.05577,-13.56429],[35.05459,-13.56588],[35.05374,-13.56705],[35.05363,-13.56727],[35.05331,-13.56806],[35.0532,-13.56831],[35.05306,-13.56852],[35.05252,-13.56918],[35.05204,-13.56977],[35.05183,-13.56993],[35.05137,-13.5702],[35.05035,-13.57079],[35.04977,-13.57113],[35.04688,-13.57329],[35.04451,-13.57507],[35.04411,-13.57538],[35.04386,-13.57562],[35.04369,-13.57586],[35.04299,-13.5769],[35.04271,-13.57728],[35.04192,-13.57808],[35.04069,-13.57928],[35.03973,-13.58038],[35.03957,-13.58051],[35.03939,-13.58064],[35.03566,-13.58208],[35.03548,-13.58217],[35.03534,-13.58229],[35.03377,-13.5841],[35.03346,-13.58447],[35.03338,-13.58466],[35.03336,-13.58482],[35.03317,-13.58638],[35.03278,-13.58791],[35.03253,-13.58878],[35.03234,-13.5894],[35.03212,-13.58983],[35.03152,-13.59087],[35.03147,-13.59107],[35.03149,-13.59129],[35.03154,-13.59153],[35.03193,-13.59211],[35.03202,-13.59231],[35.03208,-13.59261],[35.03212,-13.59312],[35.03338,-13.59891],[35.03356,-13.5994],[35.03371,-13.59978],[35.03386,-13.60004],[35.03412,-13.60054],[35.03444,-13.60121],[35.03466,-13.60173],[35.03476,-13.60201],[35.03481,-13.60218],[35.03484,-13.60232],[35.03484,-13.60248],[35.03483,-13.60268],[35.03479,-13.60286],[35.03472,-13.60315],[35.03465,-13.60345],[35.03458,-13.60382],[35.03453,-13.60407],[35.03448,-13.60428],[35.03446,-13.60439],[35.03443,-13.60458],[35.03442,-13.60483],[35.03444,-13.60522],[35.03445,-13.60543],[35.03445,-13.60553],[35.03443,-13.60572],[35.0344,-13.60589],[35.03436,-13.60602],[35.03431,-13.60617],[35.03423,-13.60633],[35.03408,-13.60659],[35.03393,-13.60682],[35.03374,-13.6071],[35.03354,-13.60741],[35.03327,-13.60778],[35.03296,-13.60822],[35.03271,-13.60857],[35.03242,-13.60899],[35.03216,-13.60938],[35.03201,-13.60959],[35.03193,-13.60976],[35.03185,-13.60991],[35.03179,-13.61007],[35.03171,-13.61035],[35.03166,-13.61061],[35.03162,-13.61087],[35.03161,-13.61115],[35.03161,-13.61142],[35.03163,-13.61161],[35.03163,-13.61182],[35.03163,-13.61203],[35.03159,-13.61228],[35.03155,-13.61252],[35.03151,-13.61277],[35.03147,-13.61299],[35.03141,-13.61326],[35.03136,-13.61347],[35.0313,-13.61364],[35.03122,-13.61383],[35.03112,-13.614],[35.03102,-13.61416],[35.03093,-13.6143],[35.0308,-13.6145],[35.03066,-13.61471],[35.03055,-13.61487],[35.03042,-13.61507],[35.03027,-13.61527],[35.03015,-13.61546],[35.03007,-13.61562],[35.03,-13.61578],[35.0299,-13.61596],[35.02983,-13.61614],[35.02971,-13.61648],[35.02958,-13.61677],[35.02946,-13.61704],[35.02933,-13.61733],[35.02921,-13.61766],[35.0291,-13.61793],[35.02902,-13.61811],[35.02898,-13.61828],[35.02892,-13.61847],[35.02886,-13.61868],[35.02885,-13.61879],[35.0288,-13.61909],[35.02876,-13.6194],[35.02871,-13.61975],[35.02862,-13.62051],[35.02855,-13.62114],[35.02847,-13.62178],[35.02838,-13.62227],[35.02833,-13.6226],[35.02827,-13.62298],[35.02827,-13.62299],[35.0282,-13.62344],[35.0281,-13.62415],[35.02807,-13.62451],[35.02806,-13.62497],[35.02805,-13.62591],[35.02806,-13.62642],[35.02805,-13.6272],[35.02806,-13.62796],[35.02806,-13.62816],[35.02805,-13.62828],[35.02806,-13.62843],[35.02807,-13.62856],[35.02808,-13.62865],[35.0281,-13.62872],[35.02813,-13.62881],[35.02828,-13.62914],[35.02854,-13.62963],[35.02888,-13.63023],[35.02912,-13.63058],[35.02931,-13.63081],[35.02953,-13.63106],[35.02975,-13.63132],[35.02991,-13.6315],[35.02999,-13.63161],[35.03007,-13.63173],[35.03011,-13.63181],[35.03014,-13.63189],[35.03019,-13.63201],[35.03038,-13.63263],[35.03061,-13.63341],[35.03065,-13.63353],[35.03088,-13.63428],[35.03116,-13.63517],[35.03122,-13.63534],[35.03147,-13.63607],[35.03153,-13.63626],[35.03156,-13.63635],[35.03156,-13.63643],[35.03155,-13.63651],[35.03154,-13.63654],[35.03152,-13.63658],[35.0314,-13.63676],[35.03102,-13.6372],[35.0306,-13.63765],[35.03048,-13.6378],[35.0304,-13.63793],[35.03029,-13.63817],[35.03015,-13.63858],[35.03008,-13.63888],[35.03005,-13.639],[35.02997,-13.63931],[35.02992,-13.6396],[35.02989,-13.63988],[35.02989,-13.63992],[35.02989,-13.63996],[35.02988,-13.64014],[35.02984,-13.64041],[35.0298,-13.64064],[35.02969,-13.64099],[35.0296,-13.64128],[35.02957,-13.64139],[35.02953,-13.64152],[35.02942,-13.64179],[35.02936,-13.64194],[35.02913,-13.64243],[35.02912,-13.64247],[35.02893,-13.64285],[35.02876,-13.64313],[35.02852,-13.64357],[35.02832,-13.64385],[35.02826,-13.64396],[35.02824,-13.64401],[35.0282,-13.64407],[35.02814,-13.64423],[35.02811,-13.64434],[35.0281,-13.64447],[35.02809,-13.64461],[35.02809,-13.64473],[35.02811,-13.64483],[35.02813,-13.64495],[35.02816,-13.64505],[35.02829,-13.6453],[35.02841,-13.64551],[35.02847,-13.64565],[35.0285,-13.64577],[35.02853,-13.64605],[35.02855,-13.64622],[35.0286,-13.64682],[35.02863,-13.64769],[35.02865,-13.64789],[35.02869,-13.64804],[35.02882,-13.64838],[35.02899,-13.6488],[35.0294,-13.64974],[35.03035,-13.65171],[35.03176,-13.65477],[35.032,-13.6553],[35.03207,-13.6555],[35.03211,-13.65563],[35.03221,-13.65601],[35.03228,-13.65636],[35.03232,-13.65683],[35.03234,-13.65701],[35.03237,-13.65723],[35.03242,-13.65745],[35.0325,-13.65768],[35.03269,-13.65803],[35.03295,-13.65861],[35.03305,-13.65889],[35.03313,-13.65903],[35.03322,-13.65916],[35.03329,-13.65924],[35.03336,-13.65931],[35.03349,-13.6594],[35.03364,-13.6595],[35.03372,-13.65957],[35.0338,-13.65967],[35.03382,-13.65972],[35.03384,-13.65981]]},"properties":{"id":273864446,"cls":"tertiary","hw":"tertiary","tg":"na","name":"","ref":"","surface":"","sc":"unknown","speed":null,"lit":"unk","km":44.689}}
]}